<?xml version="1.0" encoding="UTF-8"?>
<gpx version="1.1" creator="nz-trip-planner" xmlns="http://www.topografix.com/GPX/1/1" xmlns:xsi="http://www.w3.org/2001/XMLSchema-instance" xsi:schemaLocation="http://www.topografix.com/GPX/1/1 http://www.topografix.com/GPX/1/1/gpx.xsd">
  <metadata><name>NZ27 Attraktionen</name></metadata>
  <wpt lat="-43.804317" lon="172.967833">
    <name>Akaroa (T2)</name>
    <desc>Tag 2 (20.03) - Christchurch → Akaroa (75 km) | Rating 8/10
https://www.google.com/maps/place/Akaroa/@-43.804317,172.967833,15z</desc>
  </wpt>
  <wpt lat="-45.110276" lon="170.980178">
    <name>Oamaru Blue Penguin Colony (T4)</name>
    <desc>Tag 4 (22.03) - Oamaru | Rating 8/10
https://www.google.com/maps/place/Oamaru%20Blue%20Penguin%20Colony/@-45.110276,170.980178,15z</desc>
  </wpt>
  <wpt lat="-45.340500" lon="170.823800">
    <name>Moeraki Boulders (T5)</name>
    <desc>Tag 5 (23.03) - Oamaru → Dunedin (115 km) | Rating 8/10
https://www.google.com/maps/place/Moeraki%20Boulders/@-45.340500,170.823800,15z</desc>
  </wpt>
  <wpt lat="-45.776126" lon="170.728536">
    <name>Royal Albatross Centre (T5)</name>
    <desc>Tag 5 (23.03) - Oamaru → Dunedin (115 km) | Rating 8/10
https://www.google.com/maps/place/Royal%20Albatross%20Centre/@-45.776126,170.728536,15z</desc>
  </wpt>
  <wpt lat="-45.796663" lon="170.730091">
    <name>Penguin Place (T5)</name>
    <desc>Tag 5 (23.03) - Oamaru → Dunedin (115 km) | Rating 8/10
https://www.google.com/maps/place/Penguin%20Place/@-45.796663,170.730091,15z</desc>
  </wpt>
  <wpt lat="-45.897203" lon="170.650028">
    <name>Sandfly Bay (T5)</name>
    <desc>Tag 5 (23.03) - Oamaru → Dunedin (115 km) | Rating 7/10
https://www.google.com/maps/place/Sandfly%20Bay/@-45.897203,170.650028,15z</desc>
  </wpt>
  <wpt lat="-45.776126" lon="170.728536">
    <name>Royal Albatross Centre (T6)</name>
    <desc>Tag 6 (24.03) - Dunedin | Rating 8/10
https://www.google.com/maps/place/Royal%20Albatross%20Centre/@-45.776126,170.728536,15z</desc>
  </wpt>
  <wpt lat="-45.796663" lon="170.730091">
    <name>Penguin Place (T6)</name>
    <desc>Tag 6 (24.03) - Dunedin | Rating 8/10
https://www.google.com/maps/place/Penguin%20Place/@-45.796663,170.730091,15z</desc>
  </wpt>
  <wpt lat="-45.897203" lon="170.650028">
    <name>Sandfly Bay (T6)</name>
    <desc>Tag 6 (24.03) - Dunedin | Rating 7/10
https://www.google.com/maps/place/Sandfly%20Bay/@-45.897203,170.650028,15z</desc>
  </wpt>
  <wpt lat="-46.663648" lon="169.101016">
    <name>Curio Bay Petrified Forest (T8)</name>
    <desc>Tag 8 (26.03) - Catlins | Rating 7/10
https://www.google.com/maps/place/Curio%20Bay%20Petrified%20Forest/@-46.663648,169.101016,15z</desc>
  </wpt>
  <wpt lat="-46.517571" lon="169.560837">
    <name>Purakaunui Falls (T8)</name>
    <desc>Tag 8 (26.03) - Catlins | Rating 7/10
https://www.google.com/maps/place/Purakaunui%20Falls/@-46.517571,169.560837,15z</desc>
  </wpt>
  <wpt lat="-46.674290" lon="169.001601">
    <name>Slope Point (T8)</name>
    <desc>Tag 8 (26.03) - Catlins | Rating 6/10
https://www.google.com/maps/place/Slope%20Point/@-46.674290,169.001601,15z</desc>
  </wpt>
  <wpt lat="-46.893800" lon="168.126200">
    <name>Stewart Island (T10)</name>
    <desc>Tag 10 (28.03) - Stewart Island | Rating 9/10
https://www.google.com/maps/place/Stewart%20Island/@-46.893800,168.126200,15z</desc>
  </wpt>
  <wpt lat="-45.300000" lon="168.200000">
    <name>Mavora Lakes (T11)</name>
    <desc>Tag 11 (29.03) - Stewart Island → Te Anau (~260 km) | Rating 8/10
https://www.google.com/maps/place/Mavora%20Lakes/@-45.300000,168.200000,15z</desc>
  </wpt>
  <wpt lat="-45.409885" lon="167.706972">
    <name>Te Anau Glowworm Caves (T12)</name>
    <desc>Tag 12 (30.03) - Te Anau | Rating 8/10
https://www.google.com/maps/place/Te%20Anau%20Glowworm%20Caves/@-45.409885,167.706972,15z</desc>
  </wpt>
  <wpt lat="-45.300000" lon="168.200000">
    <name>Mavora Lakes (T12)</name>
    <desc>Tag 12 (30.03) - Te Anau | Rating 8/10
https://www.google.com/maps/place/Mavora%20Lakes/@-45.300000,168.200000,15z</desc>
  </wpt>
  <wpt lat="-45.409885" lon="167.706972">
    <name>Te Anau Glowworm Caves (T13)</name>
    <desc>Tag 13 (31.03) - Te Anau | Rating 8/10
https://www.google.com/maps/place/Te%20Anau%20Glowworm%20Caves/@-45.409885,167.706972,15z</desc>
  </wpt>
  <wpt lat="-44.619019" lon="167.868760">
    <name>Milford Sound (T14)</name>
    <desc>Tag 14 (01.04) - Te Anau → Milford Sound (120 km) | Rating 10/10
https://www.google.com/maps/place/Milford%20Sound/@-44.619019,167.868760,15z</desc>
  </wpt>
  <wpt lat="-45.414600" lon="167.718000">
    <name>Doubtful Sound (T15)</name>
    <desc>Tag 15 (02.04) - Te Anau → Queenstown (172 km) | Rating 9/10
https://www.google.com/maps/place/Doubtful%20Sound/@-45.414600,167.718000,15z</desc>
  </wpt>
  <wpt lat="-45.026415" lon="168.649602">
    <name>Queenstown Skyline (T16)</name>
    <desc>Tag 16 (03.04) - Queenstown | Rating 8/10
https://www.google.com/maps/place/Queenstown%20Skyline/@-45.026415,168.649602,15z</desc>
  </wpt>
  <wpt lat="-45.020000" lon="168.740000">
    <name>Deer Park Heights (T16)</name>
    <desc>Tag 16 (03.04) - Queenstown | Rating 7/10
https://www.google.com/maps/place/Deer%20Park%20Heights/@-45.020000,168.740000,15z</desc>
  </wpt>
  <wpt lat="-45.030000" lon="168.760000">
    <name>TSS Earnslaw (T16)</name>
    <desc>Tag 16 (03.04) - Queenstown | Rating 7/10
https://www.google.com/maps/place/TSS%20Earnslaw/@-45.030000,168.760000,15z</desc>
  </wpt>
  <wpt lat="-44.849749" lon="168.385198">
    <name>Glenorchy (T17)</name>
    <desc>Tag 17 (04.04) - Queenstown → Glenorchy (45 km) | Rating 8/10
https://www.google.com/maps/place/Glenorchy/@-44.849749,168.385198,15z</desc>
  </wpt>
  <wpt lat="-44.870000" lon="168.520000">
    <name>Paradise (Glenorchy) (T17)</name>
    <desc>Tag 17 (04.04) - Queenstown → Glenorchy (45 km) | Rating 7/10
https://www.google.com/maps/place/Paradise%20%28Glenorchy%29/@-44.870000,168.520000,15z</desc>
  </wpt>
  <wpt lat="-44.920000" lon="168.700000">
    <name>Skippers Canyon (T18)</name>
    <desc>Tag 18 (05.04) - Glenorchy → Arrowtown (95 km) | Rating 7/10
https://www.google.com/maps/place/Skippers%20Canyon/@-44.920000,168.700000,15z</desc>
  </wpt>
  <wpt lat="-44.005900" lon="170.479500">
    <name>Church of the Good Shepherd (T19)</name>
    <desc>Tag 19 (06.04) - Arrowtown → Lake Tekapo (270 km) | Rating 8/10
https://www.google.com/maps/place/Church%20of%20the%20Good%20Shepherd/@-44.005900,170.479500,15z</desc>
  </wpt>
  <wpt lat="-44.016700" lon="170.100000">
    <name>Twizel / Mackenzie Country (T19)</name>
    <desc>Tag 19 (06.04) - Arrowtown → Lake Tekapo (270 km) | Rating 7/10
https://www.google.com/maps/place/Twizel%20/%20Mackenzie%20Country/@-44.016700,170.100000,15z</desc>
  </wpt>
  <wpt lat="-45.050000" lon="169.200000">
    <name>Bannockburn (Power of the Dog) (T19)</name>
    <desc>Tag 19 (06.04) - Arrowtown → Lake Tekapo (270 km) | Rating 6/10
https://www.google.com/maps/place/Bannockburn%20%28Power%20of%20the%20Dog%29/@-45.050000,169.200000,15z</desc>
  </wpt>
  <wpt lat="-43.718374" lon="170.098359">
    <name>Hooker Valley Track (T20)</name>
    <desc>Tag 20 (07.04) - Lake Tekapo → Aoraki/Mt Cook (115 km) | Rating 9/10
https://www.google.com/maps/place/Hooker%20Valley%20Track/@-43.718374,170.098359,15z</desc>
  </wpt>
  <wpt lat="-43.983000" lon="170.933000">
    <name>Flock Hill / Mount Sunday (T20)</name>
    <desc>Tag 20 (07.04) - Lake Tekapo → Aoraki/Mt Cook (115 km) | Rating 8/10
https://www.google.com/maps/place/Flock%20Hill%20/%20Mount%20Sunday/@-43.983000,170.933000,15z</desc>
  </wpt>
  <wpt lat="-43.718374" lon="170.098359">
    <name>Hooker Valley Track (T21)</name>
    <desc>Tag 21 (08.04) - Aoraki/Mt Cook | Rating 9/10
https://www.google.com/maps/place/Hooker%20Valley%20Track/@-43.718374,170.098359,15z</desc>
  </wpt>
  <wpt lat="-44.693998" lon="169.048730">
    <name>Roys Peak (T22)</name>
    <desc>Tag 22 (09.04) - Mt Cook → Wanaka (154 km) | Rating 8/10
https://www.google.com/maps/place/Roys%20Peak/@-44.693998,169.048730,15z</desc>
  </wpt>
  <wpt lat="-44.160800" lon="169.126800">
    <name>Blue Pools Track (T23)</name>
    <desc>Tag 23 (10.04) - Wanaka → Haast (140 km) | Rating 8/10
https://www.google.com/maps/place/Blue%20Pools%20Track/@-44.160800,169.126800,15z</desc>
  </wpt>
  <wpt lat="-43.463955" lon="170.012521">
    <name>Lake Matheson (T24)</name>
    <desc>Tag 24 (11.04) - Haast → Franz Josef (135 km) | Rating 8/10
https://www.google.com/maps/place/Lake%20Matheson/@-43.463955,170.012521,15z</desc>
  </wpt>
  <wpt lat="-43.387386" lon="170.182815">
    <name>Franz Josef Glacier (T25)</name>
    <desc>Tag 25 (12.04) - Franz Josef | Rating 9/10
https://www.google.com/maps/place/Franz%20Josef%20Glacier/@-43.387386,170.182815,15z</desc>
  </wpt>
  <wpt lat="-42.955152" lon="171.015903">
    <name>Hokitika Gorge (T26)</name>
    <desc>Tag 26 (13.04) - Franz Josef → Hokitika (140 km) | Rating 8/10
https://www.google.com/maps/place/Hokitika%20Gorge/@-42.955152,171.015903,15z</desc>
  </wpt>
  <wpt lat="-42.116876" lon="171.327001">
    <name>Pancake Rocks (T27)</name>
    <desc>Tag 27 (14.04) - Hokitika → Punakaiki (60 km) | Rating 8/10
https://www.google.com/maps/place/Pancake%20Rocks/@-42.116876,171.327001,15z</desc>
  </wpt>
  <wpt lat="-41.261668" lon="173.296313">
    <name>Founders Park Nelson (T30)</name>
    <desc>Tag 30 (17.04) - Nelson | Rating 5/10
https://www.google.com/maps/place/Founders%20Park%20Nelson/@-41.261668,173.296313,15z</desc>
  </wpt>
  <wpt lat="-41.700000" lon="172.850000">
    <name>Nelson Lakes / Blue Lake (T30)</name>
    <desc>Tag 30 (17.04) - Nelson | Rating 8/10
https://www.google.com/maps/place/Nelson%20Lakes%20/%20Blue%20Lake/@-41.700000,172.850000,15z</desc>
  </wpt>
  <wpt lat="-40.510000" lon="172.690000">
    <name>Wharariki Beach (T32)</name>
    <desc>Tag 32 (19.04) - Abel Tasman | Rating 8/10
https://www.google.com/maps/place/Wharariki%20Beach/@-40.510000,172.690000,15z</desc>
  </wpt>
  <wpt lat="-40.550000" lon="172.970000">
    <name>Farewell Spit (T32)</name>
    <desc>Tag 32 (19.04) - Abel Tasman | Rating 8/10
https://www.google.com/maps/place/Farewell%20Spit/@-40.550000,172.970000,15z</desc>
  </wpt>
  <wpt lat="-41.537911" lon="173.929948">
    <name>Omaka Aviation Heritage Centre (T34)</name>
    <desc>Tag 34 (21.04) - Blenheim | Rating 7/10
https://www.google.com/maps/place/Omaka%20Aviation%20Heritage%20Centre/@-41.537911,173.929948,15z</desc>
  </wpt>
  <wpt lat="-42.247513" lon="173.829984">
    <name>Kaikoura Whale Watch / Ohau Point (T36)</name>
    <desc>Tag 36 (23.04) - Kaikoura | Rating 9/10
https://www.google.com/maps/place/Kaikoura%20Whale%20Watch%20/%20Ohau%20Point/@-42.247513,173.829984,15z</desc>
  </wpt>
  <wpt lat="-41.290916" lon="174.006908">
    <name>Picton Fähre (T38)</name>
    <desc>Tag 38 (25.04) - Picton → Wellington (Fähre) (– km) | Rating 7/10
https://www.google.com/maps/place/Picton%20F%C3%A4hre/@-41.290916,174.006908,15z</desc>
  </wpt>
  <wpt lat="-41.290333" lon="174.781927">
    <name>Te Papa (T39)</name>
    <desc>Tag 39 (26.04) - Wellington | Rating 8/10
https://www.google.com/maps/place/Te%20Papa/@-41.290333,174.781927,15z</desc>
  </wpt>
  <wpt lat="-41.306349" lon="174.824251">
    <name>Weta Cave (T39)</name>
    <desc>Tag 39 (26.04) - Wellington | Rating 7/10
https://www.google.com/maps/place/Weta%20Cave/@-41.306349,174.824251,15z</desc>
  </wpt>
  <wpt lat="-41.284912" lon="174.770542">
    <name>Wellington Cable Car (T39)</name>
    <desc>Tag 39 (26.04) - Wellington | Rating 7/10
https://www.google.com/maps/place/Wellington%20Cable%20Car/@-41.284912,174.770542,15z</desc>
  </wpt>
  <wpt lat="-41.293000" lon="174.768000">
    <name>Zealandia (T39)</name>
    <desc>Tag 39 (26.04) - Wellington | Rating 8/10
https://www.google.com/maps/place/Zealandia/@-41.293000,174.768000,15z</desc>
  </wpt>
  <wpt lat="-41.009000" lon="175.029000">
    <name>Kaitoke Regional Park (T39)</name>
    <desc>Tag 39 (26.04) - Wellington | Rating 7/10
https://www.google.com/maps/place/Kaitoke%20Regional%20Park/@-41.009000,175.029000,15z</desc>
  </wpt>
  <wpt lat="-40.900600" lon="175.896000">
    <name>Castlepoint Scenic Reserve (T40)</name>
    <desc>Tag 40 (27.04) - Wellington → Castlepoint (100 km) | Rating 8/10
https://www.google.com/maps/place/Castlepoint%20Scenic%20Reserve/@-40.900600,175.896000,15z</desc>
  </wpt>
  <wpt lat="-41.612716" lon="175.273415">
    <name>Cape Palliser (T41)</name>
    <desc>Tag 41 (28.04) - Castlepoint → Napier (370 km) | Rating 7/10
https://www.google.com/maps/place/Cape%20Palliser/@-41.612716,175.273415,15z</desc>
  </wpt>
  <wpt lat="-39.642800" lon="177.096003">
    <name>Napier Art Deco / Cape Kidnappers (T42)</name>
    <desc>Tag 42 (29.04) - Napier | Rating 8/10
https://www.google.com/maps/place/Napier%20Art%20Deco%20/%20Cape%20Kidnappers/@-39.642800,177.096003,15z</desc>
  </wpt>
  <wpt lat="-38.649725" lon="176.089376">
    <name>Huka Falls (T43)</name>
    <desc>Tag 43 (30.04) - Napier → Taupō (145 km) | Rating 7/10
https://www.google.com/maps/place/Huka%20Falls/@-38.649725,176.089376,15z</desc>
  </wpt>
  <wpt lat="-38.760000" lon="175.970000">
    <name>Mine Bay Maori Carvings (T44)</name>
    <desc>Tag 44 (01.05) - Taupō | Rating 7/10
https://www.google.com/maps/place/Mine%20Bay%20Maori%20Carvings/@-38.760000,175.970000,15z</desc>
  </wpt>
  <wpt lat="-39.144862" lon="175.580751">
    <name>Tongariro Alpine Crossing (Mangatepopo) (T46)</name>
    <desc>Tag 46 (03.05) - Ohakune | Rating 10/10
https://www.google.com/maps/place/Tongariro%20Alpine%20Crossing%20%28Mangatepopo%29/@-39.144862,175.580751,15z</desc>
  </wpt>
  <wpt lat="-38.245600" lon="175.006000">
    <name>Ruakuri Bush Walk (T48)</name>
    <desc>Tag 48 (05.05) - Waitomo | Rating 8/10
https://www.google.com/maps/place/Ruakuri%20Bush%20Walk/@-38.245600,175.006000,15z</desc>
  </wpt>
  <wpt lat="-38.260869" lon="175.103543">
    <name>Waitomo Glowworm Caves (T48)</name>
    <desc>Tag 48 (05.05) - Waitomo | Rating 9/10
https://www.google.com/maps/place/Waitomo%20Glowworm%20Caves/@-38.260869,175.103543,15z</desc>
  </wpt>
  <wpt lat="-37.857945" lon="175.680909">
    <name>Hobbiton Movie Set (T50)</name>
    <desc>Tag 50 (07.05) - Matamata (Hobbiton) → Rotorua (70 km) | Rating 10/10
https://www.google.com/maps/place/Hobbiton%20Movie%20Set/@-37.857945,175.680909,15z</desc>
  </wpt>
  <wpt lat="-38.160000" lon="176.245000">
    <name>Kuirau Park (T51)</name>
    <desc>Tag 51 (08.05) - Rotorua | Rating 7/10
https://www.google.com/maps/place/Kuirau%20Park/@-38.160000,176.245000,15z</desc>
  </wpt>
  <wpt lat="-38.164351" lon="176.250171">
    <name>Te Puia (T51)</name>
    <desc>Tag 51 (08.05) - Rotorua | Rating 8/10
https://www.google.com/maps/place/Te%20Puia/@-38.164351,176.250171,15z</desc>
  </wpt>
  <wpt lat="-38.355915" lon="176.364328">
    <name>Wai-O-Tapu (T51)</name>
    <desc>Tag 51 (08.05) - Rotorua | Rating 8/10
https://www.google.com/maps/place/Wai-O-Tapu/@-38.355915,176.364328,15z</desc>
  </wpt>
  <wpt lat="-37.638022" lon="176.183884">
    <name>Mount Maunganui (T52)</name>
    <desc>Tag 52 (09.05) - Rotorua → Mt Maunganui → Coromandel (210 km) | Rating 7/10
https://www.google.com/maps/place/Mount%20Maunganui/@-37.638022,176.183884,15z</desc>
  </wpt>
  <wpt lat="-36.737138" lon="175.506383">
    <name>Driving Creek Railway (T53)</name>
    <desc>Tag 53 (10.05) - Coromandel | Rating 7/10
https://www.google.com/maps/place/Driving%20Creek%20Railway/@-36.737138,175.506383,15z</desc>
  </wpt>
  <wpt lat="-36.889811" lon="175.823566">
    <name>Hot Water Beach (T53)</name>
    <desc>Tag 53 (10.05) - Coromandel | Rating 8/10
https://www.google.com/maps/place/Hot%20Water%20Beach/@-36.889811,175.823566,15z</desc>
  </wpt>
  <wpt lat="-36.596000" lon="174.883000">
    <name>Tiritiri Matangi (T54)</name>
    <desc>Tag 54 (11.05) - Coromandel → Auckland (180 km) | Rating 8/10
https://www.google.com/maps/place/Tiritiri%20Matangi/@-36.596000,174.883000,15z</desc>
  </wpt>
  <wpt lat="-35.274429" lon="174.079581">
    <name>Waitangi Treaty Grounds (T56)</name>
    <desc>Tag 56 (13.05) - Paihia | Rating 8/10
https://www.google.com/maps/place/Waitangi%20Treaty%20Grounds/@-35.274429,174.079581,15z</desc>
  </wpt>
  <wpt lat="-35.165662" lon="174.339060">
    <name>Hole in the Rock (T56)</name>
    <desc>Tag 56 (13.05) - Paihia | Rating 8/10
https://www.google.com/maps/place/Hole%20in%20the%20Rock/@-35.165662,174.339060,15z</desc>
  </wpt>
  <wpt lat="-35.261792" lon="174.121529">
    <name>Russell (T56)</name>
    <desc>Tag 56 (13.05) - Paihia | Rating 7/10
https://www.google.com/maps/place/Russell/@-35.261792,174.121529,15z</desc>
  </wpt>
  <wpt lat="-34.420184" lon="172.679348">
    <name>Cape Reinga (T58)</name>
    <desc>Tag 58 (15.05) - Kaitaia → Cape Reinga (180 km) | Rating 10/10
https://www.google.com/maps/place/Cape%20Reinga/@-34.420184,172.679348,15z</desc>
  </wpt>
  <wpt lat="-34.852456" lon="173.045929">
    <name>Ninety Mile Beach (T58)</name>
    <desc>Tag 58 (15.05) - Kaitaia → Cape Reinga (180 km) | Rating 7/10
https://www.google.com/maps/place/Ninety%20Mile%20Beach/@-34.852456,173.045929,15z</desc>
  </wpt>
  <wpt lat="-35.720800" lon="173.530900">
    <name>Tane Mahuta (T59)</name>
    <desc>Tag 59 (16.05) - Cape Reinga → Waipoua (Trounson) (160 km) | Rating 8/10
https://www.google.com/maps/place/Tane%20Mahuta/@-35.720800,173.530900,15z</desc>
  </wpt>
  <wpt lat="-35.444000" lon="173.533000">
    <name>Trounson Kauri Park (T59)</name>
    <desc>Tag 59 (16.05) - Cape Reinga → Waipoua (Trounson) (160 km) | Rating 8/10
https://www.google.com/maps/place/Trounson%20Kauri%20Park/@-35.444000,173.533000,15z</desc>
  </wpt>
  <wpt lat="-36.700000" lon="175.000000">
    <name>Hauraki Gulf (T60)</name>
    <desc>Tag 60 (17.05) - Waipoua (Trounson) → Auckland (180 km) | Rating 8/10
https://www.google.com/maps/place/Hauraki%20Gulf/@-36.700000,175.000000,15z</desc>
  </wpt>
</gpx>