<?xml version="1.0" encoding="UTF-8"?>
<gpx version="1.1" creator="nz-trip-planner" xmlns="http://www.topografix.com/GPX/1/1" xmlns:xsi="http://www.w3.org/2001/XMLSchema-instance" xsi:schemaLocation="http://www.topografix.com/GPX/1/1 http://www.topografix.com/GPX/1/1/gpx.xsd">
  <metadata><name>NZ27 Route</name></metadata>
  <trk>
    <name>NZ27 Route</name>
    <desc>Routen-Etappen (echte Straßen via OSRM; Fähre = gerade Linie).</desc>
    <trkseg>
      <trkpt lat="-43.529841" lon="172.736370"></trkpt>
      <trkpt lat="-43.523209" lon="172.732568"></trkpt>
      <trkpt lat="-43.525721" lon="172.720869"></trkpt>
      <trkpt lat="-43.534370" lon="172.707060"></trkpt>
      <trkpt lat="-43.549912" lon="172.692470"></trkpt>
      <trkpt lat="-43.550466" lon="172.688411"></trkpt>
      <trkpt lat="-43.556668" lon="172.681643"></trkpt>
      <trkpt lat="-43.555480" lon="172.670588"></trkpt>
      <trkpt lat="-43.548610" lon="172.657523"></trkpt>
      <trkpt lat="-43.547512" lon="172.642660"></trkpt>
      <trkpt lat="-43.550246" lon="172.639878"></trkpt>
      <trkpt lat="-43.551788" lon="172.631153"></trkpt>
      <trkpt lat="-43.563603" lon="172.613245"></trkpt>
      <trkpt lat="-43.570270" lon="172.590489"></trkpt>
      <trkpt lat="-43.582428" lon="172.579264"></trkpt>
      <trkpt lat="-43.585383" lon="172.570764"></trkpt>
      <trkpt lat="-43.601026" lon="172.559698"></trkpt>
      <trkpt lat="-43.654287" lon="172.551942"></trkpt>
      <trkpt lat="-43.661171" lon="172.548072"></trkpt>
      <trkpt lat="-43.667557" lon="172.551666"></trkpt>
      <trkpt lat="-43.674424" lon="172.549693"></trkpt>
      <trkpt lat="-43.690082" lon="172.560139"></trkpt>
      <trkpt lat="-43.694454" lon="172.559267"></trkpt>
      <trkpt lat="-43.699781" lon="172.567710"></trkpt>
      <trkpt lat="-43.711458" lon="172.564831"></trkpt>
      <trkpt lat="-43.713323" lon="172.571486"></trkpt>
      <trkpt lat="-43.718260" lon="172.574720"></trkpt>
      <trkpt lat="-43.727500" lon="172.589117"></trkpt>
      <trkpt lat="-43.727276" lon="172.593185"></trkpt>
      <trkpt lat="-43.722329" lon="172.597334"></trkpt>
      <trkpt lat="-43.731201" lon="172.612511"></trkpt>
      <trkpt lat="-43.744755" lon="172.610285"></trkpt>
      <trkpt lat="-43.755470" lon="172.618765"></trkpt>
      <trkpt lat="-43.760959" lon="172.632713"></trkpt>
      <trkpt lat="-43.768873" lon="172.641929"></trkpt>
      <trkpt lat="-43.776172" lon="172.644394"></trkpt>
      <trkpt lat="-43.774401" lon="172.655755"></trkpt>
      <trkpt lat="-43.785576" lon="172.659943"></trkpt>
      <trkpt lat="-43.789352" lon="172.664822"></trkpt>
      <trkpt lat="-43.794664" lon="172.664465"></trkpt>
      <trkpt lat="-43.791801" lon="172.680244"></trkpt>
      <trkpt lat="-43.795148" lon="172.687943"></trkpt>
      <trkpt lat="-43.811463" lon="172.692853"></trkpt>
      <trkpt lat="-43.815218" lon="172.698471"></trkpt>
      <trkpt lat="-43.807760" lon="172.722846"></trkpt>
      <trkpt lat="-43.797097" lon="172.738419"></trkpt>
      <trkpt lat="-43.796184" lon="172.746443"></trkpt>
      <trkpt lat="-43.789944" lon="172.756448"></trkpt>
      <trkpt lat="-43.786896" lon="172.770654"></trkpt>
      <trkpt lat="-43.777271" lon="172.781711"></trkpt>
      <trkpt lat="-43.774707" lon="172.788095"></trkpt>
      <trkpt lat="-43.767474" lon="172.792752"></trkpt>
      <trkpt lat="-43.763310" lon="172.799323"></trkpt>
      <trkpt lat="-43.759849" lon="172.811664"></trkpt>
      <trkpt lat="-43.751297" lon="172.819662"></trkpt>
      <trkpt lat="-43.754035" lon="172.823489"></trkpt>
      <trkpt lat="-43.752654" lon="172.824866"></trkpt>
      <trkpt lat="-43.754241" lon="172.828041"></trkpt>
      <trkpt lat="-43.748963" lon="172.838022"></trkpt>
      <trkpt lat="-43.753707" lon="172.851915"></trkpt>
      <trkpt lat="-43.757905" lon="172.855636"></trkpt>
      <trkpt lat="-43.749940" lon="172.862972"></trkpt>
      <trkpt lat="-43.742605" lon="172.877821"></trkpt>
      <trkpt lat="-43.743975" lon="172.883288"></trkpt>
      <trkpt lat="-43.739332" lon="172.896635"></trkpt>
      <trkpt lat="-43.741017" lon="172.902940"></trkpt>
      <trkpt lat="-43.745796" lon="172.907938"></trkpt>
      <trkpt lat="-43.752228" lon="172.909890"></trkpt>
      <trkpt lat="-43.749819" lon="172.918376"></trkpt>
      <trkpt lat="-43.752296" lon="172.922079"></trkpt>
      <trkpt lat="-43.750430" lon="172.934736"></trkpt>
      <trkpt lat="-43.754336" lon="172.945669"></trkpt>
      <trkpt lat="-43.760544" lon="172.947425"></trkpt>
      <trkpt lat="-43.762764" lon="172.961365"></trkpt>
      <trkpt lat="-43.765342" lon="172.963335"></trkpt>
      <trkpt lat="-43.772488" lon="172.958692"></trkpt>
      <trkpt lat="-43.779054" lon="172.969330"></trkpt>
      <trkpt lat="-43.790358" lon="172.972206"></trkpt>
      <trkpt lat="-43.804301" lon="172.967789"></trkpt>
      <trkpt lat="-43.804301" lon="172.967789"></trkpt>
      <trkpt lat="-43.762764" lon="172.961365"></trkpt>
      <trkpt lat="-43.739332" lon="172.896635"></trkpt>
      <trkpt lat="-43.757905" lon="172.855636"></trkpt>
      <trkpt lat="-43.751297" lon="172.819662"></trkpt>
      <trkpt lat="-43.815218" lon="172.698471"></trkpt>
      <trkpt lat="-43.755470" lon="172.618765"></trkpt>
      <trkpt lat="-43.731201" lon="172.612511"></trkpt>
      <trkpt lat="-43.711565" lon="172.564930"></trkpt>
      <trkpt lat="-43.680788" lon="172.554179"></trkpt>
      <trkpt lat="-43.670200" lon="172.515061"></trkpt>
      <trkpt lat="-43.698386" lon="172.485014"></trkpt>
      <trkpt lat="-43.694346" lon="172.414813"></trkpt>
      <trkpt lat="-43.638642" lon="172.377406"></trkpt>
      <trkpt lat="-43.638571" lon="172.331539"></trkpt>
      <trkpt lat="-43.615320" lon="172.314630"></trkpt>
      <trkpt lat="-43.699413" lon="172.089952"></trkpt>
      <trkpt lat="-43.764953" lon="172.019249"></trkpt>
      <trkpt lat="-43.838631" lon="171.847582"></trkpt>
      <trkpt lat="-44.010607" lon="171.554527"></trkpt>
      <trkpt lat="-44.045471" lon="171.418214"></trkpt>
      <trkpt lat="-44.094370" lon="171.324585"></trkpt>
      <trkpt lat="-44.182638" lon="171.279022"></trkpt>
      <trkpt lat="-44.251652" lon="171.277277"></trkpt>
      <trkpt lat="-44.342768" lon="171.236445"></trkpt>
      <trkpt lat="-44.410617" lon="171.249604"></trkpt>
      <trkpt lat="-44.597018" lon="171.147875"></trkpt>
      <trkpt lat="-44.693241" lon="171.135228"></trkpt>
      <trkpt lat="-44.834187" lon="171.076660"></trkpt>
      <trkpt lat="-44.936065" lon="171.098212"></trkpt>
      <trkpt lat="-45.097485" lon="170.971117"></trkpt>
      <trkpt lat="-45.108624" lon="170.918153"></trkpt>
      <trkpt lat="-45.160686" lon="170.916841"></trkpt>
      <trkpt lat="-45.206368" lon="170.881621"></trkpt>
      <trkpt lat="-45.206368" lon="170.881621"></trkpt>
      <trkpt lat="-45.206368" lon="170.881621"></trkpt>
      <trkpt lat="-45.206368" lon="170.881621"></trkpt>
      <trkpt lat="-45.216753" lon="170.885740"></trkpt>
      <trkpt lat="-45.232454" lon="170.864981"></trkpt>
      <trkpt lat="-45.248278" lon="170.860141"></trkpt>
      <trkpt lat="-45.256510" lon="170.796925"></trkpt>
      <trkpt lat="-45.296609" lon="170.815658"></trkpt>
      <trkpt lat="-45.384302" lon="170.828081"></trkpt>
      <trkpt lat="-45.398052" lon="170.839345"></trkpt>
      <trkpt lat="-45.423991" lon="170.818253"></trkpt>
      <trkpt lat="-45.459123" lon="170.808717"></trkpt>
      <trkpt lat="-45.479708" lon="170.766735"></trkpt>
      <trkpt lat="-45.480250" lon="170.723420"></trkpt>
      <trkpt lat="-45.492147" lon="170.702174"></trkpt>
      <trkpt lat="-45.544972" lon="170.704114"></trkpt>
      <trkpt lat="-45.580339" lon="170.689749"></trkpt>
      <trkpt lat="-45.600878" lon="170.652290"></trkpt>
      <trkpt lat="-45.616950" lon="170.640776"></trkpt>
      <trkpt lat="-45.635566" lon="170.596713"></trkpt>
      <trkpt lat="-45.673152" lon="170.570825"></trkpt>
      <trkpt lat="-45.746659" lon="170.568785"></trkpt>
      <trkpt lat="-45.785739" lon="170.551770"></trkpt>
      <trkpt lat="-45.801389" lon="170.514706"></trkpt>
      <trkpt lat="-45.824864" lon="170.517709"></trkpt>
      <trkpt lat="-45.834401" lon="170.504055"></trkpt>
      <trkpt lat="-45.839657" lon="170.516326"></trkpt>
      <trkpt lat="-45.851191" lon="170.508722"></trkpt>
      <trkpt lat="-45.856874" lon="170.516441"></trkpt>
      <trkpt lat="-45.886422" lon="170.505944"></trkpt>
      <trkpt lat="-45.893019" lon="170.529103"></trkpt>
      <trkpt lat="-45.883347" lon="170.555072"></trkpt>
      <trkpt lat="-45.877207" lon="170.635224"></trkpt>
      <trkpt lat="-45.846775" lon="170.643675"></trkpt>
      <trkpt lat="-45.832344" lon="170.672919"></trkpt>
      <trkpt lat="-45.815523" lon="170.675186"></trkpt>
      <trkpt lat="-45.815523" lon="170.675186"></trkpt>
      <trkpt lat="-45.815523" lon="170.675186"></trkpt>
      <trkpt lat="-45.815523" lon="170.675186"></trkpt>
      <trkpt lat="-45.832344" lon="170.672919"></trkpt>
      <trkpt lat="-45.846775" lon="170.643675"></trkpt>
      <trkpt lat="-45.877291" lon="170.634988"></trkpt>
      <trkpt lat="-45.883367" lon="170.554951"></trkpt>
      <trkpt lat="-45.898757" lon="170.512473"></trkpt>
      <trkpt lat="-45.888750" lon="170.500032"></trkpt>
      <trkpt lat="-45.902030" lon="170.449529"></trkpt>
      <trkpt lat="-45.901534" lon="170.379148"></trkpt>
      <trkpt lat="-45.890161" lon="170.354311"></trkpt>
      <trkpt lat="-45.915747" lon="170.269986"></trkpt>
      <trkpt lat="-45.989117" lon="170.132290"></trkpt>
      <trkpt lat="-46.002040" lon="170.126270"></trkpt>
      <trkpt lat="-46.042654" lon="170.061952"></trkpt>
      <trkpt lat="-46.049799" lon="170.036190"></trkpt>
      <trkpt lat="-46.128451" lon="169.950408"></trkpt>
      <trkpt lat="-46.133371" lon="169.909339"></trkpt>
      <trkpt lat="-46.169364" lon="169.816370"></trkpt>
      <trkpt lat="-46.199928" lon="169.770614"></trkpt>
      <trkpt lat="-46.227328" lon="169.770853"></trkpt>
      <trkpt lat="-46.241322" lon="169.730960"></trkpt>
      <trkpt lat="-46.259993" lon="169.740548"></trkpt>
      <trkpt lat="-46.319145" lon="169.718601"></trkpt>
      <trkpt lat="-46.343812" lon="169.740115"></trkpt>
      <trkpt lat="-46.384353" lon="169.675379"></trkpt>
      <trkpt lat="-46.403474" lon="169.703626"></trkpt>
      <trkpt lat="-46.445193" lon="169.677721"></trkpt>
      <trkpt lat="-46.458063" lon="169.647049"></trkpt>
      <trkpt lat="-46.476129" lon="169.633748"></trkpt>
      <trkpt lat="-46.488000" lon="169.592481"></trkpt>
      <trkpt lat="-46.478938" lon="169.571665"></trkpt>
      <trkpt lat="-46.490062" lon="169.559651"></trkpt>
      <trkpt lat="-46.487408" lon="169.528412"></trkpt>
      <trkpt lat="-46.513955" lon="169.464067"></trkpt>
      <trkpt lat="-46.535266" lon="169.477604"></trkpt>
      <trkpt lat="-46.561578" lon="169.471614"></trkpt>
      <trkpt lat="-46.561578" lon="169.471614"></trkpt>
      <trkpt lat="-46.535266" lon="169.477604"></trkpt>
      <trkpt lat="-46.513955" lon="169.464067"></trkpt>
      <trkpt lat="-46.487408" lon="169.528412"></trkpt>
      <trkpt lat="-46.490100" lon="169.559459"></trkpt>
      <trkpt lat="-46.478938" lon="169.571665"></trkpt>
      <trkpt lat="-46.488024" lon="169.592254"></trkpt>
      <trkpt lat="-46.476129" lon="169.633748"></trkpt>
      <trkpt lat="-46.458063" lon="169.647049"></trkpt>
      <trkpt lat="-46.445193" lon="169.677721"></trkpt>
      <trkpt lat="-46.403474" lon="169.703626"></trkpt>
      <trkpt lat="-46.384558" lon="169.675289"></trkpt>
      <trkpt lat="-46.344418" lon="169.739922"></trkpt>
      <trkpt lat="-46.319145" lon="169.718601"></trkpt>
      <trkpt lat="-46.259993" lon="169.740548"></trkpt>
      <trkpt lat="-46.241322" lon="169.730960"></trkpt>
      <trkpt lat="-46.227104" lon="169.771103"></trkpt>
      <trkpt lat="-46.196918" lon="169.773843"></trkpt>
      <trkpt lat="-46.148068" lon="169.863499"></trkpt>
      <trkpt lat="-46.130066" lon="169.920871"></trkpt>
      <trkpt lat="-46.128451" lon="169.950408"></trkpt>
      <trkpt lat="-46.049799" lon="170.036190"></trkpt>
      <trkpt lat="-46.042654" lon="170.061952"></trkpt>
      <trkpt lat="-46.002040" lon="170.126270"></trkpt>
      <trkpt lat="-45.989234" lon="170.132098"></trkpt>
      <trkpt lat="-45.915747" lon="170.269986"></trkpt>
      <trkpt lat="-45.890103" lon="170.354568"></trkpt>
      <trkpt lat="-45.901455" lon="170.379223"></trkpt>
      <trkpt lat="-45.901837" lon="170.450507"></trkpt>
      <trkpt lat="-45.891843" lon="170.495096"></trkpt>
      <trkpt lat="-45.870198" lon="170.516180"></trkpt>
      <trkpt lat="-45.861999" lon="170.567059"></trkpt>
      <trkpt lat="-45.827335" lon="170.593920"></trkpt>
      <trkpt lat="-45.817825" lon="170.618801"></trkpt>
      <trkpt lat="-45.797353" lon="170.607264"></trkpt>
      <trkpt lat="-45.783023" lon="170.630040"></trkpt>
      <trkpt lat="-45.741001" lon="170.632567"></trkpt>
      <trkpt lat="-45.741001" lon="170.632567"></trkpt>
      <trkpt lat="-45.783023" lon="170.630040"></trkpt>
      <trkpt lat="-45.797353" lon="170.607264"></trkpt>
      <trkpt lat="-45.817825" lon="170.618801"></trkpt>
      <trkpt lat="-45.827335" lon="170.593920"></trkpt>
      <trkpt lat="-45.861893" lon="170.567253"></trkpt>
      <trkpt lat="-45.870198" lon="170.516180"></trkpt>
      <trkpt lat="-45.891876" lon="170.495322"></trkpt>
      <trkpt lat="-45.901908" lon="170.450586"></trkpt>
      <trkpt lat="-45.901534" lon="170.379148"></trkpt>
      <trkpt lat="-45.890161" lon="170.354311"></trkpt>
      <trkpt lat="-45.915747" lon="170.269986"></trkpt>
      <trkpt lat="-45.989117" lon="170.132290"></trkpt>
      <trkpt lat="-46.002040" lon="170.126270"></trkpt>
      <trkpt lat="-46.042654" lon="170.061952"></trkpt>
      <trkpt lat="-46.049799" lon="170.036190"></trkpt>
      <trkpt lat="-46.128451" lon="169.950408"></trkpt>
      <trkpt lat="-46.133371" lon="169.909339"></trkpt>
      <trkpt lat="-46.169364" lon="169.816370"></trkpt>
      <trkpt lat="-46.199928" lon="169.770614"></trkpt>
      <trkpt lat="-46.227328" lon="169.770853"></trkpt>
      <trkpt lat="-46.242475" lon="169.728102"></trkpt>
      <trkpt lat="-46.246591" lon="169.691422"></trkpt>
      <trkpt lat="-46.237526" lon="169.596697"></trkpt>
      <trkpt lat="-46.196353" lon="169.482683"></trkpt>
      <trkpt lat="-46.203423" lon="169.371494"></trkpt>
      <trkpt lat="-46.227033" lon="169.342772"></trkpt>
      <trkpt lat="-46.233960" lon="169.313034"></trkpt>
      <trkpt lat="-46.220290" lon="169.260398"></trkpt>
      <trkpt lat="-46.219637" lon="169.191110"></trkpt>
      <trkpt lat="-46.203247" lon="169.124702"></trkpt>
      <trkpt lat="-46.181113" lon="168.893136"></trkpt>
      <trkpt lat="-46.200637" lon="168.854174"></trkpt>
      <trkpt lat="-46.309354" lon="168.776707"></trkpt>
      <trkpt lat="-46.306930" lon="168.718773"></trkpt>
      <trkpt lat="-46.321409" lon="168.643111"></trkpt>
      <trkpt lat="-46.314686" lon="168.609694"></trkpt>
      <trkpt lat="-46.371576" lon="168.518995"></trkpt>
      <trkpt lat="-46.405950" lon="168.393753"></trkpt>
      <trkpt lat="-46.477015" lon="168.406420"></trkpt>
      <trkpt lat="-46.503410" lon="168.366490"></trkpt>
      <trkpt lat="-46.523124" lon="168.311921"></trkpt>
      <trkpt lat="-46.556085" lon="168.299501"></trkpt>
      <trkpt lat="-46.589415" lon="168.306568"></trkpt>
      <trkpt lat="-46.598409" lon="168.353159"></trkpt>
      <trkpt lat="-46.614280" lon="168.363616"></trkpt>
      <trkpt lat="-46.802874" lon="168.226720"></trkpt>
      <trkpt lat="-46.886408" lon="168.151162"></trkpt>
      <trkpt lat="-46.894049" lon="168.125559"></trkpt>
      <trkpt lat="-46.894049" lon="168.125559"></trkpt>
      <trkpt lat="-46.894049" lon="168.125559"></trkpt>
      <trkpt lat="-46.894049" lon="168.125559"></trkpt>
      <trkpt lat="-46.802874" lon="168.226720"></trkpt>
      <trkpt lat="-46.614525" lon="168.363461"></trkpt>
      <trkpt lat="-46.598409" lon="168.353159"></trkpt>
      <trkpt lat="-46.588741" lon="168.305914"></trkpt>
      <trkpt lat="-46.542886" lon="168.301534"></trkpt>
      <trkpt lat="-46.482703" lon="168.391438"></trkpt>
      <trkpt lat="-46.424242" lon="168.347294"></trkpt>
      <trkpt lat="-46.128037" lon="168.324112"></trkpt>
      <trkpt lat="-46.132788" lon="168.264665"></trkpt>
      <trkpt lat="-46.038644" lon="168.166582"></trkpt>
      <trkpt lat="-46.031521" lon="168.110035"></trkpt>
      <trkpt lat="-45.836771" lon="168.130386"></trkpt>
      <trkpt lat="-45.777834" lon="168.183142"></trkpt>
      <trkpt lat="-45.692528" lon="168.198841"></trkpt>
      <trkpt lat="-45.666960" lon="168.232007"></trkpt>
      <trkpt lat="-45.658282" lon="168.200920"></trkpt>
      <trkpt lat="-45.566522" lon="168.093779"></trkpt>
      <trkpt lat="-45.521406" lon="167.790941"></trkpt>
      <trkpt lat="-45.439054" lon="167.780361"></trkpt>
      <trkpt lat="-45.422872" lon="167.731005"></trkpt>
      <trkpt lat="-45.398013" lon="167.758798"></trkpt>
      <trkpt lat="-45.199460" lon="167.822425"></trkpt>
      <trkpt lat="-45.199008" lon="167.858558"></trkpt>
      <trkpt lat="-45.143697" lon="167.901916"></trkpt>
      <trkpt lat="-45.134504" lon="167.946093"></trkpt>
      <trkpt lat="-45.050900" lon="168.011288"></trkpt>
      <trkpt lat="-44.946763" lon="168.016343"></trkpt>
      <trkpt lat="-44.883016" lon="168.095156"></trkpt>
      <trkpt lat="-44.883016" lon="168.095156"></trkpt>
      <trkpt lat="-44.883016" lon="168.095156"></trkpt>
      <trkpt lat="-44.883016" lon="168.095156"></trkpt>
      <trkpt lat="-44.883016" lon="168.095156"></trkpt>
      <trkpt lat="-44.883016" lon="168.095156"></trkpt>
      <trkpt lat="-44.883016" lon="168.095156"></trkpt>
      <trkpt lat="-44.883016" lon="168.095156"></trkpt>
      <trkpt lat="-44.906151" lon="168.068880"></trkpt>
      <trkpt lat="-44.908971" lon="168.048049"></trkpt>
      <trkpt lat="-44.946763" lon="168.016343"></trkpt>
      <trkpt lat="-45.050900" lon="168.011288"></trkpt>
      <trkpt lat="-45.063926" lon="167.992446"></trkpt>
      <trkpt lat="-45.134504" lon="167.946093"></trkpt>
      <trkpt lat="-45.143697" lon="167.901916"></trkpt>
      <trkpt lat="-45.183985" lon="167.882505"></trkpt>
      <trkpt lat="-45.199008" lon="167.858558"></trkpt>
      <trkpt lat="-45.192904" lon="167.829250"></trkpt>
      <trkpt lat="-45.199460" lon="167.822425"></trkpt>
      <trkpt lat="-45.301974" lon="167.790341"></trkpt>
      <trkpt lat="-45.360804" lon="167.758593"></trkpt>
      <trkpt lat="-45.398013" lon="167.758798"></trkpt>
      <trkpt lat="-45.410689" lon="167.734732"></trkpt>
      <trkpt lat="-45.422872" lon="167.731005"></trkpt>
      <trkpt lat="-45.439054" lon="167.780361"></trkpt>
      <trkpt lat="-45.465093" lon="167.793119"></trkpt>
      <trkpt lat="-45.503404" lon="167.780797"></trkpt>
      <trkpt lat="-45.521346" lon="167.790818"></trkpt>
      <trkpt lat="-45.522179" lon="167.832895"></trkpt>
      <trkpt lat="-45.545416" lon="167.892760"></trkpt>
      <trkpt lat="-45.539027" lon="167.969239"></trkpt>
      <trkpt lat="-45.559673" lon="168.020912"></trkpt>
      <trkpt lat="-45.566522" lon="168.093779"></trkpt>
      <trkpt lat="-45.658282" lon="168.200920"></trkpt>
      <trkpt lat="-45.670570" lon="168.241070"></trkpt>
      <trkpt lat="-45.655647" lon="168.252785"></trkpt>
      <trkpt lat="-45.612082" lon="168.422311"></trkpt>
      <trkpt lat="-45.623566" lon="168.458649"></trkpt>
      <trkpt lat="-45.589464" lon="168.479891"></trkpt>
      <trkpt lat="-45.571441" lon="168.503629"></trkpt>
      <trkpt lat="-45.556319" lon="168.506682"></trkpt>
      <trkpt lat="-45.535137" lon="168.548178"></trkpt>
      <trkpt lat="-45.509466" lon="168.555450"></trkpt>
      <trkpt lat="-45.517592" lon="168.623060"></trkpt>
      <trkpt lat="-45.494815" lon="168.663731"></trkpt>
      <trkpt lat="-45.459810" lon="168.692600"></trkpt>
      <trkpt lat="-45.428713" lon="168.703140"></trkpt>
      <trkpt lat="-45.419772" lon="168.675232"></trkpt>
      <trkpt lat="-45.395959" lon="168.670120"></trkpt>
      <trkpt lat="-45.327584" lon="168.742610"></trkpt>
      <trkpt lat="-45.286832" lon="168.765270"></trkpt>
      <trkpt lat="-45.227090" lon="168.739186"></trkpt>
      <trkpt lat="-45.116528" lon="168.762600"></trkpt>
      <trkpt lat="-45.038638" lon="168.752718"></trkpt>
      <trkpt lat="-45.029982" lon="168.733732"></trkpt>
      <trkpt lat="-45.015769" lon="168.731407"></trkpt>
      <trkpt lat="-45.026672" lon="168.694544"></trkpt>
      <trkpt lat="-45.026672" lon="168.694544"></trkpt>
      <trkpt lat="-45.026672" lon="168.694544"></trkpt>
      <trkpt lat="-45.026672" lon="168.694544"></trkpt>
      <trkpt lat="-45.026672" lon="168.694544"></trkpt>
      <trkpt lat="-45.026672" lon="168.694544"></trkpt>
      <trkpt lat="-45.020896" lon="168.706142"></trkpt>
      <trkpt lat="-45.018845" lon="168.714835"></trkpt>
      <trkpt lat="-45.017027" lon="168.717287"></trkpt>
      <trkpt lat="-45.015246" lon="168.733673"></trkpt>
      <trkpt lat="-45.011759" lon="168.741206"></trkpt>
      <trkpt lat="-45.001571" lon="168.757052"></trkpt>
      <trkpt lat="-45.000785" lon="168.769809"></trkpt>
      <trkpt lat="-44.994041" lon="168.796685"></trkpt>
      <trkpt lat="-44.995439" lon="168.801142"></trkpt>
      <trkpt lat="-44.995077" lon="168.804475"></trkpt>
      <trkpt lat="-44.991505" lon="168.807892"></trkpt>
      <trkpt lat="-44.987457" lon="168.814857"></trkpt>
      <trkpt lat="-44.980640" lon="168.817763"></trkpt>
      <trkpt lat="-44.972987" lon="168.816568"></trkpt>
      <trkpt lat="-44.969258" lon="168.817709"></trkpt>
      <trkpt lat="-44.956186" lon="168.817523"></trkpt>
      <trkpt lat="-44.939598" lon="168.830614"></trkpt>
      <trkpt lat="-44.937628" lon="168.829138"></trkpt>
      <trkpt lat="-44.936433" lon="168.830122"></trkpt>
      <trkpt lat="-44.936433" lon="168.830122"></trkpt>
      <trkpt lat="-44.977279" lon="168.849089"></trkpt>
      <trkpt lat="-45.005938" lon="168.880853"></trkpt>
      <trkpt lat="-45.037719" lon="169.007212"></trkpt>
      <trkpt lat="-45.046432" lon="169.030020"></trkpt>
      <trkpt lat="-45.058466" lon="169.033466"></trkpt>
      <trkpt lat="-45.054078" lon="169.045870"></trkpt>
      <trkpt lat="-45.033951" lon="169.037800"></trkpt>
      <trkpt lat="-45.000879" lon="169.070848"></trkpt>
      <trkpt lat="-45.058494" lon="169.138265"></trkpt>
      <trkpt lat="-45.055067" lon="169.166734"></trkpt>
      <trkpt lat="-45.033953" lon="169.192137"></trkpt>
      <trkpt lat="-45.039079" lon="169.223129"></trkpt>
      <trkpt lat="-44.993029" lon="169.241316"></trkpt>
      <trkpt lat="-44.888602" lon="169.337472"></trkpt>
      <trkpt lat="-44.837794" lon="169.407817"></trkpt>
      <trkpt lat="-44.835522" lon="169.426737"></trkpt>
      <trkpt lat="-44.807233" lon="169.450377"></trkpt>
      <trkpt lat="-44.801909" lon="169.473532"></trkpt>
      <trkpt lat="-44.811065" lon="169.503987"></trkpt>
      <trkpt lat="-44.732629" lon="169.509101"></trkpt>
      <trkpt lat="-44.704316" lon="169.502555"></trkpt>
      <trkpt lat="-44.694995" lon="169.484592"></trkpt>
      <trkpt lat="-44.675366" lon="169.478238"></trkpt>
      <trkpt lat="-44.611502" lon="169.530423"></trkpt>
      <trkpt lat="-44.576961" lon="169.619609"></trkpt>
      <trkpt lat="-44.587617" lon="169.647332"></trkpt>
      <trkpt lat="-44.565209" lon="169.661042"></trkpt>
      <trkpt lat="-44.561868" lon="169.689895"></trkpt>
      <trkpt lat="-44.529311" lon="169.713696"></trkpt>
      <trkpt lat="-44.497832" lon="169.756420"></trkpt>
      <trkpt lat="-44.513472" lon="169.797611"></trkpt>
      <trkpt lat="-44.514590" lon="169.828123"></trkpt>
      <trkpt lat="-44.489326" lon="169.959556"></trkpt>
      <trkpt lat="-44.478678" lon="169.983203"></trkpt>
      <trkpt lat="-44.467092" lon="169.988208"></trkpt>
      <trkpt lat="-44.456476" lon="169.975056"></trkpt>
      <trkpt lat="-44.362142" lon="170.002932"></trkpt>
      <trkpt lat="-44.252693" lon="170.115596"></trkpt>
      <trkpt lat="-44.188497" lon="170.123527"></trkpt>
      <trkpt lat="-44.190729" lon="170.143331"></trkpt>
      <trkpt lat="-44.176186" lon="170.157413"></trkpt>
      <trkpt lat="-44.174628" lon="170.171903"></trkpt>
      <trkpt lat="-44.183172" lon="170.191047"></trkpt>
      <trkpt lat="-44.168430" lon="170.212474"></trkpt>
      <trkpt lat="-44.203679" lon="170.264016"></trkpt>
      <trkpt lat="-44.180651" lon="170.317844"></trkpt>
      <trkpt lat="-44.133529" lon="170.349231"></trkpt>
      <trkpt lat="-44.085353" lon="170.349435"></trkpt>
      <trkpt lat="-44.024356" lon="170.400974"></trkpt>
      <trkpt lat="-44.004793" lon="170.407259"></trkpt>
      <trkpt lat="-43.997434" lon="170.418299"></trkpt>
      <trkpt lat="-44.006474" lon="170.488583"></trkpt>
      <trkpt lat="-44.006474" lon="170.488583"></trkpt>
      <trkpt lat="-43.997434" lon="170.418299"></trkpt>
      <trkpt lat="-44.004381" lon="170.407679"></trkpt>
      <trkpt lat="-44.024356" lon="170.400974"></trkpt>
      <trkpt lat="-44.038390" lon="170.383219"></trkpt>
      <trkpt lat="-44.085683" lon="170.349273"></trkpt>
      <trkpt lat="-44.100484" lon="170.354222"></trkpt>
      <trkpt lat="-44.132730" lon="170.349443"></trkpt>
      <trkpt lat="-44.169142" lon="170.332718"></trkpt>
      <trkpt lat="-44.199790" lon="170.278667"></trkpt>
      <trkpt lat="-44.203654" lon="170.264528"></trkpt>
      <trkpt lat="-44.201484" lon="170.252708"></trkpt>
      <trkpt lat="-44.168401" lon="170.212193"></trkpt>
      <trkpt lat="-44.183172" lon="170.191047"></trkpt>
      <trkpt lat="-44.174628" lon="170.171903"></trkpt>
      <trkpt lat="-44.176186" lon="170.157413"></trkpt>
      <trkpt lat="-44.182543" lon="170.156607"></trkpt>
      <trkpt lat="-44.190729" lon="170.143331"></trkpt>
      <trkpt lat="-44.186186" lon="170.120730"></trkpt>
      <trkpt lat="-44.166220" lon="170.108910"></trkpt>
      <trkpt lat="-44.149224" lon="170.108929"></trkpt>
      <trkpt lat="-44.123043" lon="170.128589"></trkpt>
      <trkpt lat="-44.082569" lon="170.135364"></trkpt>
      <trkpt lat="-44.039790" lon="170.134466"></trkpt>
      <trkpt lat="-44.022657" lon="170.128775"></trkpt>
      <trkpt lat="-43.946985" lon="170.131517"></trkpt>
      <trkpt lat="-43.926095" lon="170.125566"></trkpt>
      <trkpt lat="-43.917804" lon="170.113668"></trkpt>
      <trkpt lat="-43.904477" lon="170.125918"></trkpt>
      <trkpt lat="-43.895822" lon="170.117456"></trkpt>
      <trkpt lat="-43.872697" lon="170.119769"></trkpt>
      <trkpt lat="-43.861584" lon="170.102743"></trkpt>
      <trkpt lat="-43.855506" lon="170.110541"></trkpt>
      <trkpt lat="-43.821226" lon="170.109244"></trkpt>
      <trkpt lat="-43.782227" lon="170.123820"></trkpt>
      <trkpt lat="-43.761805" lon="170.121885"></trkpt>
      <trkpt lat="-43.739511" lon="170.110289"></trkpt>
      <trkpt lat="-43.740059" lon="170.114774"></trkpt>
      <trkpt lat="-43.740059" lon="170.114774"></trkpt>
      <trkpt lat="-43.739511" lon="170.110289"></trkpt>
      <trkpt lat="-43.761805" lon="170.121885"></trkpt>
      <trkpt lat="-43.782227" lon="170.123820"></trkpt>
      <trkpt lat="-43.821226" lon="170.109244"></trkpt>
      <trkpt lat="-43.855506" lon="170.110541"></trkpt>
      <trkpt lat="-43.861584" lon="170.102743"></trkpt>
      <trkpt lat="-43.872697" lon="170.119769"></trkpt>
      <trkpt lat="-43.895822" lon="170.117456"></trkpt>
      <trkpt lat="-43.904477" lon="170.125918"></trkpt>
      <trkpt lat="-43.917804" lon="170.113668"></trkpt>
      <trkpt lat="-43.926095" lon="170.125566"></trkpt>
      <trkpt lat="-43.946985" lon="170.131517"></trkpt>
      <trkpt lat="-44.022657" lon="170.128775"></trkpt>
      <trkpt lat="-44.039790" lon="170.134466"></trkpt>
      <trkpt lat="-44.088734" lon="170.135289"></trkpt>
      <trkpt lat="-44.123043" lon="170.128589"></trkpt>
      <trkpt lat="-44.148567" lon="170.109118"></trkpt>
      <trkpt lat="-44.164722" lon="170.108599"></trkpt>
      <trkpt lat="-44.185996" lon="170.120485"></trkpt>
      <trkpt lat="-44.190203" lon="170.140019"></trkpt>
      <trkpt lat="-44.190203" lon="170.140019"></trkpt>
      <trkpt lat="-44.189933" lon="170.122447"></trkpt>
      <trkpt lat="-44.251505" lon="170.116218"></trkpt>
      <trkpt lat="-44.275327" lon="170.098220"></trkpt>
      <trkpt lat="-44.362142" lon="170.002932"></trkpt>
      <trkpt lat="-44.456476" lon="169.975056"></trkpt>
      <trkpt lat="-44.467092" lon="169.988208"></trkpt>
      <trkpt lat="-44.478678" lon="169.983203"></trkpt>
      <trkpt lat="-44.489326" lon="169.959556"></trkpt>
      <trkpt lat="-44.514590" lon="169.828123"></trkpt>
      <trkpt lat="-44.513472" lon="169.797611"></trkpt>
      <trkpt lat="-44.497832" lon="169.756420"></trkpt>
      <trkpt lat="-44.529311" lon="169.713696"></trkpt>
      <trkpt lat="-44.561868" lon="169.689895"></trkpt>
      <trkpt lat="-44.565209" lon="169.661042"></trkpt>
      <trkpt lat="-44.587617" lon="169.647332"></trkpt>
      <trkpt lat="-44.576961" lon="169.619609"></trkpt>
      <trkpt lat="-44.611650" lon="169.530260"></trkpt>
      <trkpt lat="-44.675366" lon="169.478238"></trkpt>
      <trkpt lat="-44.694995" lon="169.484592"></trkpt>
      <trkpt lat="-44.704316" lon="169.502555"></trkpt>
      <trkpt lat="-44.732629" lon="169.509101"></trkpt>
      <trkpt lat="-44.811370" lon="169.503666"></trkpt>
      <trkpt lat="-44.801909" lon="169.473532"></trkpt>
      <trkpt lat="-44.807097" lon="169.450738"></trkpt>
      <trkpt lat="-44.835522" lon="169.426737"></trkpt>
      <trkpt lat="-44.842784" lon="169.400204"></trkpt>
      <trkpt lat="-44.822971" lon="169.351998"></trkpt>
      <trkpt lat="-44.790195" lon="169.356076"></trkpt>
      <trkpt lat="-44.744205" lon="169.339904"></trkpt>
      <trkpt lat="-44.728371" lon="169.283644"></trkpt>
      <trkpt lat="-44.733902" lon="169.258953"></trkpt>
      <trkpt lat="-44.700979" lon="169.192601"></trkpt>
      <trkpt lat="-44.694181" lon="169.136413"></trkpt>
      <trkpt lat="-44.694181" lon="169.136413"></trkpt>
      <trkpt lat="-44.696343" lon="169.170422"></trkpt>
      <trkpt lat="-44.683593" lon="169.189671"></trkpt>
      <trkpt lat="-44.612780" lon="169.247794"></trkpt>
      <trkpt lat="-44.558611" lon="169.238046"></trkpt>
      <trkpt lat="-44.522489" lon="169.250539"></trkpt>
      <trkpt lat="-44.466441" lon="169.247396"></trkpt>
      <trkpt lat="-44.431584" lon="169.183256"></trkpt>
      <trkpt lat="-44.381164" lon="169.186291"></trkpt>
      <trkpt lat="-44.354060" lon="169.169717"></trkpt>
      <trkpt lat="-44.306016" lon="169.197704"></trkpt>
      <trkpt lat="-44.269652" lon="169.200634"></trkpt>
      <trkpt lat="-44.164394" lon="169.276566"></trkpt>
      <trkpt lat="-44.140653" lon="169.328721"></trkpt>
      <trkpt lat="-44.081953" lon="169.372903"></trkpt>
      <trkpt lat="-44.076572" lon="169.386381"></trkpt>
      <trkpt lat="-44.045617" lon="169.385577"></trkpt>
      <trkpt lat="-44.030611" lon="169.362315"></trkpt>
      <trkpt lat="-43.975541" lon="169.424354"></trkpt>
      <trkpt lat="-43.972303" lon="169.385972"></trkpt>
      <trkpt lat="-43.952839" lon="169.356178"></trkpt>
      <trkpt lat="-43.955991" lon="169.316587"></trkpt>
      <trkpt lat="-43.938791" lon="169.279858"></trkpt>
      <trkpt lat="-43.972277" lon="169.220404"></trkpt>
      <trkpt lat="-43.967146" lon="169.165632"></trkpt>
      <trkpt lat="-43.957364" lon="169.150917"></trkpt>
      <trkpt lat="-43.943416" lon="169.148911"></trkpt>
      <trkpt lat="-43.924757" lon="169.087943"></trkpt>
      <trkpt lat="-43.879198" lon="169.043669"></trkpt>
      <trkpt lat="-43.879198" lon="169.043669"></trkpt>
      <trkpt lat="-43.858110" lon="169.044637"></trkpt>
      <trkpt lat="-43.851876" lon="169.058493"></trkpt>
      <trkpt lat="-43.822112" lon="169.065426"></trkpt>
      <trkpt lat="-43.789523" lon="169.124543"></trkpt>
      <trkpt lat="-43.758584" lon="169.148854"></trkpt>
      <trkpt lat="-43.732481" lon="169.192507"></trkpt>
      <trkpt lat="-43.732588" lon="169.203859"></trkpt>
      <trkpt lat="-43.721630" lon="169.209615"></trkpt>
      <trkpt lat="-43.724787" lon="169.217760"></trkpt>
      <trkpt lat="-43.713187" lon="169.229146"></trkpt>
      <trkpt lat="-43.720457" lon="169.231647"></trkpt>
      <trkpt lat="-43.729819" lon="169.247024"></trkpt>
      <trkpt lat="-43.717456" lon="169.269817"></trkpt>
      <trkpt lat="-43.733134" lon="169.303232"></trkpt>
      <trkpt lat="-43.765837" lon="169.330715"></trkpt>
      <trkpt lat="-43.771695" lon="169.360402"></trkpt>
      <trkpt lat="-43.745648" lon="169.397826"></trkpt>
      <trkpt lat="-43.709363" lon="169.426045"></trkpt>
      <trkpt lat="-43.706081" lon="169.437946"></trkpt>
      <trkpt lat="-43.709565" lon="169.456440"></trkpt>
      <trkpt lat="-43.706871" lon="169.468844"></trkpt>
      <trkpt lat="-43.711927" lon="169.497406"></trkpt>
      <trkpt lat="-43.658648" lon="169.583531"></trkpt>
      <trkpt lat="-43.642992" lon="169.582057"></trkpt>
      <trkpt lat="-43.636813" lon="169.588499"></trkpt>
      <trkpt lat="-43.603092" lon="169.590826"></trkpt>
      <trkpt lat="-43.580395" lon="169.627846"></trkpt>
      <trkpt lat="-43.577664" lon="169.656960"></trkpt>
      <trkpt lat="-43.581832" lon="169.668455"></trkpt>
      <trkpt lat="-43.561628" lon="169.687021"></trkpt>
      <trkpt lat="-43.561853" lon="169.752605"></trkpt>
      <trkpt lat="-43.575560" lon="169.804441"></trkpt>
      <trkpt lat="-43.547941" lon="169.834724"></trkpt>
      <trkpt lat="-43.533014" lon="169.836016"></trkpt>
      <trkpt lat="-43.518087" lon="169.866455"></trkpt>
      <trkpt lat="-43.492957" lon="169.870067"></trkpt>
      <trkpt lat="-43.487610" lon="169.876121"></trkpt>
      <trkpt lat="-43.486016" lon="169.895501"></trkpt>
      <trkpt lat="-43.498750" lon="169.966938"></trkpt>
      <trkpt lat="-43.486513" lon="169.980587"></trkpt>
      <trkpt lat="-43.478678" lon="170.007226"></trkpt>
      <trkpt lat="-43.464189" lon="170.018131"></trkpt>
      <trkpt lat="-43.449493" lon="170.059111"></trkpt>
      <trkpt lat="-43.443638" lon="170.060911"></trkpt>
      <trkpt lat="-43.443571" lon="170.072187"></trkpt>
      <trkpt lat="-43.425175" lon="170.092999"></trkpt>
      <trkpt lat="-43.405010" lon="170.096195"></trkpt>
      <trkpt lat="-43.409943" lon="170.102311"></trkpt>
      <trkpt lat="-43.405593" lon="170.101376"></trkpt>
      <trkpt lat="-43.408759" lon="170.109584"></trkpt>
      <trkpt lat="-43.403896" lon="170.121947"></trkpt>
      <trkpt lat="-43.385195" lon="170.130425"></trkpt>
      <trkpt lat="-43.383424" lon="170.163670"></trkpt>
      <trkpt lat="-43.393447" lon="170.175282"></trkpt>
      <trkpt lat="-43.392601" lon="170.181934"></trkpt>
      <trkpt lat="-43.379448" lon="170.178446"></trkpt>
      <trkpt lat="-43.369495" lon="170.183737"></trkpt>
      <trkpt lat="-43.365069" lon="170.203716"></trkpt>
      <trkpt lat="-43.352155" lon="170.201533"></trkpt>
      <trkpt lat="-43.341623" lon="170.213625"></trkpt>
      <trkpt lat="-43.323438" lon="170.213235"></trkpt>
      <trkpt lat="-43.302715" lon="170.226047"></trkpt>
      <trkpt lat="-43.295858" lon="170.224652"></trkpt>
      <trkpt lat="-43.295858" lon="170.224652"></trkpt>
      <trkpt lat="-43.295858" lon="170.224652"></trkpt>
      <trkpt lat="-43.295858" lon="170.224652"></trkpt>
      <trkpt lat="-43.288307" lon="170.226953"></trkpt>
      <trkpt lat="-43.279320" lon="170.245504"></trkpt>
      <trkpt lat="-43.258103" lon="170.242437"></trkpt>
      <trkpt lat="-43.252341" lon="170.255104"></trkpt>
      <trkpt lat="-43.257474" lon="170.280198"></trkpt>
      <trkpt lat="-43.269256" lon="170.299344"></trkpt>
      <trkpt lat="-43.280782" lon="170.303413"></trkpt>
      <trkpt lat="-43.286096" lon="170.314534"></trkpt>
      <trkpt lat="-43.279450" lon="170.328403"></trkpt>
      <trkpt lat="-43.276692" lon="170.352852"></trkpt>
      <trkpt lat="-43.261576" lon="170.359224"></trkpt>
      <trkpt lat="-43.264900" lon="170.374309"></trkpt>
      <trkpt lat="-43.282632" lon="170.385615"></trkpt>
      <trkpt lat="-43.284879" lon="170.408233"></trkpt>
      <trkpt lat="-43.277234" lon="170.417272"></trkpt>
      <trkpt lat="-43.269545" lon="170.414989"></trkpt>
      <trkpt lat="-43.247164" lon="170.430472"></trkpt>
      <trkpt lat="-43.236961" lon="170.430808"></trkpt>
      <trkpt lat="-43.207971" lon="170.452039"></trkpt>
      <trkpt lat="-43.178191" lon="170.448625"></trkpt>
      <trkpt lat="-43.176293" lon="170.457010"></trkpt>
      <trkpt lat="-43.160242" lon="170.462357"></trkpt>
      <trkpt lat="-43.163010" lon="170.471227"></trkpt>
      <trkpt lat="-43.155839" lon="170.493213"></trkpt>
      <trkpt lat="-43.156380" lon="170.508154"></trkpt>
      <trkpt lat="-43.148162" lon="170.515797"></trkpt>
      <trkpt lat="-43.154511" lon="170.629834"></trkpt>
      <trkpt lat="-43.112551" lon="170.633948"></trkpt>
      <trkpt lat="-43.085502" lon="170.624396"></trkpt>
      <trkpt lat="-43.069403" lon="170.627380"></trkpt>
      <trkpt lat="-43.042870" lon="170.639691"></trkpt>
      <trkpt lat="-43.028793" lon="170.660814"></trkpt>
      <trkpt lat="-43.003780" lon="170.676462"></trkpt>
      <trkpt lat="-42.982780" lon="170.680353"></trkpt>
      <trkpt lat="-42.977851" lon="170.729932"></trkpt>
      <trkpt lat="-42.952592" lon="170.740758"></trkpt>
      <trkpt lat="-42.945154" lon="170.758471"></trkpt>
      <trkpt lat="-42.934358" lon="170.752725"></trkpt>
      <trkpt lat="-42.903644" lon="170.772343"></trkpt>
      <trkpt lat="-42.894776" lon="170.793201"></trkpt>
      <trkpt lat="-42.893117" lon="170.811103"></trkpt>
      <trkpt lat="-42.899274" lon="170.817570"></trkpt>
      <trkpt lat="-42.888888" lon="170.825627"></trkpt>
      <trkpt lat="-42.890231" lon="170.839790"></trkpt>
      <trkpt lat="-42.828419" lon="170.900576"></trkpt>
      <trkpt lat="-42.817862" lon="170.900602"></trkpt>
      <trkpt lat="-42.807920" lon="170.885954"></trkpt>
      <trkpt lat="-42.791011" lon="170.896578"></trkpt>
      <trkpt lat="-42.795450" lon="170.902484"></trkpt>
      <trkpt lat="-42.795450" lon="170.902484"></trkpt>
      <trkpt lat="-42.793472" lon="170.894750"></trkpt>
      <trkpt lat="-42.748533" lon="170.929353"></trkpt>
      <trkpt lat="-42.732690" lon="170.957023"></trkpt>
      <trkpt lat="-42.677507" lon="171.010983"></trkpt>
      <trkpt lat="-42.652756" lon="171.053965"></trkpt>
      <trkpt lat="-42.578264" lon="171.119366"></trkpt>
      <trkpt lat="-42.584884" lon="171.130058"></trkpt>
      <trkpt lat="-42.571581" lon="171.147125"></trkpt>
      <trkpt lat="-42.554492" lon="171.140665"></trkpt>
      <trkpt lat="-42.464276" lon="171.193443"></trkpt>
      <trkpt lat="-42.445321" lon="171.216780"></trkpt>
      <trkpt lat="-42.441645" lon="171.238578"></trkpt>
      <trkpt lat="-42.391443" lon="171.250411"></trkpt>
      <trkpt lat="-42.370055" lon="171.243671"></trkpt>
      <trkpt lat="-42.280955" lon="171.293085"></trkpt>
      <trkpt lat="-42.244065" lon="171.326472"></trkpt>
      <trkpt lat="-42.129687" lon="171.328213"></trkpt>
      <trkpt lat="-42.129687" lon="171.328213"></trkpt>
      <trkpt lat="-42.123555" lon="171.332633"></trkpt>
      <trkpt lat="-42.113685" lon="171.330099"></trkpt>
      <trkpt lat="-42.106363" lon="171.339466"></trkpt>
      <trkpt lat="-42.083895" lon="171.349676"></trkpt>
      <trkpt lat="-42.081221" lon="171.355809"></trkpt>
      <trkpt lat="-42.075065" lon="171.354879"></trkpt>
      <trkpt lat="-42.073033" lon="171.361774"></trkpt>
      <trkpt lat="-42.035913" lon="171.368983"></trkpt>
      <trkpt lat="-42.028311" lon="171.387855"></trkpt>
      <trkpt lat="-41.995253" lon="171.398631"></trkpt>
      <trkpt lat="-41.980634" lon="171.412779"></trkpt>
      <trkpt lat="-41.967357" lon="171.435612"></trkpt>
      <trkpt lat="-41.954360" lon="171.420304"></trkpt>
      <trkpt lat="-41.949037" lon="171.419942"></trkpt>
      <trkpt lat="-41.933931" lon="171.437403"></trkpt>
      <trkpt lat="-41.909562" lon="171.435613"></trkpt>
      <trkpt lat="-41.902286" lon="171.440504"></trkpt>
      <trkpt lat="-41.890214" lon="171.468116"></trkpt>
      <trkpt lat="-41.881641" lon="171.470700"></trkpt>
      <trkpt lat="-41.885227" lon="171.494092"></trkpt>
      <trkpt lat="-41.867164" lon="171.502654"></trkpt>
      <trkpt lat="-41.865936" lon="171.525433"></trkpt>
      <trkpt lat="-41.859538" lon="171.547323"></trkpt>
      <trkpt lat="-41.850407" lon="171.557550"></trkpt>
      <trkpt lat="-41.820838" lon="171.570493"></trkpt>
      <trkpt lat="-41.806119" lon="171.590994"></trkpt>
      <trkpt lat="-41.791390" lon="171.595463"></trkpt>
      <trkpt lat="-41.767088" lon="171.592663"></trkpt>
      <trkpt lat="-41.754398" lon="171.585683"></trkpt>
      <trkpt lat="-41.751445" lon="171.573196"></trkpt>
      <trkpt lat="-41.751445" lon="171.573196"></trkpt>
      <trkpt lat="-41.766975" lon="171.592835"></trkpt>
      <trkpt lat="-41.811791" lon="171.590459"></trkpt>
      <trkpt lat="-41.835953" lon="171.670151"></trkpt>
      <trkpt lat="-41.833986" lon="171.710113"></trkpt>
      <trkpt lat="-41.847783" lon="171.716033"></trkpt>
      <trkpt lat="-41.847055" lon="171.742187"></trkpt>
      <trkpt lat="-41.865006" lon="171.780166"></trkpt>
      <trkpt lat="-41.848421" lon="171.785741"></trkpt>
      <trkpt lat="-41.843482" lon="171.802223"></trkpt>
      <trkpt lat="-41.844704" lon="171.818813"></trkpt>
      <trkpt lat="-41.858519" lon="171.835101"></trkpt>
      <trkpt lat="-41.854141" lon="171.853278"></trkpt>
      <trkpt lat="-41.859961" lon="171.859614"></trkpt>
      <trkpt lat="-41.836708" lon="171.925908"></trkpt>
      <trkpt lat="-41.846147" lon="171.940228"></trkpt>
      <trkpt lat="-41.860377" lon="171.940111"></trkpt>
      <trkpt lat="-41.853579" lon="171.964798"></trkpt>
      <trkpt lat="-41.858647" lon="171.977896"></trkpt>
      <trkpt lat="-41.836179" lon="171.989258"></trkpt>
      <trkpt lat="-41.806876" lon="172.024399"></trkpt>
      <trkpt lat="-41.785093" lon="172.026353"></trkpt>
      <trkpt lat="-41.784663" lon="172.034588"></trkpt>
      <trkpt lat="-41.796690" lon="172.036068"></trkpt>
      <trkpt lat="-41.796239" lon="172.048317"></trkpt>
      <trkpt lat="-41.811786" lon="172.048381"></trkpt>
      <trkpt lat="-41.815649" lon="172.082244"></trkpt>
      <trkpt lat="-41.810302" lon="172.102693"></trkpt>
      <trkpt lat="-41.788918" lon="172.114938"></trkpt>
      <trkpt lat="-41.769522" lon="172.150959"></trkpt>
      <trkpt lat="-41.777854" lon="172.174788"></trkpt>
      <trkpt lat="-41.766757" lon="172.191155"></trkpt>
      <trkpt lat="-41.781459" lon="172.193476"></trkpt>
      <trkpt lat="-41.782974" lon="172.204330"></trkpt>
      <trkpt lat="-41.768553" lon="172.232581"></trkpt>
      <trkpt lat="-41.799907" lon="172.315733"></trkpt>
      <trkpt lat="-41.796733" lon="172.361531"></trkpt>
      <trkpt lat="-41.685270" lon="172.437185"></trkpt>
      <trkpt lat="-41.695652" lon="172.476001"></trkpt>
      <trkpt lat="-41.692427" lon="172.492826"></trkpt>
      <trkpt lat="-41.711309" lon="172.547740"></trkpt>
      <trkpt lat="-41.711013" lon="172.578078"></trkpt>
      <trkpt lat="-41.694781" lon="172.616052"></trkpt>
      <trkpt lat="-41.679175" lon="172.618540"></trkpt>
      <trkpt lat="-41.642452" lon="172.661017"></trkpt>
      <trkpt lat="-41.619253" lon="172.754366"></trkpt>
      <trkpt lat="-41.543029" lon="172.794832"></trkpt>
      <trkpt lat="-41.499931" lon="172.795000"></trkpt>
      <trkpt lat="-41.454696" lon="172.815306"></trkpt>
      <trkpt lat="-41.449214" lon="172.834252"></trkpt>
      <trkpt lat="-41.473793" lon="172.845463"></trkpt>
      <trkpt lat="-41.488413" lon="172.892847"></trkpt>
      <trkpt lat="-41.478512" lon="172.928702"></trkpt>
      <trkpt lat="-41.414369" lon="173.013727"></trkpt>
      <trkpt lat="-41.403810" lon="173.052778"></trkpt>
      <trkpt lat="-41.380662" lon="173.088972"></trkpt>
      <trkpt lat="-41.379861" lon="173.113057"></trkpt>
      <trkpt lat="-41.335602" lon="173.183196"></trkpt>
      <trkpt lat="-41.331498" lon="173.202690"></trkpt>
      <trkpt lat="-41.303089" lon="173.224708"></trkpt>
      <trkpt lat="-41.297952" lon="173.244469"></trkpt>
      <trkpt lat="-41.264645" lon="173.267964"></trkpt>
      <trkpt lat="-41.263348" lon="173.290172"></trkpt>
      <trkpt lat="-41.249488" lon="173.312822"></trkpt>
      <trkpt lat="-41.209829" lon="173.337327"></trkpt>
      <trkpt lat="-41.203813" lon="173.357327"></trkpt>
      <trkpt lat="-41.210653" lon="173.393153"></trkpt>
      <trkpt lat="-41.218492" lon="173.396763"></trkpt>
      <trkpt lat="-41.218492" lon="173.396763"></trkpt>
      <trkpt lat="-41.218492" lon="173.396763"></trkpt>
      <trkpt lat="-41.218492" lon="173.396763"></trkpt>
      <trkpt lat="-41.229791" lon="173.399721"></trkpt>
      <trkpt lat="-41.226288" lon="173.409617"></trkpt>
      <trkpt lat="-41.231133" lon="173.412083"></trkpt>
      <trkpt lat="-41.226126" lon="173.419417"></trkpt>
      <trkpt lat="-41.228798" lon="173.435861"></trkpt>
      <trkpt lat="-41.221714" lon="173.436039"></trkpt>
      <trkpt lat="-41.221581" lon="173.445780"></trkpt>
      <trkpt lat="-41.186644" lon="173.485919"></trkpt>
      <trkpt lat="-41.181115" lon="173.500078"></trkpt>
      <trkpt lat="-41.164382" lon="173.515375"></trkpt>
      <trkpt lat="-41.158790" lon="173.528833"></trkpt>
      <trkpt lat="-41.160122" lon="173.541585"></trkpt>
      <trkpt lat="-41.166981" lon="173.561603"></trkpt>
      <trkpt lat="-41.175054" lon="173.563112"></trkpt>
      <trkpt lat="-41.190820" lon="173.554319"></trkpt>
      <trkpt lat="-41.204217" lon="173.563635"></trkpt>
      <trkpt lat="-41.206270" lon="173.574747"></trkpt>
      <trkpt lat="-41.218660" lon="173.586350"></trkpt>
      <trkpt lat="-41.267374" lon="173.572541"></trkpt>
      <trkpt lat="-41.301373" lon="173.574464"></trkpt>
      <trkpt lat="-41.296724" lon="173.620737"></trkpt>
      <trkpt lat="-41.282378" lon="173.644000"></trkpt>
      <trkpt lat="-41.282999" lon="173.656777"></trkpt>
      <trkpt lat="-41.291352" lon="173.672821"></trkpt>
      <trkpt lat="-41.285914" lon="173.690254"></trkpt>
      <trkpt lat="-41.288024" lon="173.702705"></trkpt>
      <trkpt lat="-41.282932" lon="173.725221"></trkpt>
      <trkpt lat="-41.275377" lon="173.732012"></trkpt>
      <trkpt lat="-41.271979" lon="173.746985"></trkpt>
      <trkpt lat="-41.275684" lon="173.764824"></trkpt>
      <trkpt lat="-41.287307" lon="173.768254"></trkpt>
      <trkpt lat="-41.286892" lon="173.773756"></trkpt>
      <trkpt lat="-41.277015" lon="173.785063"></trkpt>
      <trkpt lat="-41.268604" lon="173.785516"></trkpt>
      <trkpt lat="-41.287251" lon="173.802828"></trkpt>
      <trkpt lat="-41.292721" lon="173.821815"></trkpt>
      <trkpt lat="-41.289497" lon="173.868040"></trkpt>
      <trkpt lat="-41.277284" lon="173.862077"></trkpt>
      <trkpt lat="-41.262184" lon="173.863857"></trkpt>
      <trkpt lat="-41.256690" lon="173.872381"></trkpt>
      <trkpt lat="-41.249636" lon="173.873079"></trkpt>
      <trkpt lat="-41.239530" lon="173.898364"></trkpt>
      <trkpt lat="-41.235752" lon="173.896285"></trkpt>
      <trkpt lat="-41.231073" lon="173.907407"></trkpt>
      <trkpt lat="-41.234377" lon="173.914849"></trkpt>
      <trkpt lat="-41.215177" lon="173.947591"></trkpt>
      <trkpt lat="-41.213562" lon="173.961918"></trkpt>
      <trkpt lat="-41.219288" lon="173.971515"></trkpt>
      <trkpt lat="-41.210822" lon="173.976126"></trkpt>
      <trkpt lat="-41.208694" lon="174.004287"></trkpt>
      <trkpt lat="-41.204246" lon="174.014126"></trkpt>
      <trkpt lat="-41.199929" lon="174.012414"></trkpt>
      <trkpt lat="-41.202277" lon="174.032560"></trkpt>
      <trkpt lat="-41.191620" lon="174.033767"></trkpt>
      <trkpt lat="-41.193932" lon="174.040379"></trkpt>
      <trkpt lat="-41.190664" lon="174.042775"></trkpt>
      <trkpt lat="-41.195724" lon="174.050196"></trkpt>
      <trkpt lat="-41.190891" lon="174.051193"></trkpt>
      <trkpt lat="-41.190590" lon="174.064709"></trkpt>
      <trkpt lat="-41.195476" lon="174.073759"></trkpt>
      <trkpt lat="-41.187848" lon="174.078472"></trkpt>
      <trkpt lat="-41.186601" lon="174.097739"></trkpt>
      <trkpt lat="-41.175136" lon="174.118476"></trkpt>
      <trkpt lat="-41.162352" lon="174.121725"></trkpt>
      <trkpt lat="-41.136958" lon="174.144070"></trkpt>
      <trkpt lat="-41.124176" lon="174.135041"></trkpt>
      <trkpt lat="-41.099616" lon="174.131691"></trkpt>
      <trkpt lat="-41.086113" lon="174.139476"></trkpt>
      <trkpt lat="-41.083912" lon="174.148353"></trkpt>
      <trkpt lat="-41.089807" lon="174.153653"></trkpt>
      <trkpt lat="-41.086767" lon="174.157301"></trkpt>
      <trkpt lat="-41.069242" lon="174.157012"></trkpt>
      <trkpt lat="-41.063272" lon="174.163191"></trkpt>
      <trkpt lat="-41.039857" lon="174.149963"></trkpt>
      <trkpt lat="-41.027909" lon="174.157735"></trkpt>
      <trkpt lat="-41.040512" lon="174.154221"></trkpt>
      <trkpt lat="-41.050221" lon="174.162411"></trkpt>
      <trkpt lat="-41.053301" lon="174.177765"></trkpt>
      <trkpt lat="-41.059776" lon="174.180424"></trkpt>
      <trkpt lat="-41.060459" lon="174.189918"></trkpt>
      <trkpt lat="-41.064283" lon="174.191560"></trkpt>
      <trkpt lat="-41.071489" lon="174.219265"></trkpt>
      <trkpt lat="-41.168870" lon="174.293577"></trkpt>
      <trkpt lat="-41.168870" lon="174.293577"></trkpt>
      <trkpt lat="-41.071489" lon="174.219265"></trkpt>
      <trkpt lat="-41.064283" lon="174.191560"></trkpt>
      <trkpt lat="-41.060459" lon="174.189918"></trkpt>
      <trkpt lat="-41.059776" lon="174.180424"></trkpt>
      <trkpt lat="-41.053301" lon="174.177765"></trkpt>
      <trkpt lat="-41.050221" lon="174.162411"></trkpt>
      <trkpt lat="-41.040512" lon="174.154221"></trkpt>
      <trkpt lat="-41.027909" lon="174.157735"></trkpt>
      <trkpt lat="-41.039857" lon="174.149963"></trkpt>
      <trkpt lat="-41.063272" lon="174.163191"></trkpt>
      <trkpt lat="-41.069242" lon="174.157012"></trkpt>
      <trkpt lat="-41.086767" lon="174.157301"></trkpt>
      <trkpt lat="-41.089807" lon="174.153653"></trkpt>
      <trkpt lat="-41.083912" lon="174.148353"></trkpt>
      <trkpt lat="-41.086113" lon="174.139476"></trkpt>
      <trkpt lat="-41.099616" lon="174.131691"></trkpt>
      <trkpt lat="-41.124176" lon="174.135041"></trkpt>
      <trkpt lat="-41.136958" lon="174.144070"></trkpt>
      <trkpt lat="-41.162238" lon="174.121802"></trkpt>
      <trkpt lat="-41.175203" lon="174.118389"></trkpt>
      <trkpt lat="-41.186601" lon="174.097739"></trkpt>
      <trkpt lat="-41.187848" lon="174.078472"></trkpt>
      <trkpt lat="-41.195476" lon="174.073759"></trkpt>
      <trkpt lat="-41.190590" lon="174.064709"></trkpt>
      <trkpt lat="-41.190891" lon="174.051193"></trkpt>
      <trkpt lat="-41.195724" lon="174.050196"></trkpt>
      <trkpt lat="-41.190664" lon="174.042775"></trkpt>
      <trkpt lat="-41.193932" lon="174.040379"></trkpt>
      <trkpt lat="-41.191620" lon="174.033767"></trkpt>
      <trkpt lat="-41.202277" lon="174.032560"></trkpt>
      <trkpt lat="-41.199929" lon="174.012414"></trkpt>
      <trkpt lat="-41.204246" lon="174.014126"></trkpt>
      <trkpt lat="-41.208694" lon="174.004287"></trkpt>
      <trkpt lat="-41.210822" lon="173.976126"></trkpt>
      <trkpt lat="-41.219288" lon="173.971515"></trkpt>
      <trkpt lat="-41.213562" lon="173.961918"></trkpt>
      <trkpt lat="-41.215177" lon="173.947591"></trkpt>
      <trkpt lat="-41.234377" lon="173.914849"></trkpt>
      <trkpt lat="-41.231073" lon="173.907407"></trkpt>
      <trkpt lat="-41.235752" lon="173.896285"></trkpt>
      <trkpt lat="-41.239530" lon="173.898364"></trkpt>
      <trkpt lat="-41.249636" lon="173.873079"></trkpt>
      <trkpt lat="-41.256690" lon="173.872381"></trkpt>
      <trkpt lat="-41.262184" lon="173.863857"></trkpt>
      <trkpt lat="-41.277284" lon="173.862077"></trkpt>
      <trkpt lat="-41.289497" lon="173.868040"></trkpt>
      <trkpt lat="-41.292721" lon="173.821815"></trkpt>
      <trkpt lat="-41.287251" lon="173.802828"></trkpt>
      <trkpt lat="-41.268606" lon="173.785626"></trkpt>
      <trkpt lat="-41.277801" lon="173.784424"></trkpt>
      <trkpt lat="-41.287307" lon="173.768254"></trkpt>
      <trkpt lat="-41.366170" lon="173.762123"></trkpt>
      <trkpt lat="-41.401980" lon="173.775126"></trkpt>
      <trkpt lat="-41.412740" lon="173.769088"></trkpt>
      <trkpt lat="-41.417846" lon="173.759943"></trkpt>
      <trkpt lat="-41.433690" lon="173.766655"></trkpt>
      <trkpt lat="-41.443314" lon="173.780895"></trkpt>
      <trkpt lat="-41.486401" lon="173.817104"></trkpt>
      <trkpt lat="-41.479409" lon="173.873364"></trkpt>
      <trkpt lat="-41.511737" lon="173.878347"></trkpt>
      <trkpt lat="-41.508844" lon="173.939697"></trkpt>
      <trkpt lat="-41.511797" lon="173.954600"></trkpt>
      <trkpt lat="-41.511797" lon="173.954600"></trkpt>
      <trkpt lat="-41.511797" lon="173.954600"></trkpt>
      <trkpt lat="-41.511797" lon="173.954600"></trkpt>
      <trkpt lat="-41.529394" lon="174.015478"></trkpt>
      <trkpt lat="-41.545385" lon="174.040766"></trkpt>
      <trkpt lat="-41.567431" lon="174.033140"></trkpt>
      <trkpt lat="-41.652101" lon="174.077078"></trkpt>
      <trkpt lat="-41.681052" lon="174.073692"></trkpt>
      <trkpt lat="-41.736954" lon="174.134107"></trkpt>
      <trkpt lat="-41.776543" lon="174.149224"></trkpt>
      <trkpt lat="-41.807369" lon="174.146255"></trkpt>
      <trkpt lat="-41.855131" lon="174.116894"></trkpt>
      <trkpt lat="-41.908878" lon="174.108074"></trkpt>
      <trkpt lat="-42.039150" lon="173.970760"></trkpt>
      <trkpt lat="-42.083598" lon="173.937074"></trkpt>
      <trkpt lat="-42.128023" lon="173.921641"></trkpt>
      <trkpt lat="-42.154362" lon="173.931841"></trkpt>
      <trkpt lat="-42.158009" lon="173.911349"></trkpt>
      <trkpt lat="-42.214588" lon="173.870908"></trkpt>
      <trkpt lat="-42.248119" lon="173.830751"></trkpt>
      <trkpt lat="-42.287546" lon="173.756737"></trkpt>
      <trkpt lat="-42.301204" lon="173.746661"></trkpt>
      <trkpt lat="-42.311797" lon="173.751399"></trkpt>
      <trkpt lat="-42.310210" lon="173.719934"></trkpt>
      <trkpt lat="-42.325721" lon="173.717170"></trkpt>
      <trkpt lat="-42.351592" lon="173.675172"></trkpt>
      <trkpt lat="-42.402262" lon="173.680531"></trkpt>
      <trkpt lat="-42.411977" lon="173.671589"></trkpt>
      <trkpt lat="-42.421018" lon="173.683196"></trkpt>
      <trkpt lat="-42.421018" lon="173.683196"></trkpt>
      <trkpt lat="-42.421018" lon="173.683196"></trkpt>
      <trkpt lat="-42.421018" lon="173.683196"></trkpt>
      <trkpt lat="-42.411977" lon="173.671589"></trkpt>
      <trkpt lat="-42.402262" lon="173.680531"></trkpt>
      <trkpt lat="-42.351592" lon="173.675172"></trkpt>
      <trkpt lat="-42.325721" lon="173.717170"></trkpt>
      <trkpt lat="-42.310318" lon="173.719728"></trkpt>
      <trkpt lat="-42.311797" lon="173.751399"></trkpt>
      <trkpt lat="-42.301204" lon="173.746661"></trkpt>
      <trkpt lat="-42.287546" lon="173.756737"></trkpt>
      <trkpt lat="-42.248119" lon="173.830751"></trkpt>
      <trkpt lat="-42.214588" lon="173.870908"></trkpt>
      <trkpt lat="-42.158009" lon="173.911349"></trkpt>
      <trkpt lat="-42.154362" lon="173.931841"></trkpt>
      <trkpt lat="-42.128023" lon="173.921641"></trkpt>
      <trkpt lat="-42.083598" lon="173.937074"></trkpt>
      <trkpt lat="-42.039150" lon="173.970760"></trkpt>
      <trkpt lat="-41.908878" lon="174.108074"></trkpt>
      <trkpt lat="-41.855131" lon="174.116894"></trkpt>
      <trkpt lat="-41.807369" lon="174.146255"></trkpt>
      <trkpt lat="-41.776543" lon="174.149224"></trkpt>
      <trkpt lat="-41.736954" lon="174.134107"></trkpt>
      <trkpt lat="-41.681052" lon="174.073692"></trkpt>
      <trkpt lat="-41.652101" lon="174.077078"></trkpt>
      <trkpt lat="-41.567431" lon="174.033140"></trkpt>
      <trkpt lat="-41.545385" lon="174.040766"></trkpt>
      <trkpt lat="-41.529394" lon="174.015478"></trkpt>
      <trkpt lat="-41.511797" lon="173.954600"></trkpt>
      <trkpt lat="-41.511797" lon="173.954600"></trkpt>
      <trkpt lat="-41.495381" lon="173.964404"></trkpt>
      <trkpt lat="-41.481957" lon="173.965648"></trkpt>
      <trkpt lat="-41.460616" lon="173.961968"></trkpt>
      <trkpt lat="-41.437357" lon="173.965592"></trkpt>
      <trkpt lat="-41.421531" lon="173.958760"></trkpt>
      <trkpt lat="-41.415352" lon="173.968777"></trkpt>
      <trkpt lat="-41.395350" lon="173.951224"></trkpt>
      <trkpt lat="-41.374372" lon="173.946945"></trkpt>
      <trkpt lat="-41.346968" lon="173.956999"></trkpt>
      <trkpt lat="-41.311293" lon="173.979233"></trkpt>
      <trkpt lat="-41.297275" lon="174.000913"></trkpt>
      <trkpt lat="-41.284720" lon="174.003857"></trkpt>
      <trkpt lat="-41.249963" lon="174.032141"></trkpt>
      <trkpt lat="-41.245355" lon="174.040823"></trkpt>
      <trkpt lat="-41.223080" lon="174.147305"></trkpt>
      <trkpt lat="-41.226537" lon="174.154328"></trkpt>
      <trkpt lat="-41.242571" lon="174.157775"></trkpt>
      <trkpt lat="-41.246123" lon="174.165052"></trkpt>
      <trkpt lat="-41.239698" lon="174.206737"></trkpt>
      <trkpt lat="-41.239115" lon="174.253916"></trkpt>
      <trkpt lat="-41.218861" lon="174.283599"></trkpt>
      <trkpt lat="-41.211099" lon="174.318532"></trkpt>
      <trkpt lat="-41.373333" lon="174.628520"></trkpt>
      <trkpt lat="-41.386588" lon="174.669467"></trkpt>
      <trkpt lat="-41.390246" lon="174.708468"></trkpt>
      <trkpt lat="-41.387020" lon="174.813309"></trkpt>
      <trkpt lat="-41.379381" lon="174.830600"></trkpt>
      <trkpt lat="-41.328853" lon="174.852377"></trkpt>
      <trkpt lat="-41.287878" lon="174.856941"></trkpt>
      <trkpt lat="-41.275739" lon="174.851914"></trkpt>
      <trkpt lat="-41.273102" lon="174.844107"></trkpt>
      <trkpt lat="-41.284500" lon="174.786867"></trkpt>
      <trkpt lat="-41.280102" lon="174.780600"></trkpt>
      <trkpt lat="-41.289464" lon="174.778726"></trkpt>
      <trkpt lat="-41.292619" lon="174.785257"></trkpt>
      <trkpt lat="-41.299586" lon="174.781027"></trkpt>
      <trkpt lat="-41.304792" lon="174.792616"></trkpt>
      <trkpt lat="-41.311814" lon="174.790496"></trkpt>
      <trkpt lat="-41.311342" lon="174.797836"></trkpt>
      <trkpt lat="-41.311342" lon="174.797836"></trkpt>
      <trkpt lat="-41.311342" lon="174.797836"></trkpt>
      <trkpt lat="-41.311342" lon="174.797836"></trkpt>
      <trkpt lat="-41.311881" lon="174.790516"></trkpt>
      <trkpt lat="-41.304738" lon="174.792569"></trkpt>
      <trkpt lat="-41.294819" lon="174.771069"></trkpt>
      <trkpt lat="-41.275863" lon="174.773572"></trkpt>
      <trkpt lat="-41.262733" lon="174.787901"></trkpt>
      <trkpt lat="-41.228787" lon="174.843357"></trkpt>
      <trkpt lat="-41.217247" lon="174.879851"></trkpt>
      <trkpt lat="-41.194468" lon="174.921745"></trkpt>
      <trkpt lat="-41.148129" lon="174.988219"></trkpt>
      <trkpt lat="-41.117367" lon="175.047915"></trkpt>
      <trkpt lat="-41.113351" lon="175.092945"></trkpt>
      <trkpt lat="-41.102528" lon="175.099387"></trkpt>
      <trkpt lat="-41.096037" lon="175.115479"></trkpt>
      <trkpt lat="-41.087443" lon="175.148894"></trkpt>
      <trkpt lat="-41.089654" lon="175.155099"></trkpt>
      <trkpt lat="-41.078643" lon="175.182466"></trkpt>
      <trkpt lat="-41.078330" lon="175.196192"></trkpt>
      <trkpt lat="-41.081068" lon="175.205363"></trkpt>
      <trkpt lat="-41.097927" lon="175.205649"></trkpt>
      <trkpt lat="-41.114071" lon="175.218515"></trkpt>
      <trkpt lat="-41.115350" lon="175.233562"></trkpt>
      <trkpt lat="-41.107854" lon="175.257600"></trkpt>
      <trkpt lat="-41.111512" lon="175.258673"></trkpt>
      <trkpt lat="-41.108457" lon="175.263429"></trkpt>
      <trkpt lat="-41.109213" lon="175.275536"></trkpt>
      <trkpt lat="-41.111891" lon="175.275208"></trkpt>
      <trkpt lat="-41.104581" lon="175.294821"></trkpt>
      <trkpt lat="-41.115059" lon="175.313633"></trkpt>
      <trkpt lat="-41.119700" lon="175.337475"></trkpt>
      <trkpt lat="-41.118243" lon="175.378532"></trkpt>
      <trkpt lat="-41.090275" lon="175.449415"></trkpt>
      <trkpt lat="-41.068311" lon="175.473917"></trkpt>
      <trkpt lat="-41.060742" lon="175.492842"></trkpt>
      <trkpt lat="-41.014808" lon="175.536785"></trkpt>
      <trkpt lat="-41.006130" lon="175.554872"></trkpt>
      <trkpt lat="-40.998932" lon="175.558049"></trkpt>
      <trkpt lat="-40.962535" lon="175.612882"></trkpt>
      <trkpt lat="-40.958852" lon="175.645279"></trkpt>
      <trkpt lat="-40.944907" lon="175.669301"></trkpt>
      <trkpt lat="-40.949818" lon="175.695561"></trkpt>
      <trkpt lat="-40.938884" lon="175.714440"></trkpt>
      <trkpt lat="-40.928083" lon="175.762141"></trkpt>
      <trkpt lat="-40.921285" lon="175.778935"></trkpt>
      <trkpt lat="-40.902478" lon="175.796009"></trkpt>
      <trkpt lat="-40.895964" lon="175.810677"></trkpt>
      <trkpt lat="-40.902271" lon="175.830465"></trkpt>
      <trkpt lat="-40.897297" lon="175.839576"></trkpt>
      <trkpt lat="-40.874877" lon="175.850783"></trkpt>
      <trkpt lat="-40.865581" lon="175.865736"></trkpt>
      <trkpt lat="-40.884057" lon="175.891018"></trkpt>
      <trkpt lat="-40.899644" lon="175.893600"></trkpt>
      <trkpt lat="-40.899644" lon="175.893600"></trkpt>
      <trkpt lat="-40.865581" lon="175.865736"></trkpt>
      <trkpt lat="-40.902271" lon="175.830465"></trkpt>
      <trkpt lat="-40.897975" lon="175.803769"></trkpt>
      <trkpt lat="-40.949784" lon="175.696051"></trkpt>
      <trkpt lat="-40.944907" lon="175.669301"></trkpt>
      <trkpt lat="-40.751363" lon="175.604276"></trkpt>
      <trkpt lat="-40.671811" lon="175.700244"></trkpt>
      <trkpt lat="-40.582636" lon="175.724825"></trkpt>
      <trkpt lat="-40.393367" lon="175.885632"></trkpt>
      <trkpt lat="-40.340545" lon="175.879886"></trkpt>
      <trkpt lat="-40.205670" lon="176.108380"></trkpt>
      <trkpt lat="-40.091127" lon="176.184487"></trkpt>
      <trkpt lat="-40.021472" lon="176.268157"></trkpt>
      <trkpt lat="-40.020943" lon="176.324249"></trkpt>
      <trkpt lat="-39.934690" lon="176.353795"></trkpt>
      <trkpt lat="-39.910058" lon="176.411879"></trkpt>
      <trkpt lat="-39.865922" lon="176.443292"></trkpt>
      <trkpt lat="-39.783211" lon="176.470295"></trkpt>
      <trkpt lat="-39.778464" lon="176.489185"></trkpt>
      <trkpt lat="-39.715321" lon="176.495359"></trkpt>
      <trkpt lat="-39.689826" lon="176.563519"></trkpt>
      <trkpt lat="-39.649493" lon="176.579898"></trkpt>
      <trkpt lat="-39.647924" lon="176.683656"></trkpt>
      <trkpt lat="-39.575173" lon="176.775102"></trkpt>
      <trkpt lat="-39.563213" lon="176.851856"></trkpt>
      <trkpt lat="-39.496279" lon="176.873590"></trkpt>
      <trkpt lat="-39.479241" lon="176.898220"></trkpt>
      <trkpt lat="-39.479241" lon="176.898220"></trkpt>
      <trkpt lat="-39.479241" lon="176.898220"></trkpt>
      <trkpt lat="-39.479241" lon="176.898220"></trkpt>
      <trkpt lat="-39.486156" lon="176.890137"></trkpt>
      <trkpt lat="-39.474839" lon="176.876777"></trkpt>
      <trkpt lat="-39.428927" lon="176.871958"></trkpt>
      <trkpt lat="-39.415583" lon="176.856067"></trkpt>
      <trkpt lat="-39.397198" lon="176.852794"></trkpt>
      <trkpt lat="-39.385714" lon="176.813930"></trkpt>
      <trkpt lat="-39.370733" lon="176.806951"></trkpt>
      <trkpt lat="-39.362846" lon="176.786199"></trkpt>
      <trkpt lat="-39.349905" lon="176.787191"></trkpt>
      <trkpt lat="-39.346904" lon="176.750899"></trkpt>
      <trkpt lat="-39.316082" lon="176.732278"></trkpt>
      <trkpt lat="-39.303478" lon="176.708832"></trkpt>
      <trkpt lat="-39.282513" lon="176.709825"></trkpt>
      <trkpt lat="-39.247987" lon="176.681568"></trkpt>
      <trkpt lat="-39.216302" lon="176.694012"></trkpt>
      <trkpt lat="-39.167279" lon="176.615272"></trkpt>
      <trkpt lat="-39.148042" lon="176.602118"></trkpt>
      <trkpt lat="-39.120736" lon="176.602829"></trkpt>
      <trkpt lat="-39.109764" lon="176.581104"></trkpt>
      <trkpt lat="-39.112196" lon="176.568020"></trkpt>
      <trkpt lat="-39.061370" lon="176.591074"></trkpt>
      <trkpt lat="-39.054780" lon="176.578640"></trkpt>
      <trkpt lat="-39.023269" lon="176.571195"></trkpt>
      <trkpt lat="-38.998348" lon="176.540952"></trkpt>
      <trkpt lat="-38.952390" lon="176.519369"></trkpt>
      <trkpt lat="-38.911022" lon="176.460468"></trkpt>
      <trkpt lat="-38.856504" lon="176.306377"></trkpt>
      <trkpt lat="-38.838318" lon="176.278805"></trkpt>
      <trkpt lat="-38.781244" lon="176.234533"></trkpt>
      <trkpt lat="-38.717275" lon="176.163854"></trkpt>
      <trkpt lat="-38.705075" lon="176.087848"></trkpt>
      <trkpt lat="-38.686653" lon="176.069625"></trkpt>
      <trkpt lat="-38.686653" lon="176.069625"></trkpt>
      <trkpt lat="-38.686561" lon="176.069658"></trkpt>
      <trkpt lat="-38.686587" lon="176.069781"></trkpt>
      <trkpt lat="-38.687505" lon="176.069462"></trkpt>
      <trkpt lat="-38.687692" lon="176.069986"></trkpt>
      <trkpt lat="-38.688103" lon="176.071832"></trkpt>
      <trkpt lat="-38.688041" lon="176.071975"></trkpt>
      <trkpt lat="-38.688157" lon="176.072059"></trkpt>
      <trkpt lat="-38.690243" lon="176.081993"></trkpt>
      <trkpt lat="-38.690465" lon="176.081786"></trkpt>
      <trkpt lat="-38.691248" lon="176.080200"></trkpt>
      <trkpt lat="-38.691248" lon="176.080200"></trkpt>
      <trkpt lat="-38.708274" lon="176.088610"></trkpt>
      <trkpt lat="-38.735644" lon="176.071728"></trkpt>
      <trkpt lat="-38.810060" lon="176.079188"></trkpt>
      <trkpt lat="-38.854717" lon="176.051326"></trkpt>
      <trkpt lat="-38.856605" lon="176.012856"></trkpt>
      <trkpt lat="-38.874439" lon="176.001973"></trkpt>
      <trkpt lat="-38.887124" lon="175.953720"></trkpt>
      <trkpt lat="-38.904967" lon="175.939370"></trkpt>
      <trkpt lat="-38.911888" lon="175.898407"></trkpt>
      <trkpt lat="-38.945004" lon="175.851406"></trkpt>
      <trkpt lat="-38.996304" lon="175.805009"></trkpt>
      <trkpt lat="-38.981818" lon="175.779720"></trkpt>
      <trkpt lat="-38.985155" lon="175.769813"></trkpt>
      <trkpt lat="-38.995093" lon="175.771511"></trkpt>
      <trkpt lat="-38.992977" lon="175.754330"></trkpt>
      <trkpt lat="-39.023405" lon="175.725507"></trkpt>
      <trkpt lat="-39.012796" lon="175.680062"></trkpt>
      <trkpt lat="-39.019896" lon="175.649625"></trkpt>
      <trkpt lat="-39.068345" lon="175.565598"></trkpt>
      <trkpt lat="-39.144908" lon="175.511505"></trkpt>
      <trkpt lat="-39.176846" lon="175.469935"></trkpt>
      <trkpt lat="-39.184659" lon="175.435517"></trkpt>
      <trkpt lat="-39.176779" lon="175.402461"></trkpt>
      <trkpt lat="-39.254810" lon="175.387800"></trkpt>
      <trkpt lat="-39.264554" lon="175.398904"></trkpt>
      <trkpt lat="-39.268485" lon="175.388274"></trkpt>
      <trkpt lat="-39.307961" lon="175.389767"></trkpt>
      <trkpt lat="-39.343350" lon="175.377261"></trkpt>
      <trkpt lat="-39.368222" lon="175.322558"></trkpt>
      <trkpt lat="-39.395348" lon="175.377368"></trkpt>
      <trkpt lat="-39.416964" lon="175.399671"></trkpt>
      <trkpt lat="-39.416964" lon="175.399671"></trkpt>
      <trkpt lat="-39.418040" lon="175.398461"></trkpt>
      <trkpt lat="-39.418646" lon="175.399674"></trkpt>
      <trkpt lat="-39.420509" lon="175.398150"></trkpt>
      <trkpt lat="-39.422347" lon="175.393714"></trkpt>
      <trkpt lat="-39.426303" lon="175.387111"></trkpt>
      <trkpt lat="-39.427396" lon="175.384740"></trkpt>
      <trkpt lat="-39.429222" lon="175.382212"></trkpt>
      <trkpt lat="-39.429673" lon="175.380652"></trkpt>
      <trkpt lat="-39.429594" lon="175.379311"></trkpt>
      <trkpt lat="-39.428002" lon="175.372840"></trkpt>
      <trkpt lat="-39.421392" lon="175.354414"></trkpt>
      <trkpt lat="-39.421321" lon="175.353013"></trkpt>
      <trkpt lat="-39.422145" lon="175.346315"></trkpt>
      <trkpt lat="-39.421316" lon="175.342005"></trkpt>
      <trkpt lat="-39.418967" lon="175.346473"></trkpt>
      <trkpt lat="-39.418376" lon="175.347039"></trkpt>
      <trkpt lat="-39.418150" lon="175.348168"></trkpt>
      <trkpt lat="-39.416781" lon="175.350998"></trkpt>
      <trkpt lat="-39.412267" lon="175.356921"></trkpt>
      <trkpt lat="-39.412956" lon="175.360392"></trkpt>
      <trkpt lat="-39.411900" lon="175.362507"></trkpt>
      <trkpt lat="-39.411900" lon="175.362507"></trkpt>
      <trkpt lat="-39.421316" lon="175.342005"></trkpt>
      <trkpt lat="-39.429686" lon="175.380463"></trkpt>
      <trkpt lat="-39.418646" lon="175.399674"></trkpt>
      <trkpt lat="-39.395490" lon="175.377591"></trkpt>
      <trkpt lat="-39.368082" lon="175.322562"></trkpt>
      <trkpt lat="-39.343841" lon="175.376981"></trkpt>
      <trkpt lat="-39.307961" lon="175.389767"></trkpt>
      <trkpt lat="-39.268485" lon="175.388274"></trkpt>
      <trkpt lat="-39.264554" lon="175.398904"></trkpt>
      <trkpt lat="-39.254990" lon="175.387799"></trkpt>
      <trkpt lat="-39.205089" lon="175.402754"></trkpt>
      <trkpt lat="-39.134566" lon="175.398644"></trkpt>
      <trkpt lat="-39.107104" lon="175.379044"></trkpt>
      <trkpt lat="-39.079273" lon="175.381365"></trkpt>
      <trkpt lat="-39.065202" lon="175.371144"></trkpt>
      <trkpt lat="-39.049681" lon="175.383624"></trkpt>
      <trkpt lat="-38.969640" lon="175.379990"></trkpt>
      <trkpt lat="-38.939054" lon="175.345205"></trkpt>
      <trkpt lat="-38.898032" lon="175.339563"></trkpt>
      <trkpt lat="-38.880798" lon="175.302326"></trkpt>
      <trkpt lat="-38.883872" lon="175.255149"></trkpt>
      <trkpt lat="-38.863111" lon="175.236315"></trkpt>
      <trkpt lat="-38.799406" lon="175.221016"></trkpt>
      <trkpt lat="-38.743349" lon="175.260813"></trkpt>
      <trkpt lat="-38.730581" lon="175.260588"></trkpt>
      <trkpt lat="-38.704921" lon="175.249153"></trkpt>
      <trkpt lat="-38.696990" lon="175.221077"></trkpt>
      <trkpt lat="-38.676226" lon="175.198077"></trkpt>
      <trkpt lat="-38.647378" lon="175.214118"></trkpt>
      <trkpt lat="-38.636602" lon="175.204472"></trkpt>
      <trkpt lat="-38.615982" lon="175.219180"></trkpt>
      <trkpt lat="-38.593701" lon="175.219582"></trkpt>
      <trkpt lat="-38.527572" lon="175.175508"></trkpt>
      <trkpt lat="-38.514227" lon="175.208990"></trkpt>
      <trkpt lat="-38.483313" lon="175.175035"></trkpt>
      <trkpt lat="-38.449685" lon="175.162688"></trkpt>
      <trkpt lat="-38.428944" lon="175.115192"></trkpt>
      <trkpt lat="-38.414145" lon="175.108662"></trkpt>
      <trkpt lat="-38.401584" lon="175.125502"></trkpt>
      <trkpt lat="-38.379114" lon="175.132508"></trkpt>
      <trkpt lat="-38.379857" lon="175.149740"></trkpt>
      <trkpt lat="-38.370915" lon="175.158761"></trkpt>
      <trkpt lat="-38.338073" lon="175.167275"></trkpt>
      <trkpt lat="-38.317532" lon="175.144771"></trkpt>
      <trkpt lat="-38.293295" lon="175.145687"></trkpt>
      <trkpt lat="-38.252571" lon="175.180892"></trkpt>
      <trkpt lat="-38.248759" lon="175.161677"></trkpt>
      <trkpt lat="-38.266080" lon="175.138034"></trkpt>
      <trkpt lat="-38.260670" lon="175.110572"></trkpt>
      <trkpt lat="-38.260670" lon="175.110572"></trkpt>
      <trkpt lat="-38.260670" lon="175.110572"></trkpt>
      <trkpt lat="-38.260670" lon="175.110572"></trkpt>
      <trkpt lat="-38.266080" lon="175.138034"></trkpt>
      <trkpt lat="-38.248759" lon="175.161677"></trkpt>
      <trkpt lat="-38.252179" lon="175.180770"></trkpt>
      <trkpt lat="-38.184097" lon="175.212714"></trkpt>
      <trkpt lat="-38.176374" lon="175.248904"></trkpt>
      <trkpt lat="-38.160306" lon="175.270094"></trkpt>
      <trkpt lat="-38.161401" lon="175.293722"></trkpt>
      <trkpt lat="-38.145948" lon="175.306362"></trkpt>
      <trkpt lat="-38.139508" lon="175.321490"></trkpt>
      <trkpt lat="-38.124813" lon="175.326594"></trkpt>
      <trkpt lat="-38.113133" lon="175.346037"></trkpt>
      <trkpt lat="-38.103377" lon="175.351072"></trkpt>
      <trkpt lat="-38.076377" lon="175.340378"></trkpt>
      <trkpt lat="-38.035934" lon="175.345003"></trkpt>
      <trkpt lat="-38.025480" lon="175.334207"></trkpt>
      <trkpt lat="-38.001962" lon="175.390394"></trkpt>
      <trkpt lat="-37.973811" lon="175.426289"></trkpt>
      <trkpt lat="-37.955330" lon="175.435441"></trkpt>
      <trkpt lat="-37.927938" lon="175.430527"></trkpt>
      <trkpt lat="-37.914343" lon="175.449188"></trkpt>
      <trkpt lat="-37.901500" lon="175.452555"></trkpt>
      <trkpt lat="-37.900647" lon="175.477959"></trkpt>
      <trkpt lat="-37.894233" lon="175.481423"></trkpt>
      <trkpt lat="-37.895049" lon="175.505575"></trkpt>
      <trkpt lat="-37.906571" lon="175.524822"></trkpt>
      <trkpt lat="-37.916328" lon="175.554272"></trkpt>
      <trkpt lat="-37.945435" lon="175.587737"></trkpt>
      <trkpt lat="-37.952093" lon="175.626282"></trkpt>
      <trkpt lat="-37.947018" lon="175.655284"></trkpt>
      <trkpt lat="-37.940616" lon="175.669420"></trkpt>
      <trkpt lat="-37.889273" lon="175.712387"></trkpt>
      <trkpt lat="-37.883466" lon="175.732497"></trkpt>
      <trkpt lat="-37.863766" lon="175.753878"></trkpt>
      <trkpt lat="-37.821993" lon="175.771030"></trkpt>
      <trkpt lat="-37.811667" lon="175.770595"></trkpt>
      <trkpt lat="-37.810884" lon="175.763536"></trkpt>
      <trkpt lat="-37.810884" lon="175.763536"></trkpt>
      <trkpt lat="-37.806796" lon="175.766192"></trkpt>
      <trkpt lat="-37.822625" lon="175.804847"></trkpt>
      <trkpt lat="-37.834130" lon="175.822349"></trkpt>
      <trkpt lat="-37.839815" lon="175.825489"></trkpt>
      <trkpt lat="-37.844209" lon="175.837315"></trkpt>
      <trkpt lat="-37.850746" lon="175.839279"></trkpt>
      <trkpt lat="-37.853498" lon="175.856200"></trkpt>
      <trkpt lat="-37.852639" lon="175.864389"></trkpt>
      <trkpt lat="-37.858422" lon="175.873474"></trkpt>
      <trkpt lat="-37.877731" lon="175.887270"></trkpt>
      <trkpt lat="-37.883247" lon="175.896630"></trkpt>
      <trkpt lat="-37.879918" lon="175.912922"></trkpt>
      <trkpt lat="-37.881940" lon="175.915453"></trkpt>
      <trkpt lat="-37.879585" lon="175.918478"></trkpt>
      <trkpt lat="-37.881230" lon="175.921113"></trkpt>
      <trkpt lat="-37.878995" lon="175.922725"></trkpt>
      <trkpt lat="-37.878613" lon="175.928371"></trkpt>
      <trkpt lat="-37.873661" lon="175.927112"></trkpt>
      <trkpt lat="-37.871342" lon="175.929649"></trkpt>
      <trkpt lat="-37.867921" lon="175.940184"></trkpt>
      <trkpt lat="-37.861611" lon="175.945772"></trkpt>
      <trkpt lat="-37.860426" lon="175.953145"></trkpt>
      <trkpt lat="-37.850871" lon="175.959600"></trkpt>
      <trkpt lat="-37.831727" lon="175.982912"></trkpt>
      <trkpt lat="-37.829181" lon="175.991360"></trkpt>
      <trkpt lat="-37.824548" lon="175.995429"></trkpt>
      <trkpt lat="-37.816421" lon="176.018789"></trkpt>
      <trkpt lat="-37.806144" lon="176.035254"></trkpt>
      <trkpt lat="-37.794689" lon="176.047158"></trkpt>
      <trkpt lat="-37.780784" lon="176.051347"></trkpt>
      <trkpt lat="-37.775706" lon="176.058087"></trkpt>
      <trkpt lat="-37.770042" lon="176.059470"></trkpt>
      <trkpt lat="-37.759887" lon="176.073425"></trkpt>
      <trkpt lat="-37.754070" lon="176.075913"></trkpt>
      <trkpt lat="-37.758504" lon="176.080490"></trkpt>
      <trkpt lat="-37.761678" lon="176.095895"></trkpt>
      <trkpt lat="-37.752804" lon="176.099500"></trkpt>
      <trkpt lat="-37.753565" lon="176.103022"></trkpt>
      <trkpt lat="-37.762438" lon="176.105096"></trkpt>
      <trkpt lat="-37.768356" lon="176.116122"></trkpt>
      <trkpt lat="-37.780793" lon="176.116711"></trkpt>
      <trkpt lat="-37.794976" lon="176.122460"></trkpt>
      <trkpt lat="-37.808927" lon="176.122795"></trkpt>
      <trkpt lat="-37.821944" lon="176.128022"></trkpt>
      <trkpt lat="-37.829333" lon="176.125984"></trkpt>
      <trkpt lat="-37.831585" lon="176.122341"></trkpt>
      <trkpt lat="-37.840729" lon="176.122044"></trkpt>
      <trkpt lat="-37.848424" lon="176.118489"></trkpt>
      <trkpt lat="-37.866033" lon="176.128393"></trkpt>
      <trkpt lat="-37.869475" lon="176.133235"></trkpt>
      <trkpt lat="-37.871065" lon="176.143208"></trkpt>
      <trkpt lat="-37.881156" lon="176.150851"></trkpt>
      <trkpt lat="-37.891244" lon="176.150090"></trkpt>
      <trkpt lat="-37.910943" lon="176.154554"></trkpt>
      <trkpt lat="-37.917277" lon="176.150708"></trkpt>
      <trkpt lat="-37.921921" lon="176.157044"></trkpt>
      <trkpt lat="-37.936877" lon="176.150631"></trkpt>
      <trkpt lat="-37.947607" lon="176.152745"></trkpt>
      <trkpt lat="-37.946169" lon="176.151332"></trkpt>
      <trkpt lat="-37.947366" lon="176.142782"></trkpt>
      <trkpt lat="-37.943501" lon="176.145461"></trkpt>
      <trkpt lat="-37.943501" lon="176.145461"></trkpt>
      <trkpt lat="-37.943501" lon="176.145461"></trkpt>
      <trkpt lat="-37.943501" lon="176.145461"></trkpt>
      <trkpt lat="-37.947607" lon="176.152745"></trkpt>
      <trkpt lat="-37.921921" lon="176.157044"></trkpt>
      <trkpt lat="-37.881156" lon="176.150851"></trkpt>
      <trkpt lat="-37.848424" lon="176.118489"></trkpt>
      <trkpt lat="-37.821944" lon="176.128022"></trkpt>
      <trkpt lat="-37.768814" lon="176.116003"></trkpt>
      <trkpt lat="-37.753814" lon="176.102555"></trkpt>
      <trkpt lat="-37.762008" lon="176.096303"></trkpt>
      <trkpt lat="-37.754597" lon="176.076148"></trkpt>
      <trkpt lat="-37.805970" lon="176.035466"></trkpt>
      <trkpt lat="-37.831873" lon="175.982691"></trkpt>
      <trkpt lat="-37.878854" lon="175.928028"></trkpt>
      <trkpt lat="-37.883405" lon="175.896991"></trkpt>
      <trkpt lat="-37.854210" lon="175.866731"></trkpt>
      <trkpt lat="-37.821785" lon="175.869481"></trkpt>
      <trkpt lat="-37.811187" lon="175.856395"></trkpt>
      <trkpt lat="-37.779295" lon="175.848031"></trkpt>
      <trkpt lat="-37.730634" lon="175.858064"></trkpt>
      <trkpt lat="-37.714694" lon="175.849229"></trkpt>
      <trkpt lat="-37.693567" lon="175.822283"></trkpt>
      <trkpt lat="-37.660449" lon="175.813314"></trkpt>
      <trkpt lat="-37.641358" lon="175.793030"></trkpt>
      <trkpt lat="-37.582243" lon="175.764535"></trkpt>
      <trkpt lat="-37.542882" lon="175.711951"></trkpt>
      <trkpt lat="-37.508575" lon="175.697969"></trkpt>
      <trkpt lat="-37.465077" lon="175.654146"></trkpt>
      <trkpt lat="-37.437569" lon="175.643324"></trkpt>
      <trkpt lat="-37.440732" lon="175.629003"></trkpt>
      <trkpt lat="-37.416567" lon="175.615171"></trkpt>
      <trkpt lat="-37.305508" lon="175.610662"></trkpt>
      <trkpt lat="-37.285721" lon="175.589993"></trkpt>
      <trkpt lat="-37.207928" lon="175.552147"></trkpt>
      <trkpt lat="-37.193840" lon="175.554223"></trkpt>
      <trkpt lat="-37.187185" lon="175.572373"></trkpt>
      <trkpt lat="-37.147954" lon="175.549088"></trkpt>
      <trkpt lat="-37.158766" lon="175.586661"></trkpt>
      <trkpt lat="-37.158766" lon="175.586661"></trkpt>
      <trkpt lat="-37.158766" lon="175.586661"></trkpt>
      <trkpt lat="-37.158766" lon="175.586661"></trkpt>
      <trkpt lat="-37.147854" lon="175.549225"></trkpt>
      <trkpt lat="-37.188903" lon="175.571934"></trkpt>
      <trkpt lat="-37.219478" lon="175.505063"></trkpt>
      <trkpt lat="-37.218646" lon="175.465298"></trkpt>
      <trkpt lat="-37.235744" lon="175.392953"></trkpt>
      <trkpt lat="-37.270846" lon="175.353304"></trkpt>
      <trkpt lat="-37.286995" lon="175.316652"></trkpt>
      <trkpt lat="-37.253821" lon="175.246482"></trkpt>
      <trkpt lat="-37.245133" lon="175.176618"></trkpt>
      <trkpt lat="-37.221349" lon="175.139895"></trkpt>
      <trkpt lat="-37.211512" lon="175.078235"></trkpt>
      <trkpt lat="-37.230888" lon="175.016102"></trkpt>
      <trkpt lat="-37.220369" lon="175.001553"></trkpt>
      <trkpt lat="-37.191392" lon="174.982096"></trkpt>
      <trkpt lat="-37.165637" lon="174.983547"></trkpt>
      <trkpt lat="-37.040933" lon="174.910510"></trkpt>
      <trkpt lat="-37.019937" lon="174.909465"></trkpt>
      <trkpt lat="-36.960002" lon="174.863026"></trkpt>
      <trkpt lat="-36.923260" lon="174.847328"></trkpt>
      <trkpt lat="-36.913761" lon="174.824097"></trkpt>
      <trkpt lat="-36.838468" lon="174.741750"></trkpt>
      <trkpt lat="-36.798854" lon="174.761064"></trkpt>
      <trkpt lat="-36.743934" lon="174.720910"></trkpt>
      <trkpt lat="-36.686370" lon="174.701284"></trkpt>
      <trkpt lat="-36.654152" lon="174.664119"></trkpt>
      <trkpt lat="-36.609175" lon="174.660053"></trkpt>
      <trkpt lat="-36.538444" lon="174.680944"></trkpt>
      <trkpt lat="-36.505314" lon="174.668248"></trkpt>
      <trkpt lat="-36.468451" lon="174.634042"></trkpt>
      <trkpt lat="-36.405368" lon="174.629597"></trkpt>
      <trkpt lat="-36.388264" lon="174.642127"></trkpt>
      <trkpt lat="-36.368829" lon="174.625113"></trkpt>
      <trkpt lat="-36.348481" lon="174.589934"></trkpt>
      <trkpt lat="-36.343126" lon="174.560146"></trkpt>
      <trkpt lat="-36.329252" lon="174.546462"></trkpt>
      <trkpt lat="-36.293408" lon="174.568368"></trkpt>
      <trkpt lat="-36.273144" lon="174.560095"></trkpt>
      <trkpt lat="-36.251820" lon="174.577752"></trkpt>
      <trkpt lat="-36.226550" lon="174.573884"></trkpt>
      <trkpt lat="-36.214980" lon="174.587240"></trkpt>
      <trkpt lat="-36.197819" lon="174.577933"></trkpt>
      <trkpt lat="-36.197819" lon="174.577933"></trkpt>
      <trkpt lat="-36.218541" lon="174.583560"></trkpt>
      <trkpt lat="-36.236529" lon="174.513619"></trkpt>
      <trkpt lat="-36.228644" lon="174.489481"></trkpt>
      <trkpt lat="-36.212708" lon="174.479300"></trkpt>
      <trkpt lat="-36.212624" lon="174.463671"></trkpt>
      <trkpt lat="-36.198982" lon="174.463572"></trkpt>
      <trkpt lat="-36.190313" lon="174.450869"></trkpt>
      <trkpt lat="-36.134471" lon="174.429693"></trkpt>
      <trkpt lat="-36.118827" lon="174.435801"></trkpt>
      <trkpt lat="-36.086839" lon="174.431046"></trkpt>
      <trkpt lat="-36.072272" lon="174.418432"></trkpt>
      <trkpt lat="-36.058858" lon="174.426917"></trkpt>
      <trkpt lat="-36.049089" lon="174.416266"></trkpt>
      <trkpt lat="-36.003027" lon="174.414382"></trkpt>
      <trkpt lat="-35.955192" lon="174.451792"></trkpt>
      <trkpt lat="-35.917323" lon="174.452443"></trkpt>
      <trkpt lat="-35.899076" lon="174.442603"></trkpt>
      <trkpt lat="-35.859639" lon="174.390311"></trkpt>
      <trkpt lat="-35.851522" lon="174.352261"></trkpt>
      <trkpt lat="-35.815838" lon="174.297208"></trkpt>
      <trkpt lat="-35.798688" lon="174.291616"></trkpt>
      <trkpt lat="-35.776550" lon="174.310926"></trkpt>
      <trkpt lat="-35.744892" lon="174.306098"></trkpt>
      <trkpt lat="-35.713327" lon="174.316463"></trkpt>
      <trkpt lat="-35.660555" lon="174.293555"></trkpt>
      <trkpt lat="-35.542421" lon="174.278269"></trkpt>
      <trkpt lat="-35.538204" lon="174.234901"></trkpt>
      <trkpt lat="-35.500112" lon="174.173536"></trkpt>
      <trkpt lat="-35.475141" lon="174.099416"></trkpt>
      <trkpt lat="-35.429354" lon="174.071206"></trkpt>
      <trkpt lat="-35.380832" lon="174.071688"></trkpt>
      <trkpt lat="-35.372155" lon="174.059823"></trkpt>
      <trkpt lat="-35.390375" lon="173.998675"></trkpt>
      <trkpt lat="-35.357323" lon="173.956710"></trkpt>
      <trkpt lat="-35.344688" lon="173.958002"></trkpt>
      <trkpt lat="-35.326065" lon="173.980311"></trkpt>
      <trkpt lat="-35.234151" lon="173.915910"></trkpt>
      <trkpt lat="-35.209126" lon="173.920117"></trkpt>
      <trkpt lat="-35.122187" lon="173.871163"></trkpt>
      <trkpt lat="-35.128465" lon="173.823981"></trkpt>
      <trkpt lat="-35.082221" lon="173.762019"></trkpt>
      <trkpt lat="-35.084614" lon="173.720275"></trkpt>
      <trkpt lat="-35.062819" lon="173.709942"></trkpt>
      <trkpt lat="-35.043287" lon="173.657582"></trkpt>
      <trkpt lat="-35.018505" lon="173.646056"></trkpt>
      <trkpt lat="-35.015027" lon="173.625038"></trkpt>
      <trkpt lat="-35.000172" lon="173.616057"></trkpt>
      <trkpt lat="-35.011658" lon="173.544125"></trkpt>
      <trkpt lat="-34.990519" lon="173.521719"></trkpt>
      <trkpt lat="-34.990112" lon="173.479387"></trkpt>
      <trkpt lat="-34.997699" lon="173.469926"></trkpt>
      <trkpt lat="-34.984664" lon="173.380137"></trkpt>
      <trkpt lat="-34.898073" lon="173.347953"></trkpt>
      <trkpt lat="-34.865663" lon="173.383931"></trkpt>
      <trkpt lat="-34.828775" lon="173.401618"></trkpt>
      <trkpt lat="-34.829071" lon="173.410915"></trkpt>
      <trkpt lat="-34.829071" lon="173.410915"></trkpt>
      <trkpt lat="-34.829071" lon="173.410915"></trkpt>
      <trkpt lat="-34.829071" lon="173.410915"></trkpt>
      <trkpt lat="-34.828775" lon="173.401618"></trkpt>
      <trkpt lat="-34.848173" lon="173.396661"></trkpt>
      <trkpt lat="-34.865663" lon="173.383931"></trkpt>
      <trkpt lat="-34.869971" lon="173.379315"></trkpt>
      <trkpt lat="-34.869380" lon="173.370583"></trkpt>
      <trkpt lat="-34.880430" lon="173.361865"></trkpt>
      <trkpt lat="-34.886813" lon="173.361336"></trkpt>
      <trkpt lat="-34.898073" lon="173.347953"></trkpt>
      <trkpt lat="-34.939855" lon="173.361301"></trkpt>
      <trkpt lat="-34.944253" lon="173.363711"></trkpt>
      <trkpt lat="-34.946165" lon="173.369006"></trkpt>
      <trkpt lat="-34.962982" lon="173.379188"></trkpt>
      <trkpt lat="-34.984664" lon="173.380137"></trkpt>
      <trkpt lat="-35.001253" lon="173.343987"></trkpt>
      <trkpt lat="-35.018978" lon="173.328712"></trkpt>
      <trkpt lat="-35.025980" lon="173.329119"></trkpt>
      <trkpt lat="-35.029510" lon="173.323765"></trkpt>
      <trkpt lat="-35.029992" lon="173.317163"></trkpt>
      <trkpt lat="-35.036809" lon="173.312022"></trkpt>
      <trkpt lat="-35.042269" lon="173.294877"></trkpt>
      <trkpt lat="-35.046366" lon="173.256366"></trkpt>
      <trkpt lat="-35.052597" lon="173.258457"></trkpt>
      <trkpt lat="-35.094594" lon="173.256734"></trkpt>
      <trkpt lat="-35.099273" lon="173.259846"></trkpt>
      <trkpt lat="-35.103341" lon="173.259120"></trkpt>
      <trkpt lat="-35.104119" lon="173.261886"></trkpt>
      <trkpt lat="-35.104119" lon="173.261886"></trkpt>
      <trkpt lat="-35.094594" lon="173.256734"></trkpt>
      <trkpt lat="-35.052597" lon="173.258457"></trkpt>
      <trkpt lat="-35.030432" lon="173.253663"></trkpt>
      <trkpt lat="-35.026134" lon="173.249705"></trkpt>
      <trkpt lat="-35.021546" lon="173.217696"></trkpt>
      <trkpt lat="-35.002117" lon="173.190897"></trkpt>
      <trkpt lat="-34.958966" lon="173.194178"></trkpt>
      <trkpt lat="-34.951859" lon="173.186339"></trkpt>
      <trkpt lat="-34.941413" lon="173.190152"></trkpt>
      <trkpt lat="-34.933729" lon="173.185986"></trkpt>
      <trkpt lat="-34.925268" lon="173.190077"></trkpt>
      <trkpt lat="-34.898888" lon="173.174808"></trkpt>
      <trkpt lat="-34.886091" lon="173.157523"></trkpt>
      <trkpt lat="-34.860231" lon="173.141884"></trkpt>
      <trkpt lat="-34.841899" lon="173.137993"></trkpt>
      <trkpt lat="-34.805076" lon="173.114573"></trkpt>
      <trkpt lat="-34.794988" lon="173.102180"></trkpt>
      <trkpt lat="-34.772965" lon="173.090050"></trkpt>
      <trkpt lat="-34.767788" lon="173.076716"></trkpt>
      <trkpt lat="-34.758885" lon="173.075500"></trkpt>
      <trkpt lat="-34.745321" lon="173.048013"></trkpt>
      <trkpt lat="-34.718943" lon="173.041112"></trkpt>
      <trkpt lat="-34.694007" lon="173.023017"></trkpt>
      <trkpt lat="-34.673798" lon="172.998521"></trkpt>
      <trkpt lat="-34.662969" lon="172.968723"></trkpt>
      <trkpt lat="-34.629048" lon="172.970517"></trkpt>
      <trkpt lat="-34.625485" lon="172.962856"></trkpt>
      <trkpt lat="-34.607635" lon="172.953706"></trkpt>
      <trkpt lat="-34.590953" lon="172.925915"></trkpt>
      <trkpt lat="-34.593828" lon="172.913650"></trkpt>
      <trkpt lat="-34.591028" lon="172.903957"></trkpt>
      <trkpt lat="-34.581053" lon="172.894163"></trkpt>
      <trkpt lat="-34.569242" lon="172.898720"></trkpt>
      <trkpt lat="-34.568273" lon="172.880103"></trkpt>
      <trkpt lat="-34.553523" lon="172.870986"></trkpt>
      <trkpt lat="-34.530074" lon="172.838732"></trkpt>
      <trkpt lat="-34.520284" lon="172.836653"></trkpt>
      <trkpt lat="-34.515903" lon="172.840611"></trkpt>
      <trkpt lat="-34.516360" lon="172.850660"></trkpt>
      <trkpt lat="-34.504911" lon="172.850463"></trkpt>
      <trkpt lat="-34.501284" lon="172.870601"></trkpt>
      <trkpt lat="-34.494760" lon="172.878430"></trkpt>
      <trkpt lat="-34.494142" lon="172.873589"></trkpt>
      <trkpt lat="-34.485732" lon="172.877241"></trkpt>
      <trkpt lat="-34.475093" lon="172.873458"></trkpt>
      <trkpt lat="-34.452540" lon="172.878370"></trkpt>
      <trkpt lat="-34.443638" lon="172.873867"></trkpt>
      <trkpt lat="-34.438789" lon="172.863576"></trkpt>
      <trkpt lat="-34.428770" lon="172.865080"></trkpt>
      <trkpt lat="-34.428507" lon="172.860149"></trkpt>
      <trkpt lat="-34.428507" lon="172.860149"></trkpt>
      <trkpt lat="-34.452540" lon="172.878370"></trkpt>
      <trkpt lat="-34.494760" lon="172.878430"></trkpt>
      <trkpt lat="-34.504911" lon="172.850463"></trkpt>
      <trkpt lat="-34.530074" lon="172.838732"></trkpt>
      <trkpt lat="-34.568273" lon="172.880103"></trkpt>
      <trkpt lat="-34.569242" lon="172.898720"></trkpt>
      <trkpt lat="-34.581053" lon="172.894163"></trkpt>
      <trkpt lat="-34.591028" lon="172.903957"></trkpt>
      <trkpt lat="-34.590953" lon="172.925915"></trkpt>
      <trkpt lat="-34.607635" lon="172.953706"></trkpt>
      <trkpt lat="-34.629048" lon="172.970517"></trkpt>
      <trkpt lat="-34.662969" lon="172.968723"></trkpt>
      <trkpt lat="-34.694007" lon="173.023017"></trkpt>
      <trkpt lat="-34.745321" lon="173.048013"></trkpt>
      <trkpt lat="-34.758885" lon="173.075500"></trkpt>
      <trkpt lat="-34.805076" lon="173.114573"></trkpt>
      <trkpt lat="-34.886091" lon="173.157523"></trkpt>
      <trkpt lat="-34.925268" lon="173.190077"></trkpt>
      <trkpt lat="-35.002117" lon="173.190897"></trkpt>
      <trkpt lat="-35.021546" lon="173.217696"></trkpt>
      <trkpt lat="-35.030432" lon="173.253663"></trkpt>
      <trkpt lat="-35.094777" lon="173.256757"></trkpt>
      <trkpt lat="-35.120723" lon="173.269867"></trkpt>
      <trkpt lat="-35.126262" lon="173.295887"></trkpt>
      <trkpt lat="-35.119202" lon="173.330468"></trkpt>
      <trkpt lat="-35.141980" lon="173.366156"></trkpt>
      <trkpt lat="-35.158910" lon="173.428051"></trkpt>
      <trkpt lat="-35.189595" lon="173.456019"></trkpt>
      <trkpt lat="-35.180546" lon="173.473204"></trkpt>
      <trkpt lat="-35.204863" lon="173.504113"></trkpt>
      <trkpt lat="-35.210047" lon="173.540450"></trkpt>
      <trkpt lat="-35.245570" lon="173.546293"></trkpt>
      <trkpt lat="-35.301358" lon="173.590866"></trkpt>
      <trkpt lat="-35.294064" lon="173.617649"></trkpt>
      <trkpt lat="-35.306812" lon="173.645771"></trkpt>
      <trkpt lat="-35.292653" lon="173.666383"></trkpt>
      <trkpt lat="-35.288107" lon="173.721706"></trkpt>
      <trkpt lat="-35.320133" lon="173.762449"></trkpt>
      <trkpt lat="-35.319175" lon="173.799537"></trkpt>
      <trkpt lat="-35.337613" lon="173.828143"></trkpt>
      <trkpt lat="-35.402788" lon="173.808301"></trkpt>
      <trkpt lat="-35.456395" lon="173.744844"></trkpt>
      <trkpt lat="-35.464716" lon="173.677088"></trkpt>
      <trkpt lat="-35.459535" lon="173.649023"></trkpt>
      <trkpt lat="-35.494579" lon="173.601611"></trkpt>
      <trkpt lat="-35.484913" lon="173.568002"></trkpt>
      <trkpt lat="-35.459176" lon="173.530737"></trkpt>
      <trkpt lat="-35.444438" lon="173.528195"></trkpt>
      <trkpt lat="-35.444438" lon="173.528195"></trkpt>
      <trkpt lat="-35.459176" lon="173.530737"></trkpt>
      <trkpt lat="-35.484913" lon="173.568002"></trkpt>
      <trkpt lat="-35.494594" lon="173.602408"></trkpt>
      <trkpt lat="-35.459535" lon="173.649023"></trkpt>
      <trkpt lat="-35.464716" lon="173.677088"></trkpt>
      <trkpt lat="-35.456174" lon="173.745389"></trkpt>
      <trkpt lat="-35.405967" lon="173.803203"></trkpt>
      <trkpt lat="-35.455900" lon="173.822132"></trkpt>
      <trkpt lat="-35.475190" lon="173.840658"></trkpt>
      <trkpt lat="-35.553197" lon="173.829798"></trkpt>
      <trkpt lat="-35.614260" lon="173.841431"></trkpt>
      <trkpt lat="-35.639868" lon="173.852021"></trkpt>
      <trkpt lat="-35.658745" lon="173.880542"></trkpt>
      <trkpt lat="-35.684153" lon="173.893693"></trkpt>
      <trkpt lat="-35.714592" lon="173.947589"></trkpt>
      <trkpt lat="-35.704736" lon="174.014339"></trkpt>
      <trkpt lat="-35.734562" lon="174.049675"></trkpt>
      <trkpt lat="-35.728821" lon="174.112877"></trkpt>
      <trkpt lat="-35.755723" lon="174.178813"></trkpt>
      <trkpt lat="-35.755743" lon="174.211256"></trkpt>
      <trkpt lat="-35.774041" lon="174.246303"></trkpt>
      <trkpt lat="-35.780478" lon="174.308075"></trkpt>
      <trkpt lat="-35.798325" lon="174.291684"></trkpt>
      <trkpt lat="-35.817056" lon="174.298040"></trkpt>
      <trkpt lat="-35.851522" lon="174.352261"></trkpt>
      <trkpt lat="-35.859639" lon="174.390311"></trkpt>
      <trkpt lat="-35.914618" lon="174.451545"></trkpt>
      <trkpt lat="-35.946830" lon="174.454832"></trkpt>
      <trkpt lat="-36.002106" lon="174.414548"></trkpt>
      <trkpt lat="-36.033607" lon="174.414933"></trkpt>
      <trkpt lat="-36.058858" lon="174.426917"></trkpt>
      <trkpt lat="-36.075261" lon="174.419121"></trkpt>
      <trkpt lat="-36.099289" lon="174.433143"></trkpt>
      <trkpt lat="-36.137077" lon="174.430315"></trkpt>
      <trkpt lat="-36.212010" lon="174.463114"></trkpt>
      <trkpt lat="-36.212708" lon="174.479300"></trkpt>
      <trkpt lat="-36.228557" lon="174.489363"></trkpt>
      <trkpt lat="-36.236147" lon="174.511128"></trkpt>
      <trkpt lat="-36.234590" lon="174.532553"></trkpt>
      <trkpt lat="-36.217084" lon="174.585895"></trkpt>
      <trkpt lat="-36.197819" lon="174.577933"></trkpt>
      <trkpt lat="-36.197819" lon="174.577933"></trkpt>
      <trkpt lat="-36.214980" lon="174.587240"></trkpt>
      <trkpt lat="-36.226449" lon="174.573920"></trkpt>
      <trkpt lat="-36.251727" lon="174.577780"></trkpt>
      <trkpt lat="-36.273144" lon="174.560095"></trkpt>
      <trkpt lat="-36.278116" lon="174.566071"></trkpt>
      <trkpt lat="-36.288769" lon="174.564193"></trkpt>
      <trkpt lat="-36.293408" lon="174.568368"></trkpt>
      <trkpt lat="-36.300730" lon="174.558247"></trkpt>
      <trkpt lat="-36.329174" lon="174.546513"></trkpt>
      <trkpt lat="-36.343126" lon="174.560146"></trkpt>
      <trkpt lat="-36.344284" lon="174.570245"></trkpt>
      <trkpt lat="-36.350029" lon="174.573925"></trkpt>
      <trkpt lat="-36.348481" lon="174.589934"></trkpt>
      <trkpt lat="-36.368102" lon="174.614404"></trkpt>
      <trkpt lat="-36.368829" lon="174.625113"></trkpt>
      <trkpt lat="-36.388504" lon="174.642965"></trkpt>
      <trkpt lat="-36.405368" lon="174.629749"></trkpt>
      <trkpt lat="-36.424706" lon="174.636260"></trkpt>
      <trkpt lat="-36.469231" lon="174.634412"></trkpt>
      <trkpt lat="-36.505480" lon="174.668516"></trkpt>
      <trkpt lat="-36.515933" lon="174.668843"></trkpt>
      <trkpt lat="-36.537391" lon="174.681069"></trkpt>
      <trkpt lat="-36.558854" lon="174.680845"></trkpt>
      <trkpt lat="-36.579082" lon="174.666169"></trkpt>
      <trkpt lat="-36.608837" lon="174.660253"></trkpt>
      <trkpt lat="-36.651025" lon="174.663232"></trkpt>
      <trkpt lat="-36.676486" lon="174.685825"></trkpt>
      <trkpt lat="-36.686363" lon="174.701446"></trkpt>
      <trkpt lat="-36.743468" lon="174.720894"></trkpt>
      <trkpt lat="-36.798376" lon="174.760996"></trkpt>
      <trkpt lat="-36.837484" lon="174.741640"></trkpt>
      <trkpt lat="-36.848423" lon="174.763334"></trkpt>
    </trkseg>
  </trk>
</gpx>