<?xml version="1.0" encoding="UTF-8"?>
<kml xmlns="http://www.opengis.net/kml/2.2">
  <Document>
    <name>NZ27 Route</name>
    <description>Routen-Etappen (echte Straßen via OSRM; Fähre = gerade Linie).</description>
    <Style id="rt"><LineStyle><color>ff800080</color><width>3</width></LineStyle></Style>
      <Placemark>
        <name>T1-T2</name>
        <styleUrl>#rt</styleUrl>
        <LineString><tessellate>1</tessellate><coordinates>172.736370,-43.529841,0 172.732568,-43.523209,0 172.720869,-43.525721,0 172.707060,-43.534370,0 172.692470,-43.549912,0 172.688411,-43.550466,0 172.681643,-43.556668,0 172.670588,-43.555480,0 172.657523,-43.548610,0 172.642660,-43.547512,0 172.639878,-43.550246,0 172.631153,-43.551788,0 172.613245,-43.563603,0 172.590489,-43.570270,0 172.579264,-43.582428,0 172.570764,-43.585383,0 172.559698,-43.601026,0 172.551942,-43.654287,0 172.548072,-43.661171,0 172.551666,-43.667557,0 172.549693,-43.674424,0 172.560139,-43.690082,0 172.559267,-43.694454,0 172.567710,-43.699781,0 172.564831,-43.711458,0 172.571486,-43.713323,0 172.574720,-43.718260,0 172.589117,-43.727500,0 172.593185,-43.727276,0 172.597334,-43.722329,0 172.612511,-43.731201,0 172.610285,-43.744755,0 172.618765,-43.755470,0 172.632713,-43.760959,0 172.641929,-43.768873,0 172.644394,-43.776172,0 172.655755,-43.774401,0 172.659943,-43.785576,0 172.664822,-43.789352,0 172.664465,-43.794664,0 172.680244,-43.791801,0 172.687943,-43.795148,0 172.692853,-43.811463,0 172.698471,-43.815218,0 172.722846,-43.807760,0 172.738419,-43.797097,0 172.746443,-43.796184,0 172.756448,-43.789944,0 172.770654,-43.786896,0 172.781711,-43.777271,0 172.788095,-43.774707,0 172.792752,-43.767474,0 172.799323,-43.763310,0 172.811664,-43.759849,0 172.819662,-43.751297,0 172.823489,-43.754035,0 172.824866,-43.752654,0 172.828041,-43.754241,0 172.838022,-43.748963,0 172.851915,-43.753707,0 172.855636,-43.757905,0 172.862972,-43.749940,0 172.877821,-43.742605,0 172.883288,-43.743975,0 172.896635,-43.739332,0 172.902940,-43.741017,0 172.907938,-43.745796,0 172.909890,-43.752228,0 172.918376,-43.749819,0 172.922079,-43.752296,0 172.934736,-43.750430,0 172.945669,-43.754336,0 172.947425,-43.760544,0 172.961365,-43.762764,0 172.963335,-43.765342,0 172.958692,-43.772488,0 172.969330,-43.779054,0 172.972206,-43.790358,0 172.967789,-43.804301,0</coordinates></LineString>
      </Placemark>
      <Placemark>
        <name>T2-T3</name>
        <styleUrl>#rt</styleUrl>
        <LineString><tessellate>1</tessellate><coordinates>172.967789,-43.804301,0 172.961365,-43.762764,0 172.896635,-43.739332,0 172.855636,-43.757905,0 172.819662,-43.751297,0 172.698471,-43.815218,0 172.618765,-43.755470,0 172.612511,-43.731201,0 172.564930,-43.711565,0 172.554179,-43.680788,0 172.515061,-43.670200,0 172.485014,-43.698386,0 172.414813,-43.694346,0 172.377406,-43.638642,0 172.331539,-43.638571,0 172.314630,-43.615320,0 172.089952,-43.699413,0 172.019249,-43.764953,0 171.847582,-43.838631,0 171.554527,-44.010607,0 171.418214,-44.045471,0 171.324585,-44.094370,0 171.279022,-44.182638,0 171.277277,-44.251652,0 171.236445,-44.342768,0 171.249604,-44.410617,0 171.147875,-44.597018,0 171.135228,-44.693241,0 171.076660,-44.834187,0 171.098212,-44.936065,0 170.971117,-45.097485,0 170.918153,-45.108624,0 170.916841,-45.160686,0 170.881621,-45.206368,0</coordinates></LineString>
      </Placemark>
      <Placemark>
        <name>T3-T4</name>
        <styleUrl>#rt</styleUrl>
        <LineString><tessellate>1</tessellate><coordinates>170.881621,-45.206368,0 170.881621,-45.206368,0</coordinates></LineString>
      </Placemark>
      <Placemark>
        <name>T4-T5</name>
        <styleUrl>#rt</styleUrl>
        <LineString><tessellate>1</tessellate><coordinates>170.881621,-45.206368,0 170.885740,-45.216753,0 170.864981,-45.232454,0 170.860141,-45.248278,0 170.796925,-45.256510,0 170.815658,-45.296609,0 170.828081,-45.384302,0 170.839345,-45.398052,0 170.818253,-45.423991,0 170.808717,-45.459123,0 170.766735,-45.479708,0 170.723420,-45.480250,0 170.702174,-45.492147,0 170.704114,-45.544972,0 170.689749,-45.580339,0 170.652290,-45.600878,0 170.640776,-45.616950,0 170.596713,-45.635566,0 170.570825,-45.673152,0 170.568785,-45.746659,0 170.551770,-45.785739,0 170.514706,-45.801389,0 170.517709,-45.824864,0 170.504055,-45.834401,0 170.516326,-45.839657,0 170.508722,-45.851191,0 170.516441,-45.856874,0 170.505944,-45.886422,0 170.529103,-45.893019,0 170.555072,-45.883347,0 170.635224,-45.877207,0 170.643675,-45.846775,0 170.672919,-45.832344,0 170.675186,-45.815523,0</coordinates></LineString>
      </Placemark>
      <Placemark>
        <name>T5-T6</name>
        <styleUrl>#rt</styleUrl>
        <LineString><tessellate>1</tessellate><coordinates>170.675186,-45.815523,0 170.675186,-45.815523,0</coordinates></LineString>
      </Placemark>
      <Placemark>
        <name>T6-T7</name>
        <styleUrl>#rt</styleUrl>
        <LineString><tessellate>1</tessellate><coordinates>170.675186,-45.815523,0 170.672919,-45.832344,0 170.643675,-45.846775,0 170.634988,-45.877291,0 170.554951,-45.883367,0 170.512473,-45.898757,0 170.500032,-45.888750,0 170.449529,-45.902030,0 170.379148,-45.901534,0 170.354311,-45.890161,0 170.269986,-45.915747,0 170.132290,-45.989117,0 170.126270,-46.002040,0 170.061952,-46.042654,0 170.036190,-46.049799,0 169.950408,-46.128451,0 169.909339,-46.133371,0 169.816370,-46.169364,0 169.770614,-46.199928,0 169.770853,-46.227328,0 169.730960,-46.241322,0 169.740548,-46.259993,0 169.718601,-46.319145,0 169.740115,-46.343812,0 169.675379,-46.384353,0 169.703626,-46.403474,0 169.677721,-46.445193,0 169.647049,-46.458063,0 169.633748,-46.476129,0 169.592481,-46.488000,0 169.571665,-46.478938,0 169.559651,-46.490062,0 169.528412,-46.487408,0 169.464067,-46.513955,0 169.477604,-46.535266,0 169.471614,-46.561578,0</coordinates></LineString>
      </Placemark>
      <Placemark>
        <name>T7-T8</name>
        <styleUrl>#rt</styleUrl>
        <LineString><tessellate>1</tessellate><coordinates>169.471614,-46.561578,0 169.477604,-46.535266,0 169.464067,-46.513955,0 169.528412,-46.487408,0 169.559459,-46.490100,0 169.571665,-46.478938,0 169.592254,-46.488024,0 169.633748,-46.476129,0 169.647049,-46.458063,0 169.677721,-46.445193,0 169.703626,-46.403474,0 169.675289,-46.384558,0 169.739922,-46.344418,0 169.718601,-46.319145,0 169.740548,-46.259993,0 169.730960,-46.241322,0 169.771103,-46.227104,0 169.773843,-46.196918,0 169.863499,-46.148068,0 169.920871,-46.130066,0 169.950408,-46.128451,0 170.036190,-46.049799,0 170.061952,-46.042654,0 170.126270,-46.002040,0 170.132098,-45.989234,0 170.269986,-45.915747,0 170.354568,-45.890103,0 170.379223,-45.901455,0 170.450507,-45.901837,0 170.495096,-45.891843,0 170.516180,-45.870198,0 170.567059,-45.861999,0 170.593920,-45.827335,0 170.618801,-45.817825,0 170.607264,-45.797353,0 170.630040,-45.783023,0 170.632567,-45.741001,0</coordinates></LineString>
      </Placemark>
      <Placemark>
        <name>T8-T9</name>
        <styleUrl>#rt</styleUrl>
        <LineString><tessellate>1</tessellate><coordinates>170.632567,-45.741001,0 170.630040,-45.783023,0 170.607264,-45.797353,0 170.618801,-45.817825,0 170.593920,-45.827335,0 170.567253,-45.861893,0 170.516180,-45.870198,0 170.495322,-45.891876,0 170.450586,-45.901908,0 170.379148,-45.901534,0 170.354311,-45.890161,0 170.269986,-45.915747,0 170.132290,-45.989117,0 170.126270,-46.002040,0 170.061952,-46.042654,0 170.036190,-46.049799,0 169.950408,-46.128451,0 169.909339,-46.133371,0 169.816370,-46.169364,0 169.770614,-46.199928,0 169.770853,-46.227328,0 169.728102,-46.242475,0 169.691422,-46.246591,0 169.596697,-46.237526,0 169.482683,-46.196353,0 169.371494,-46.203423,0 169.342772,-46.227033,0 169.313034,-46.233960,0 169.260398,-46.220290,0 169.191110,-46.219637,0 169.124702,-46.203247,0 168.893136,-46.181113,0 168.854174,-46.200637,0 168.776707,-46.309354,0 168.718773,-46.306930,0 168.643111,-46.321409,0 168.609694,-46.314686,0 168.518995,-46.371576,0 168.393753,-46.405950,0 168.406420,-46.477015,0 168.366490,-46.503410,0 168.311921,-46.523124,0 168.299501,-46.556085,0 168.306568,-46.589415,0 168.353159,-46.598409,0 168.363616,-46.614280,0 168.226720,-46.802874,0 168.151162,-46.886408,0 168.125559,-46.894049,0</coordinates></LineString>
      </Placemark>
      <Placemark>
        <name>T9-T10</name>
        <styleUrl>#rt</styleUrl>
        <LineString><tessellate>1</tessellate><coordinates>168.125559,-46.894049,0 168.125559,-46.894049,0</coordinates></LineString>
      </Placemark>
      <Placemark>
        <name>T10-T11</name>
        <styleUrl>#rt</styleUrl>
        <LineString><tessellate>1</tessellate><coordinates>168.125559,-46.894049,0 168.226720,-46.802874,0 168.363461,-46.614525,0 168.353159,-46.598409,0 168.305914,-46.588741,0 168.301534,-46.542886,0 168.391438,-46.482703,0 168.347294,-46.424242,0 168.324112,-46.128037,0 168.264665,-46.132788,0 168.166582,-46.038644,0 168.110035,-46.031521,0 168.130386,-45.836771,0 168.183142,-45.777834,0 168.198841,-45.692528,0 168.232007,-45.666960,0 168.200920,-45.658282,0 168.093779,-45.566522,0 167.790941,-45.521406,0 167.780361,-45.439054,0 167.731005,-45.422872,0 167.758798,-45.398013,0 167.822425,-45.199460,0 167.858558,-45.199008,0 167.901916,-45.143697,0 167.946093,-45.134504,0 168.011288,-45.050900,0 168.016343,-44.946763,0 168.095156,-44.883016,0</coordinates></LineString>
      </Placemark>
      <Placemark>
        <name>T11-T12</name>
        <styleUrl>#rt</styleUrl>
        <LineString><tessellate>1</tessellate><coordinates>168.095156,-44.883016,0 168.095156,-44.883016,0</coordinates></LineString>
      </Placemark>
      <Placemark>
        <name>T12-T13</name>
        <styleUrl>#rt</styleUrl>
        <LineString><tessellate>1</tessellate><coordinates>168.095156,-44.883016,0 168.095156,-44.883016,0</coordinates></LineString>
      </Placemark>
      <Placemark>
        <name>T13-T14</name>
        <styleUrl>#rt</styleUrl>
        <LineString><tessellate>1</tessellate><coordinates>168.095156,-44.883016,0 168.095156,-44.883016,0</coordinates></LineString>
      </Placemark>
      <Placemark>
        <name>T14-T15</name>
        <styleUrl>#rt</styleUrl>
        <LineString><tessellate>1</tessellate><coordinates>168.095156,-44.883016,0 168.068880,-44.906151,0 168.048049,-44.908971,0 168.016343,-44.946763,0 168.011288,-45.050900,0 167.992446,-45.063926,0 167.946093,-45.134504,0 167.901916,-45.143697,0 167.882505,-45.183985,0 167.858558,-45.199008,0 167.829250,-45.192904,0 167.822425,-45.199460,0 167.790341,-45.301974,0 167.758593,-45.360804,0 167.758798,-45.398013,0 167.734732,-45.410689,0 167.731005,-45.422872,0 167.780361,-45.439054,0 167.793119,-45.465093,0 167.780797,-45.503404,0 167.790818,-45.521346,0 167.832895,-45.522179,0 167.892760,-45.545416,0 167.969239,-45.539027,0 168.020912,-45.559673,0 168.093779,-45.566522,0 168.200920,-45.658282,0 168.241070,-45.670570,0 168.252785,-45.655647,0 168.422311,-45.612082,0 168.458649,-45.623566,0 168.479891,-45.589464,0 168.503629,-45.571441,0 168.506682,-45.556319,0 168.548178,-45.535137,0 168.555450,-45.509466,0 168.623060,-45.517592,0 168.663731,-45.494815,0 168.692600,-45.459810,0 168.703140,-45.428713,0 168.675232,-45.419772,0 168.670120,-45.395959,0 168.742610,-45.327584,0 168.765270,-45.286832,0 168.739186,-45.227090,0 168.762600,-45.116528,0 168.752718,-45.038638,0 168.733732,-45.029982,0 168.731407,-45.015769,0 168.694544,-45.026672,0</coordinates></LineString>
      </Placemark>
      <Placemark>
        <name>T15-T16</name>
        <styleUrl>#rt</styleUrl>
        <LineString><tessellate>1</tessellate><coordinates>168.694544,-45.026672,0 168.694544,-45.026672,0</coordinates></LineString>
      </Placemark>
      <Placemark>
        <name>T16-T17</name>
        <styleUrl>#rt</styleUrl>
        <LineString><tessellate>1</tessellate><coordinates>168.694544,-45.026672,0 168.694544,-45.026672,0</coordinates></LineString>
      </Placemark>
      <Placemark>
        <name>T17-T18</name>
        <styleUrl>#rt</styleUrl>
        <LineString><tessellate>1</tessellate><coordinates>168.694544,-45.026672,0 168.706142,-45.020896,0 168.714835,-45.018845,0 168.717287,-45.017027,0 168.733673,-45.015246,0 168.741206,-45.011759,0 168.757052,-45.001571,0 168.769809,-45.000785,0 168.796685,-44.994041,0 168.801142,-44.995439,0 168.804475,-44.995077,0 168.807892,-44.991505,0 168.814857,-44.987457,0 168.817763,-44.980640,0 168.816568,-44.972987,0 168.817709,-44.969258,0 168.817523,-44.956186,0 168.830614,-44.939598,0 168.829138,-44.937628,0 168.830122,-44.936433,0</coordinates></LineString>
      </Placemark>
      <Placemark>
        <name>T18-T19</name>
        <styleUrl>#rt</styleUrl>
        <LineString><tessellate>1</tessellate><coordinates>168.830122,-44.936433,0 168.849089,-44.977279,0 168.880853,-45.005938,0 169.007212,-45.037719,0 169.030020,-45.046432,0 169.033466,-45.058466,0 169.045870,-45.054078,0 169.037800,-45.033951,0 169.070848,-45.000879,0 169.138265,-45.058494,0 169.166734,-45.055067,0 169.192137,-45.033953,0 169.223129,-45.039079,0 169.241316,-44.993029,0 169.337472,-44.888602,0 169.407817,-44.837794,0 169.426737,-44.835522,0 169.450377,-44.807233,0 169.473532,-44.801909,0 169.503987,-44.811065,0 169.509101,-44.732629,0 169.502555,-44.704316,0 169.484592,-44.694995,0 169.478238,-44.675366,0 169.530423,-44.611502,0 169.619609,-44.576961,0 169.647332,-44.587617,0 169.661042,-44.565209,0 169.689895,-44.561868,0 169.713696,-44.529311,0 169.756420,-44.497832,0 169.797611,-44.513472,0 169.828123,-44.514590,0 169.959556,-44.489326,0 169.983203,-44.478678,0 169.988208,-44.467092,0 169.975056,-44.456476,0 170.002932,-44.362142,0 170.115596,-44.252693,0 170.123527,-44.188497,0 170.143331,-44.190729,0 170.157413,-44.176186,0 170.171903,-44.174628,0 170.191047,-44.183172,0 170.212474,-44.168430,0 170.264016,-44.203679,0 170.317844,-44.180651,0 170.349231,-44.133529,0 170.349435,-44.085353,0 170.400974,-44.024356,0 170.407259,-44.004793,0 170.418299,-43.997434,0 170.488583,-44.006474,0</coordinates></LineString>
      </Placemark>
      <Placemark>
        <name>T19-T20</name>
        <styleUrl>#rt</styleUrl>
        <LineString><tessellate>1</tessellate><coordinates>170.488583,-44.006474,0 170.418299,-43.997434,0 170.407679,-44.004381,0 170.400974,-44.024356,0 170.383219,-44.038390,0 170.349273,-44.085683,0 170.354222,-44.100484,0 170.349443,-44.132730,0 170.332718,-44.169142,0 170.278667,-44.199790,0 170.264528,-44.203654,0 170.252708,-44.201484,0 170.212193,-44.168401,0 170.191047,-44.183172,0 170.171903,-44.174628,0 170.157413,-44.176186,0 170.156607,-44.182543,0 170.143331,-44.190729,0 170.120730,-44.186186,0 170.108910,-44.166220,0 170.108929,-44.149224,0 170.128589,-44.123043,0 170.135364,-44.082569,0 170.134466,-44.039790,0 170.128775,-44.022657,0 170.131517,-43.946985,0 170.125566,-43.926095,0 170.113668,-43.917804,0 170.125918,-43.904477,0 170.117456,-43.895822,0 170.119769,-43.872697,0 170.102743,-43.861584,0 170.110541,-43.855506,0 170.109244,-43.821226,0 170.123820,-43.782227,0 170.121885,-43.761805,0 170.110289,-43.739511,0 170.114774,-43.740059,0</coordinates></LineString>
      </Placemark>
      <Placemark>
        <name>T20-T21</name>
        <styleUrl>#rt</styleUrl>
        <LineString><tessellate>1</tessellate><coordinates>170.114774,-43.740059,0 170.110289,-43.739511,0 170.121885,-43.761805,0 170.123820,-43.782227,0 170.109244,-43.821226,0 170.110541,-43.855506,0 170.102743,-43.861584,0 170.119769,-43.872697,0 170.117456,-43.895822,0 170.125918,-43.904477,0 170.113668,-43.917804,0 170.125566,-43.926095,0 170.131517,-43.946985,0 170.128775,-44.022657,0 170.134466,-44.039790,0 170.135289,-44.088734,0 170.128589,-44.123043,0 170.109118,-44.148567,0 170.108599,-44.164722,0 170.120485,-44.185996,0 170.140019,-44.190203,0</coordinates></LineString>
      </Placemark>
      <Placemark>
        <name>T21-T22</name>
        <styleUrl>#rt</styleUrl>
        <LineString><tessellate>1</tessellate><coordinates>170.140019,-44.190203,0 170.122447,-44.189933,0 170.116218,-44.251505,0 170.098220,-44.275327,0 170.002932,-44.362142,0 169.975056,-44.456476,0 169.988208,-44.467092,0 169.983203,-44.478678,0 169.959556,-44.489326,0 169.828123,-44.514590,0 169.797611,-44.513472,0 169.756420,-44.497832,0 169.713696,-44.529311,0 169.689895,-44.561868,0 169.661042,-44.565209,0 169.647332,-44.587617,0 169.619609,-44.576961,0 169.530260,-44.611650,0 169.478238,-44.675366,0 169.484592,-44.694995,0 169.502555,-44.704316,0 169.509101,-44.732629,0 169.503666,-44.811370,0 169.473532,-44.801909,0 169.450738,-44.807097,0 169.426737,-44.835522,0 169.400204,-44.842784,0 169.351998,-44.822971,0 169.356076,-44.790195,0 169.339904,-44.744205,0 169.283644,-44.728371,0 169.258953,-44.733902,0 169.192601,-44.700979,0 169.136413,-44.694181,0</coordinates></LineString>
      </Placemark>
      <Placemark>
        <name>T22-T23</name>
        <styleUrl>#rt</styleUrl>
        <LineString><tessellate>1</tessellate><coordinates>169.136413,-44.694181,0 169.170422,-44.696343,0 169.189671,-44.683593,0 169.247794,-44.612780,0 169.238046,-44.558611,0 169.250539,-44.522489,0 169.247396,-44.466441,0 169.183256,-44.431584,0 169.186291,-44.381164,0 169.169717,-44.354060,0 169.197704,-44.306016,0 169.200634,-44.269652,0 169.276566,-44.164394,0 169.328721,-44.140653,0 169.372903,-44.081953,0 169.386381,-44.076572,0 169.385577,-44.045617,0 169.362315,-44.030611,0 169.424354,-43.975541,0 169.385972,-43.972303,0 169.356178,-43.952839,0 169.316587,-43.955991,0 169.279858,-43.938791,0 169.220404,-43.972277,0 169.165632,-43.967146,0 169.150917,-43.957364,0 169.148911,-43.943416,0 169.087943,-43.924757,0 169.043669,-43.879198,0</coordinates></LineString>
      </Placemark>
      <Placemark>
        <name>T23-T24</name>
        <styleUrl>#rt</styleUrl>
        <LineString><tessellate>1</tessellate><coordinates>169.043669,-43.879198,0 169.044637,-43.858110,0 169.058493,-43.851876,0 169.065426,-43.822112,0 169.124543,-43.789523,0 169.148854,-43.758584,0 169.192507,-43.732481,0 169.203859,-43.732588,0 169.209615,-43.721630,0 169.217760,-43.724787,0 169.229146,-43.713187,0 169.231647,-43.720457,0 169.247024,-43.729819,0 169.269817,-43.717456,0 169.303232,-43.733134,0 169.330715,-43.765837,0 169.360402,-43.771695,0 169.397826,-43.745648,0 169.426045,-43.709363,0 169.437946,-43.706081,0 169.456440,-43.709565,0 169.468844,-43.706871,0 169.497406,-43.711927,0 169.583531,-43.658648,0 169.582057,-43.642992,0 169.588499,-43.636813,0 169.590826,-43.603092,0 169.627846,-43.580395,0 169.656960,-43.577664,0 169.668455,-43.581832,0 169.687021,-43.561628,0 169.752605,-43.561853,0 169.804441,-43.575560,0 169.834724,-43.547941,0 169.836016,-43.533014,0 169.866455,-43.518087,0 169.870067,-43.492957,0 169.876121,-43.487610,0 169.895501,-43.486016,0 169.966938,-43.498750,0 169.980587,-43.486513,0 170.007226,-43.478678,0 170.018131,-43.464189,0 170.059111,-43.449493,0 170.060911,-43.443638,0 170.072187,-43.443571,0 170.092999,-43.425175,0 170.096195,-43.405010,0 170.102311,-43.409943,0 170.101376,-43.405593,0 170.109584,-43.408759,0 170.121947,-43.403896,0 170.130425,-43.385195,0 170.163670,-43.383424,0 170.175282,-43.393447,0 170.181934,-43.392601,0 170.178446,-43.379448,0 170.183737,-43.369495,0 170.203716,-43.365069,0 170.201533,-43.352155,0 170.213625,-43.341623,0 170.213235,-43.323438,0 170.226047,-43.302715,0 170.224652,-43.295858,0</coordinates></LineString>
      </Placemark>
      <Placemark>
        <name>T24-T25</name>
        <styleUrl>#rt</styleUrl>
        <LineString><tessellate>1</tessellate><coordinates>170.224652,-43.295858,0 170.224652,-43.295858,0</coordinates></LineString>
      </Placemark>
      <Placemark>
        <name>T25-T26</name>
        <styleUrl>#rt</styleUrl>
        <LineString><tessellate>1</tessellate><coordinates>170.224652,-43.295858,0 170.226953,-43.288307,0 170.245504,-43.279320,0 170.242437,-43.258103,0 170.255104,-43.252341,0 170.280198,-43.257474,0 170.299344,-43.269256,0 170.303413,-43.280782,0 170.314534,-43.286096,0 170.328403,-43.279450,0 170.352852,-43.276692,0 170.359224,-43.261576,0 170.374309,-43.264900,0 170.385615,-43.282632,0 170.408233,-43.284879,0 170.417272,-43.277234,0 170.414989,-43.269545,0 170.430472,-43.247164,0 170.430808,-43.236961,0 170.452039,-43.207971,0 170.448625,-43.178191,0 170.457010,-43.176293,0 170.462357,-43.160242,0 170.471227,-43.163010,0 170.493213,-43.155839,0 170.508154,-43.156380,0 170.515797,-43.148162,0 170.629834,-43.154511,0 170.633948,-43.112551,0 170.624396,-43.085502,0 170.627380,-43.069403,0 170.639691,-43.042870,0 170.660814,-43.028793,0 170.676462,-43.003780,0 170.680353,-42.982780,0 170.729932,-42.977851,0 170.740758,-42.952592,0 170.758471,-42.945154,0 170.752725,-42.934358,0 170.772343,-42.903644,0 170.793201,-42.894776,0 170.811103,-42.893117,0 170.817570,-42.899274,0 170.825627,-42.888888,0 170.839790,-42.890231,0 170.900576,-42.828419,0 170.900602,-42.817862,0 170.885954,-42.807920,0 170.896578,-42.791011,0 170.902484,-42.795450,0</coordinates></LineString>
      </Placemark>
      <Placemark>
        <name>T26-T27</name>
        <styleUrl>#rt</styleUrl>
        <LineString><tessellate>1</tessellate><coordinates>170.902484,-42.795450,0 170.894750,-42.793472,0 170.929353,-42.748533,0 170.957023,-42.732690,0 171.010983,-42.677507,0 171.053965,-42.652756,0 171.119366,-42.578264,0 171.130058,-42.584884,0 171.147125,-42.571581,0 171.140665,-42.554492,0 171.193443,-42.464276,0 171.216780,-42.445321,0 171.238578,-42.441645,0 171.250411,-42.391443,0 171.243671,-42.370055,0 171.293085,-42.280955,0 171.326472,-42.244065,0 171.328213,-42.129687,0</coordinates></LineString>
      </Placemark>
      <Placemark>
        <name>T27-T28</name>
        <styleUrl>#rt</styleUrl>
        <LineString><tessellate>1</tessellate><coordinates>171.328213,-42.129687,0 171.332633,-42.123555,0 171.330099,-42.113685,0 171.339466,-42.106363,0 171.349676,-42.083895,0 171.355809,-42.081221,0 171.354879,-42.075065,0 171.361774,-42.073033,0 171.368983,-42.035913,0 171.387855,-42.028311,0 171.398631,-41.995253,0 171.412779,-41.980634,0 171.435612,-41.967357,0 171.420304,-41.954360,0 171.419942,-41.949037,0 171.437403,-41.933931,0 171.435613,-41.909562,0 171.440504,-41.902286,0 171.468116,-41.890214,0 171.470700,-41.881641,0 171.494092,-41.885227,0 171.502654,-41.867164,0 171.525433,-41.865936,0 171.547323,-41.859538,0 171.557550,-41.850407,0 171.570493,-41.820838,0 171.590994,-41.806119,0 171.595463,-41.791390,0 171.592663,-41.767088,0 171.585683,-41.754398,0 171.573196,-41.751445,0</coordinates></LineString>
      </Placemark>
      <Placemark>
        <name>T28-T29</name>
        <styleUrl>#rt</styleUrl>
        <LineString><tessellate>1</tessellate><coordinates>171.573196,-41.751445,0 171.592835,-41.766975,0 171.590459,-41.811791,0 171.670151,-41.835953,0 171.710113,-41.833986,0 171.716033,-41.847783,0 171.742187,-41.847055,0 171.780166,-41.865006,0 171.785741,-41.848421,0 171.802223,-41.843482,0 171.818813,-41.844704,0 171.835101,-41.858519,0 171.853278,-41.854141,0 171.859614,-41.859961,0 171.925908,-41.836708,0 171.940228,-41.846147,0 171.940111,-41.860377,0 171.964798,-41.853579,0 171.977896,-41.858647,0 171.989258,-41.836179,0 172.024399,-41.806876,0 172.026353,-41.785093,0 172.034588,-41.784663,0 172.036068,-41.796690,0 172.048317,-41.796239,0 172.048381,-41.811786,0 172.082244,-41.815649,0 172.102693,-41.810302,0 172.114938,-41.788918,0 172.150959,-41.769522,0 172.174788,-41.777854,0 172.191155,-41.766757,0 172.193476,-41.781459,0 172.204330,-41.782974,0 172.232581,-41.768553,0 172.315733,-41.799907,0 172.361531,-41.796733,0 172.437185,-41.685270,0 172.476001,-41.695652,0 172.492826,-41.692427,0 172.547740,-41.711309,0 172.578078,-41.711013,0 172.616052,-41.694781,0 172.618540,-41.679175,0 172.661017,-41.642452,0 172.754366,-41.619253,0 172.794832,-41.543029,0 172.795000,-41.499931,0 172.815306,-41.454696,0 172.834252,-41.449214,0 172.845463,-41.473793,0 172.892847,-41.488413,0 172.928702,-41.478512,0 173.013727,-41.414369,0 173.052778,-41.403810,0 173.088972,-41.380662,0 173.113057,-41.379861,0 173.183196,-41.335602,0 173.202690,-41.331498,0 173.224708,-41.303089,0 173.244469,-41.297952,0 173.267964,-41.264645,0 173.290172,-41.263348,0 173.312822,-41.249488,0 173.337327,-41.209829,0 173.357327,-41.203813,0 173.393153,-41.210653,0 173.396763,-41.218492,0</coordinates></LineString>
      </Placemark>
      <Placemark>
        <name>T29-T30</name>
        <styleUrl>#rt</styleUrl>
        <LineString><tessellate>1</tessellate><coordinates>173.396763,-41.218492,0 173.396763,-41.218492,0</coordinates></LineString>
      </Placemark>
      <Placemark>
        <name>T30-T31</name>
        <styleUrl>#rt</styleUrl>
        <LineString><tessellate>1</tessellate><coordinates>173.396763,-41.218492,0 173.399721,-41.229791,0 173.409617,-41.226288,0 173.412083,-41.231133,0 173.419417,-41.226126,0 173.435861,-41.228798,0 173.436039,-41.221714,0 173.445780,-41.221581,0 173.485919,-41.186644,0 173.500078,-41.181115,0 173.515375,-41.164382,0 173.528833,-41.158790,0 173.541585,-41.160122,0 173.561603,-41.166981,0 173.563112,-41.175054,0 173.554319,-41.190820,0 173.563635,-41.204217,0 173.574747,-41.206270,0 173.586350,-41.218660,0 173.572541,-41.267374,0 173.574464,-41.301373,0 173.620737,-41.296724,0 173.644000,-41.282378,0 173.656777,-41.282999,0 173.672821,-41.291352,0 173.690254,-41.285914,0 173.702705,-41.288024,0 173.725221,-41.282932,0 173.732012,-41.275377,0 173.746985,-41.271979,0 173.764824,-41.275684,0 173.768254,-41.287307,0 173.773756,-41.286892,0 173.785063,-41.277015,0 173.785516,-41.268604,0 173.802828,-41.287251,0 173.821815,-41.292721,0 173.868040,-41.289497,0 173.862077,-41.277284,0 173.863857,-41.262184,0 173.872381,-41.256690,0 173.873079,-41.249636,0 173.898364,-41.239530,0 173.896285,-41.235752,0 173.907407,-41.231073,0 173.914849,-41.234377,0 173.947591,-41.215177,0 173.961918,-41.213562,0 173.971515,-41.219288,0 173.976126,-41.210822,0 174.004287,-41.208694,0 174.014126,-41.204246,0 174.012414,-41.199929,0 174.032560,-41.202277,0 174.033767,-41.191620,0 174.040379,-41.193932,0 174.042775,-41.190664,0 174.050196,-41.195724,0 174.051193,-41.190891,0 174.064709,-41.190590,0 174.073759,-41.195476,0 174.078472,-41.187848,0 174.097739,-41.186601,0 174.118476,-41.175136,0 174.121725,-41.162352,0 174.144070,-41.136958,0 174.135041,-41.124176,0 174.131691,-41.099616,0 174.139476,-41.086113,0 174.148353,-41.083912,0 174.153653,-41.089807,0 174.157301,-41.086767,0 174.157012,-41.069242,0 174.163191,-41.063272,0 174.149963,-41.039857,0 174.157735,-41.027909,0 174.154221,-41.040512,0 174.162411,-41.050221,0 174.177765,-41.053301,0 174.180424,-41.059776,0 174.189918,-41.060459,0 174.191560,-41.064283,0 174.219265,-41.071489,0</coordinates></LineString>
      </Placemark>
      <Placemark>
        <name>T31-T32</name>
        <styleUrl>#rt</styleUrl>
        <LineString><tessellate>1</tessellate><coordinates>174.293577,-41.168870,0 174.293577,-41.168870,0</coordinates></LineString>
      </Placemark>
      <Placemark>
        <name>T32-T33</name>
        <styleUrl>#rt</styleUrl>
        <LineString><tessellate>1</tessellate><coordinates>174.219265,-41.071489,0 174.191560,-41.064283,0 174.189918,-41.060459,0 174.180424,-41.059776,0 174.177765,-41.053301,0 174.162411,-41.050221,0 174.154221,-41.040512,0 174.157735,-41.027909,0 174.149963,-41.039857,0 174.163191,-41.063272,0 174.157012,-41.069242,0 174.157301,-41.086767,0 174.153653,-41.089807,0 174.148353,-41.083912,0 174.139476,-41.086113,0 174.131691,-41.099616,0 174.135041,-41.124176,0 174.144070,-41.136958,0 174.121802,-41.162238,0 174.118389,-41.175203,0 174.097739,-41.186601,0 174.078472,-41.187848,0 174.073759,-41.195476,0 174.064709,-41.190590,0 174.051193,-41.190891,0 174.050196,-41.195724,0 174.042775,-41.190664,0 174.040379,-41.193932,0 174.033767,-41.191620,0 174.032560,-41.202277,0 174.012414,-41.199929,0 174.014126,-41.204246,0 174.004287,-41.208694,0 173.976126,-41.210822,0 173.971515,-41.219288,0 173.961918,-41.213562,0 173.947591,-41.215177,0 173.914849,-41.234377,0 173.907407,-41.231073,0 173.896285,-41.235752,0 173.898364,-41.239530,0 173.873079,-41.249636,0 173.872381,-41.256690,0 173.863857,-41.262184,0 173.862077,-41.277284,0 173.868040,-41.289497,0 173.821815,-41.292721,0 173.802828,-41.287251,0 173.785626,-41.268606,0 173.784424,-41.277801,0 173.768254,-41.287307,0 173.762123,-41.366170,0 173.775126,-41.401980,0 173.769088,-41.412740,0 173.759943,-41.417846,0 173.766655,-41.433690,0 173.780895,-41.443314,0 173.817104,-41.486401,0 173.873364,-41.479409,0 173.878347,-41.511737,0 173.939697,-41.508844,0 173.954600,-41.511797,0</coordinates></LineString>
      </Placemark>
      <Placemark>
        <name>T33-T34</name>
        <styleUrl>#rt</styleUrl>
        <LineString><tessellate>1</tessellate><coordinates>173.954600,-41.511797,0 173.954600,-41.511797,0</coordinates></LineString>
      </Placemark>
      <Placemark>
        <name>T34-T35</name>
        <styleUrl>#rt</styleUrl>
        <LineString><tessellate>1</tessellate><coordinates>173.954600,-41.511797,0 174.015478,-41.529394,0 174.040766,-41.545385,0 174.033140,-41.567431,0 174.077078,-41.652101,0 174.073692,-41.681052,0 174.134107,-41.736954,0 174.149224,-41.776543,0 174.146255,-41.807369,0 174.116894,-41.855131,0 174.108074,-41.908878,0 173.970760,-42.039150,0 173.937074,-42.083598,0 173.921641,-42.128023,0 173.931841,-42.154362,0 173.911349,-42.158009,0 173.870908,-42.214588,0 173.830751,-42.248119,0 173.756737,-42.287546,0 173.746661,-42.301204,0 173.751399,-42.311797,0 173.719934,-42.310210,0 173.717170,-42.325721,0 173.675172,-42.351592,0 173.680531,-42.402262,0 173.671589,-42.411977,0 173.683196,-42.421018,0</coordinates></LineString>
      </Placemark>
      <Placemark>
        <name>T35-T36</name>
        <styleUrl>#rt</styleUrl>
        <LineString><tessellate>1</tessellate><coordinates>173.683196,-42.421018,0 173.683196,-42.421018,0</coordinates></LineString>
      </Placemark>
      <Placemark>
        <name>T36-T37</name>
        <styleUrl>#rt</styleUrl>
        <LineString><tessellate>1</tessellate><coordinates>173.683196,-42.421018,0 173.671589,-42.411977,0 173.680531,-42.402262,0 173.675172,-42.351592,0 173.717170,-42.325721,0 173.719728,-42.310318,0 173.751399,-42.311797,0 173.746661,-42.301204,0 173.756737,-42.287546,0 173.830751,-42.248119,0 173.870908,-42.214588,0 173.911349,-42.158009,0 173.931841,-42.154362,0 173.921641,-42.128023,0 173.937074,-42.083598,0 173.970760,-42.039150,0 174.108074,-41.908878,0 174.116894,-41.855131,0 174.146255,-41.807369,0 174.149224,-41.776543,0 174.134107,-41.736954,0 174.073692,-41.681052,0 174.077078,-41.652101,0 174.033140,-41.567431,0 174.040766,-41.545385,0 174.015478,-41.529394,0 173.954600,-41.511797,0</coordinates></LineString>
      </Placemark>
      <Placemark>
        <name>T37-T38</name>
        <styleUrl>#rt</styleUrl>
        <LineString><tessellate>1</tessellate><coordinates>173.954600,-41.511797,0 173.964404,-41.495381,0 173.965648,-41.481957,0 173.961968,-41.460616,0 173.965592,-41.437357,0 173.958760,-41.421531,0 173.968777,-41.415352,0 173.951224,-41.395350,0 173.946945,-41.374372,0 173.956999,-41.346968,0 173.979233,-41.311293,0 174.000913,-41.297275,0 174.003857,-41.284720,0 174.032141,-41.249963,0 174.040823,-41.245355,0 174.147305,-41.223080,0 174.154328,-41.226537,0 174.157775,-41.242571,0 174.165052,-41.246123,0 174.206737,-41.239698,0 174.253916,-41.239115,0 174.283599,-41.218861,0 174.318532,-41.211099,0 174.628520,-41.373333,0 174.669467,-41.386588,0 174.708468,-41.390246,0 174.813309,-41.387020,0 174.830600,-41.379381,0 174.852377,-41.328853,0 174.856941,-41.287878,0 174.851914,-41.275739,0 174.844107,-41.273102,0 174.786867,-41.284500,0 174.780600,-41.280102,0 174.778726,-41.289464,0 174.785257,-41.292619,0 174.781027,-41.299586,0 174.792616,-41.304792,0 174.790496,-41.311814,0 174.797836,-41.311342,0</coordinates></LineString>
      </Placemark>
      <Placemark>
        <name>T38-T39</name>
        <styleUrl>#rt</styleUrl>
        <LineString><tessellate>1</tessellate><coordinates>174.797836,-41.311342,0 174.797836,-41.311342,0</coordinates></LineString>
      </Placemark>
      <Placemark>
        <name>T39-T40</name>
        <styleUrl>#rt</styleUrl>
        <LineString><tessellate>1</tessellate><coordinates>174.797836,-41.311342,0 174.790516,-41.311881,0 174.792569,-41.304738,0 174.771069,-41.294819,0 174.773572,-41.275863,0 174.787901,-41.262733,0 174.843357,-41.228787,0 174.879851,-41.217247,0 174.921745,-41.194468,0 174.988219,-41.148129,0 175.047915,-41.117367,0 175.092945,-41.113351,0 175.099387,-41.102528,0 175.115479,-41.096037,0 175.148894,-41.087443,0 175.155099,-41.089654,0 175.182466,-41.078643,0 175.196192,-41.078330,0 175.205363,-41.081068,0 175.205649,-41.097927,0 175.218515,-41.114071,0 175.233562,-41.115350,0 175.257600,-41.107854,0 175.258673,-41.111512,0 175.263429,-41.108457,0 175.275536,-41.109213,0 175.275208,-41.111891,0 175.294821,-41.104581,0 175.313633,-41.115059,0 175.337475,-41.119700,0 175.378532,-41.118243,0 175.449415,-41.090275,0 175.473917,-41.068311,0 175.492842,-41.060742,0 175.536785,-41.014808,0 175.554872,-41.006130,0 175.558049,-40.998932,0 175.612882,-40.962535,0 175.645279,-40.958852,0 175.669301,-40.944907,0 175.695561,-40.949818,0 175.714440,-40.938884,0 175.762141,-40.928083,0 175.778935,-40.921285,0 175.796009,-40.902478,0 175.810677,-40.895964,0 175.830465,-40.902271,0 175.839576,-40.897297,0 175.850783,-40.874877,0 175.865736,-40.865581,0 175.891018,-40.884057,0 175.893600,-40.899644,0</coordinates></LineString>
      </Placemark>
      <Placemark>
        <name>T40-T41</name>
        <styleUrl>#rt</styleUrl>
        <LineString><tessellate>1</tessellate><coordinates>175.893600,-40.899644,0 175.865736,-40.865581,0 175.830465,-40.902271,0 175.803769,-40.897975,0 175.696051,-40.949784,0 175.669301,-40.944907,0 175.604276,-40.751363,0 175.700244,-40.671811,0 175.724825,-40.582636,0 175.885632,-40.393367,0 175.879886,-40.340545,0 176.108380,-40.205670,0 176.184487,-40.091127,0 176.268157,-40.021472,0 176.324249,-40.020943,0 176.353795,-39.934690,0 176.411879,-39.910058,0 176.443292,-39.865922,0 176.470295,-39.783211,0 176.489185,-39.778464,0 176.495359,-39.715321,0 176.563519,-39.689826,0 176.579898,-39.649493,0 176.683656,-39.647924,0 176.775102,-39.575173,0 176.851856,-39.563213,0 176.873590,-39.496279,0 176.898220,-39.479241,0</coordinates></LineString>
      </Placemark>
      <Placemark>
        <name>T41-T42</name>
        <styleUrl>#rt</styleUrl>
        <LineString><tessellate>1</tessellate><coordinates>176.898220,-39.479241,0 176.898220,-39.479241,0</coordinates></LineString>
      </Placemark>
      <Placemark>
        <name>T42-T43</name>
        <styleUrl>#rt</styleUrl>
        <LineString><tessellate>1</tessellate><coordinates>176.898220,-39.479241,0 176.890137,-39.486156,0 176.876777,-39.474839,0 176.871958,-39.428927,0 176.856067,-39.415583,0 176.852794,-39.397198,0 176.813930,-39.385714,0 176.806951,-39.370733,0 176.786199,-39.362846,0 176.787191,-39.349905,0 176.750899,-39.346904,0 176.732278,-39.316082,0 176.708832,-39.303478,0 176.709825,-39.282513,0 176.681568,-39.247987,0 176.694012,-39.216302,0 176.615272,-39.167279,0 176.602118,-39.148042,0 176.602829,-39.120736,0 176.581104,-39.109764,0 176.568020,-39.112196,0 176.591074,-39.061370,0 176.578640,-39.054780,0 176.571195,-39.023269,0 176.540952,-38.998348,0 176.519369,-38.952390,0 176.460468,-38.911022,0 176.306377,-38.856504,0 176.278805,-38.838318,0 176.234533,-38.781244,0 176.163854,-38.717275,0 176.087848,-38.705075,0 176.069625,-38.686653,0</coordinates></LineString>
      </Placemark>
      <Placemark>
        <name>T43-T44</name>
        <styleUrl>#rt</styleUrl>
        <LineString><tessellate>1</tessellate><coordinates>176.069625,-38.686653,0 176.069658,-38.686561,0 176.069781,-38.686587,0 176.069462,-38.687505,0 176.069986,-38.687692,0 176.071832,-38.688103,0 176.071975,-38.688041,0 176.072059,-38.688157,0 176.081993,-38.690243,0 176.081786,-38.690465,0 176.080200,-38.691248,0</coordinates></LineString>
      </Placemark>
      <Placemark>
        <name>T44-T45</name>
        <styleUrl>#rt</styleUrl>
        <LineString><tessellate>1</tessellate><coordinates>176.080200,-38.691248,0 176.088610,-38.708274,0 176.071728,-38.735644,0 176.079188,-38.810060,0 176.051326,-38.854717,0 176.012856,-38.856605,0 176.001973,-38.874439,0 175.953720,-38.887124,0 175.939370,-38.904967,0 175.898407,-38.911888,0 175.851406,-38.945004,0 175.805009,-38.996304,0 175.779720,-38.981818,0 175.769813,-38.985155,0 175.771511,-38.995093,0 175.754330,-38.992977,0 175.725507,-39.023405,0 175.680062,-39.012796,0 175.649625,-39.019896,0 175.565598,-39.068345,0 175.511505,-39.144908,0 175.469935,-39.176846,0 175.435517,-39.184659,0 175.402461,-39.176779,0 175.387800,-39.254810,0 175.398904,-39.264554,0 175.388274,-39.268485,0 175.389767,-39.307961,0 175.377261,-39.343350,0 175.322558,-39.368222,0 175.377368,-39.395348,0 175.399671,-39.416964,0</coordinates></LineString>
      </Placemark>
      <Placemark>
        <name>T45-T46</name>
        <styleUrl>#rt</styleUrl>
        <LineString><tessellate>1</tessellate><coordinates>175.399671,-39.416964,0 175.398461,-39.418040,0 175.399674,-39.418646,0 175.398150,-39.420509,0 175.393714,-39.422347,0 175.387111,-39.426303,0 175.384740,-39.427396,0 175.382212,-39.429222,0 175.380652,-39.429673,0 175.379311,-39.429594,0 175.372840,-39.428002,0 175.354414,-39.421392,0 175.353013,-39.421321,0 175.346315,-39.422145,0 175.342005,-39.421316,0 175.346473,-39.418967,0 175.347039,-39.418376,0 175.348168,-39.418150,0 175.350998,-39.416781,0 175.356921,-39.412267,0 175.360392,-39.412956,0 175.362507,-39.411900,0</coordinates></LineString>
      </Placemark>
      <Placemark>
        <name>T46-T47</name>
        <styleUrl>#rt</styleUrl>
        <LineString><tessellate>1</tessellate><coordinates>175.362507,-39.411900,0 175.342005,-39.421316,0 175.380463,-39.429686,0 175.399674,-39.418646,0 175.377591,-39.395490,0 175.322562,-39.368082,0 175.376981,-39.343841,0 175.389767,-39.307961,0 175.388274,-39.268485,0 175.398904,-39.264554,0 175.387799,-39.254990,0 175.402754,-39.205089,0 175.398644,-39.134566,0 175.379044,-39.107104,0 175.381365,-39.079273,0 175.371144,-39.065202,0 175.383624,-39.049681,0 175.379990,-38.969640,0 175.345205,-38.939054,0 175.339563,-38.898032,0 175.302326,-38.880798,0 175.255149,-38.883872,0 175.236315,-38.863111,0 175.221016,-38.799406,0 175.260813,-38.743349,0 175.260588,-38.730581,0 175.249153,-38.704921,0 175.221077,-38.696990,0 175.198077,-38.676226,0 175.214118,-38.647378,0 175.204472,-38.636602,0 175.219180,-38.615982,0 175.219582,-38.593701,0 175.175508,-38.527572,0 175.208990,-38.514227,0 175.175035,-38.483313,0 175.162688,-38.449685,0 175.115192,-38.428944,0 175.108662,-38.414145,0 175.125502,-38.401584,0 175.132508,-38.379114,0 175.149740,-38.379857,0 175.158761,-38.370915,0 175.167275,-38.338073,0 175.144771,-38.317532,0 175.145687,-38.293295,0 175.180892,-38.252571,0 175.161677,-38.248759,0 175.138034,-38.266080,0 175.110572,-38.260670,0</coordinates></LineString>
      </Placemark>
      <Placemark>
        <name>T47-T48</name>
        <styleUrl>#rt</styleUrl>
        <LineString><tessellate>1</tessellate><coordinates>175.110572,-38.260670,0 175.110572,-38.260670,0</coordinates></LineString>
      </Placemark>
      <Placemark>
        <name>T48-T49</name>
        <styleUrl>#rt</styleUrl>
        <LineString><tessellate>1</tessellate><coordinates>175.110572,-38.260670,0 175.138034,-38.266080,0 175.161677,-38.248759,0 175.180770,-38.252179,0 175.212714,-38.184097,0 175.248904,-38.176374,0 175.270094,-38.160306,0 175.293722,-38.161401,0 175.306362,-38.145948,0 175.321490,-38.139508,0 175.326594,-38.124813,0 175.346037,-38.113133,0 175.351072,-38.103377,0 175.340378,-38.076377,0 175.345003,-38.035934,0 175.334207,-38.025480,0 175.390394,-38.001962,0 175.426289,-37.973811,0 175.435441,-37.955330,0 175.430527,-37.927938,0 175.449188,-37.914343,0 175.452555,-37.901500,0 175.477959,-37.900647,0 175.481423,-37.894233,0 175.505575,-37.895049,0 175.524822,-37.906571,0 175.554272,-37.916328,0 175.587737,-37.945435,0 175.626282,-37.952093,0 175.655284,-37.947018,0 175.669420,-37.940616,0 175.712387,-37.889273,0 175.732497,-37.883466,0 175.753878,-37.863766,0 175.771030,-37.821993,0 175.770595,-37.811667,0 175.763536,-37.810884,0</coordinates></LineString>
      </Placemark>
      <Placemark>
        <name>T49-T50</name>
        <styleUrl>#rt</styleUrl>
        <LineString><tessellate>1</tessellate><coordinates>175.763536,-37.810884,0 175.766192,-37.806796,0 175.804847,-37.822625,0 175.822349,-37.834130,0 175.825489,-37.839815,0 175.837315,-37.844209,0 175.839279,-37.850746,0 175.856200,-37.853498,0 175.864389,-37.852639,0 175.873474,-37.858422,0 175.887270,-37.877731,0 175.896630,-37.883247,0 175.912922,-37.879918,0 175.915453,-37.881940,0 175.918478,-37.879585,0 175.921113,-37.881230,0 175.922725,-37.878995,0 175.928371,-37.878613,0 175.927112,-37.873661,0 175.929649,-37.871342,0 175.940184,-37.867921,0 175.945772,-37.861611,0 175.953145,-37.860426,0 175.959600,-37.850871,0 175.982912,-37.831727,0 175.991360,-37.829181,0 175.995429,-37.824548,0 176.018789,-37.816421,0 176.035254,-37.806144,0 176.047158,-37.794689,0 176.051347,-37.780784,0 176.058087,-37.775706,0 176.059470,-37.770042,0 176.073425,-37.759887,0 176.075913,-37.754070,0 176.080490,-37.758504,0 176.095895,-37.761678,0 176.099500,-37.752804,0 176.103022,-37.753565,0 176.105096,-37.762438,0 176.116122,-37.768356,0 176.116711,-37.780793,0 176.122460,-37.794976,0 176.122795,-37.808927,0 176.128022,-37.821944,0 176.125984,-37.829333,0 176.122341,-37.831585,0 176.122044,-37.840729,0 176.118489,-37.848424,0 176.128393,-37.866033,0 176.133235,-37.869475,0 176.143208,-37.871065,0 176.150851,-37.881156,0 176.150090,-37.891244,0 176.154554,-37.910943,0 176.150708,-37.917277,0 176.157044,-37.921921,0 176.150631,-37.936877,0 176.152745,-37.947607,0 176.151332,-37.946169,0 176.142782,-37.947366,0 176.145461,-37.943501,0</coordinates></LineString>
      </Placemark>
      <Placemark>
        <name>T50-T51</name>
        <styleUrl>#rt</styleUrl>
        <LineString><tessellate>1</tessellate><coordinates>176.145461,-37.943501,0 176.145461,-37.943501,0</coordinates></LineString>
      </Placemark>
      <Placemark>
        <name>T51-T52</name>
        <styleUrl>#rt</styleUrl>
        <LineString><tessellate>1</tessellate><coordinates>176.145461,-37.943501,0 176.152745,-37.947607,0 176.157044,-37.921921,0 176.150851,-37.881156,0 176.118489,-37.848424,0 176.128022,-37.821944,0 176.116003,-37.768814,0 176.102555,-37.753814,0 176.096303,-37.762008,0 176.076148,-37.754597,0 176.035466,-37.805970,0 175.982691,-37.831873,0 175.928028,-37.878854,0 175.896991,-37.883405,0 175.866731,-37.854210,0 175.869481,-37.821785,0 175.856395,-37.811187,0 175.848031,-37.779295,0 175.858064,-37.730634,0 175.849229,-37.714694,0 175.822283,-37.693567,0 175.813314,-37.660449,0 175.793030,-37.641358,0 175.764535,-37.582243,0 175.711951,-37.542882,0 175.697969,-37.508575,0 175.654146,-37.465077,0 175.643324,-37.437569,0 175.629003,-37.440732,0 175.615171,-37.416567,0 175.610662,-37.305508,0 175.589993,-37.285721,0 175.552147,-37.207928,0 175.554223,-37.193840,0 175.572373,-37.187185,0 175.549088,-37.147954,0 175.586661,-37.158766,0</coordinates></LineString>
      </Placemark>
      <Placemark>
        <name>T52-T53</name>
        <styleUrl>#rt</styleUrl>
        <LineString><tessellate>1</tessellate><coordinates>175.586661,-37.158766,0 175.586661,-37.158766,0</coordinates></LineString>
      </Placemark>
      <Placemark>
        <name>T53-T54</name>
        <styleUrl>#rt</styleUrl>
        <LineString><tessellate>1</tessellate><coordinates>175.586661,-37.158766,0 175.549225,-37.147854,0 175.571934,-37.188903,0 175.505063,-37.219478,0 175.465298,-37.218646,0 175.392953,-37.235744,0 175.353304,-37.270846,0 175.316652,-37.286995,0 175.246482,-37.253821,0 175.176618,-37.245133,0 175.139895,-37.221349,0 175.078235,-37.211512,0 175.016102,-37.230888,0 175.001553,-37.220369,0 174.982096,-37.191392,0 174.983547,-37.165637,0 174.910510,-37.040933,0 174.909465,-37.019937,0 174.863026,-36.960002,0 174.847328,-36.923260,0 174.824097,-36.913761,0 174.741750,-36.838468,0 174.761064,-36.798854,0 174.720910,-36.743934,0 174.701284,-36.686370,0 174.664119,-36.654152,0 174.660053,-36.609175,0 174.680944,-36.538444,0 174.668248,-36.505314,0 174.634042,-36.468451,0 174.629597,-36.405368,0 174.642127,-36.388264,0 174.625113,-36.368829,0 174.589934,-36.348481,0 174.560146,-36.343126,0 174.546462,-36.329252,0 174.568368,-36.293408,0 174.560095,-36.273144,0 174.577752,-36.251820,0 174.573884,-36.226550,0 174.587240,-36.214980,0 174.577933,-36.197819,0</coordinates></LineString>
      </Placemark>
      <Placemark>
        <name>T54-T55</name>
        <styleUrl>#rt</styleUrl>
        <LineString><tessellate>1</tessellate><coordinates>174.577933,-36.197819,0 174.583560,-36.218541,0 174.513619,-36.236529,0 174.489481,-36.228644,0 174.479300,-36.212708,0 174.463671,-36.212624,0 174.463572,-36.198982,0 174.450869,-36.190313,0 174.429693,-36.134471,0 174.435801,-36.118827,0 174.431046,-36.086839,0 174.418432,-36.072272,0 174.426917,-36.058858,0 174.416266,-36.049089,0 174.414382,-36.003027,0 174.451792,-35.955192,0 174.452443,-35.917323,0 174.442603,-35.899076,0 174.390311,-35.859639,0 174.352261,-35.851522,0 174.297208,-35.815838,0 174.291616,-35.798688,0 174.310926,-35.776550,0 174.306098,-35.744892,0 174.316463,-35.713327,0 174.293555,-35.660555,0 174.278269,-35.542421,0 174.234901,-35.538204,0 174.173536,-35.500112,0 174.099416,-35.475141,0 174.071206,-35.429354,0 174.071688,-35.380832,0 174.059823,-35.372155,0 173.998675,-35.390375,0 173.956710,-35.357323,0 173.958002,-35.344688,0 173.980311,-35.326065,0 173.915910,-35.234151,0 173.920117,-35.209126,0 173.871163,-35.122187,0 173.823981,-35.128465,0 173.762019,-35.082221,0 173.720275,-35.084614,0 173.709942,-35.062819,0 173.657582,-35.043287,0 173.646056,-35.018505,0 173.625038,-35.015027,0 173.616057,-35.000172,0 173.544125,-35.011658,0 173.521719,-34.990519,0 173.479387,-34.990112,0 173.469926,-34.997699,0 173.380137,-34.984664,0 173.347953,-34.898073,0 173.383931,-34.865663,0 173.401618,-34.828775,0 173.410915,-34.829071,0</coordinates></LineString>
      </Placemark>
      <Placemark>
        <name>T55-T56</name>
        <styleUrl>#rt</styleUrl>
        <LineString><tessellate>1</tessellate><coordinates>173.410915,-34.829071,0 173.410915,-34.829071,0</coordinates></LineString>
      </Placemark>
      <Placemark>
        <name>T56-T57</name>
        <styleUrl>#rt</styleUrl>
        <LineString><tessellate>1</tessellate><coordinates>173.410915,-34.829071,0 173.401618,-34.828775,0 173.396661,-34.848173,0 173.383931,-34.865663,0 173.379315,-34.869971,0 173.370583,-34.869380,0 173.361865,-34.880430,0 173.361336,-34.886813,0 173.347953,-34.898073,0 173.361301,-34.939855,0 173.363711,-34.944253,0 173.369006,-34.946165,0 173.379188,-34.962982,0 173.380137,-34.984664,0 173.343987,-35.001253,0 173.328712,-35.018978,0 173.329119,-35.025980,0 173.323765,-35.029510,0 173.317163,-35.029992,0 173.312022,-35.036809,0 173.294877,-35.042269,0 173.256366,-35.046366,0 173.258457,-35.052597,0 173.256734,-35.094594,0 173.259846,-35.099273,0 173.259120,-35.103341,0 173.261886,-35.104119,0</coordinates></LineString>
      </Placemark>
      <Placemark>
        <name>T57-T58</name>
        <styleUrl>#rt</styleUrl>
        <LineString><tessellate>1</tessellate><coordinates>173.261886,-35.104119,0 173.256734,-35.094594,0 173.258457,-35.052597,0 173.253663,-35.030432,0 173.249705,-35.026134,0 173.217696,-35.021546,0 173.190897,-35.002117,0 173.194178,-34.958966,0 173.186339,-34.951859,0 173.190152,-34.941413,0 173.185986,-34.933729,0 173.190077,-34.925268,0 173.174808,-34.898888,0 173.157523,-34.886091,0 173.141884,-34.860231,0 173.137993,-34.841899,0 173.114573,-34.805076,0 173.102180,-34.794988,0 173.090050,-34.772965,0 173.076716,-34.767788,0 173.075500,-34.758885,0 173.048013,-34.745321,0 173.041112,-34.718943,0 173.023017,-34.694007,0 172.998521,-34.673798,0 172.968723,-34.662969,0 172.970517,-34.629048,0 172.962856,-34.625485,0 172.953706,-34.607635,0 172.925915,-34.590953,0 172.913650,-34.593828,0 172.903957,-34.591028,0 172.894163,-34.581053,0 172.898720,-34.569242,0 172.880103,-34.568273,0 172.870986,-34.553523,0 172.838732,-34.530074,0 172.836653,-34.520284,0 172.840611,-34.515903,0 172.850660,-34.516360,0 172.850463,-34.504911,0 172.870601,-34.501284,0 172.878430,-34.494760,0 172.873589,-34.494142,0 172.877241,-34.485732,0 172.873458,-34.475093,0 172.878370,-34.452540,0 172.873867,-34.443638,0 172.863576,-34.438789,0 172.865080,-34.428770,0 172.860149,-34.428507,0</coordinates></LineString>
      </Placemark>
      <Placemark>
        <name>T58-T59</name>
        <styleUrl>#rt</styleUrl>
        <LineString><tessellate>1</tessellate><coordinates>172.860149,-34.428507,0 172.878370,-34.452540,0 172.878430,-34.494760,0 172.850463,-34.504911,0 172.838732,-34.530074,0 172.880103,-34.568273,0 172.898720,-34.569242,0 172.894163,-34.581053,0 172.903957,-34.591028,0 172.925915,-34.590953,0 172.953706,-34.607635,0 172.970517,-34.629048,0 172.968723,-34.662969,0 173.023017,-34.694007,0 173.048013,-34.745321,0 173.075500,-34.758885,0 173.114573,-34.805076,0 173.157523,-34.886091,0 173.190077,-34.925268,0 173.190897,-35.002117,0 173.217696,-35.021546,0 173.253663,-35.030432,0 173.256757,-35.094777,0 173.269867,-35.120723,0 173.295887,-35.126262,0 173.330468,-35.119202,0 173.366156,-35.141980,0 173.428051,-35.158910,0 173.456019,-35.189595,0 173.473204,-35.180546,0 173.504113,-35.204863,0 173.540450,-35.210047,0 173.546293,-35.245570,0 173.590866,-35.301358,0 173.617649,-35.294064,0 173.645771,-35.306812,0 173.666383,-35.292653,0 173.721706,-35.288107,0 173.762449,-35.320133,0 173.799537,-35.319175,0 173.828143,-35.337613,0 173.808301,-35.402788,0 173.744844,-35.456395,0 173.677088,-35.464716,0 173.649023,-35.459535,0 173.601611,-35.494579,0 173.568002,-35.484913,0 173.530737,-35.459176,0 173.528195,-35.444438,0</coordinates></LineString>
      </Placemark>
      <Placemark>
        <name>T59-T60</name>
        <styleUrl>#rt</styleUrl>
        <LineString><tessellate>1</tessellate><coordinates>173.528195,-35.444438,0 173.530737,-35.459176,0 173.568002,-35.484913,0 173.602408,-35.494594,0 173.649023,-35.459535,0 173.677088,-35.464716,0 173.745389,-35.456174,0 173.803203,-35.405967,0 173.822132,-35.455900,0 173.840658,-35.475190,0 173.829798,-35.553197,0 173.841431,-35.614260,0 173.852021,-35.639868,0 173.880542,-35.658745,0 173.893693,-35.684153,0 173.947589,-35.714592,0 174.014339,-35.704736,0 174.049675,-35.734562,0 174.112877,-35.728821,0 174.178813,-35.755723,0 174.211256,-35.755743,0 174.246303,-35.774041,0 174.308075,-35.780478,0 174.291684,-35.798325,0 174.298040,-35.817056,0 174.352261,-35.851522,0 174.390311,-35.859639,0 174.451545,-35.914618,0 174.454832,-35.946830,0 174.414548,-36.002106,0 174.414933,-36.033607,0 174.426917,-36.058858,0 174.419121,-36.075261,0 174.433143,-36.099289,0 174.430315,-36.137077,0 174.463114,-36.212010,0 174.479300,-36.212708,0 174.489363,-36.228557,0 174.511128,-36.236147,0 174.532553,-36.234590,0 174.585895,-36.217084,0 174.577933,-36.197819,0</coordinates></LineString>
      </Placemark>
      <Placemark>
        <name>T60-T61</name>
        <styleUrl>#rt</styleUrl>
        <LineString><tessellate>1</tessellate><coordinates>174.577933,-36.197819,0 174.587240,-36.214980,0 174.573920,-36.226449,0 174.577780,-36.251727,0 174.560095,-36.273144,0 174.566071,-36.278116,0 174.564193,-36.288769,0 174.568368,-36.293408,0 174.558247,-36.300730,0 174.546513,-36.329174,0 174.560146,-36.343126,0 174.570245,-36.344284,0 174.573925,-36.350029,0 174.589934,-36.348481,0 174.614404,-36.368102,0 174.625113,-36.368829,0 174.642965,-36.388504,0 174.629749,-36.405368,0 174.636260,-36.424706,0 174.634412,-36.469231,0 174.668516,-36.505480,0 174.668843,-36.515933,0 174.681069,-36.537391,0 174.680845,-36.558854,0 174.666169,-36.579082,0 174.660253,-36.608837,0 174.663232,-36.651025,0 174.685825,-36.676486,0 174.701446,-36.686363,0 174.720894,-36.743468,0 174.760996,-36.798376,0 174.741640,-36.837484,0 174.763334,-36.848423,0</coordinates></LineString>
      </Placemark>
  </Document>
</kml>