<?xml version="1.0" encoding="UTF-8"?>
<gpx version="1.1" creator="nz-trip-planner" xmlns="http://www.topografix.com/GPX/1/1" xmlns:xsi="http://www.w3.org/2001/XMLSchema-instance" xsi:schemaLocation="http://www.topografix.com/GPX/1/1 http://www.topografix.com/GPX/1/1/gpx.xsd">
  <metadata><name>NZ27 Versorgung</name></metadata>
  <wpt lat="-43.530160" lon="172.736508">
    <name>Wäsche (T1)</name>
    <desc>Tag 1 (19.03) - Wäsche
🧺 Wäsche-Stop 1: Super Suds / Lilly's Laundromat (24/7)</desc>
  </wpt>
  <wpt lat="-43.530955" lon="172.636434">
    <name>Sanidump (T1)</name>
    <desc>Tag 1 (19.03) - Sanidump
🚻 Sanidump: in Christchurch (i-Site / Holiday Park)</desc>
  </wpt>
  <wpt lat="-43.529460" lon="172.736508">
    <name>Frischwasser (T1)</name>
    <desc>Tag 1 (19.03) - Frischwasser
💧 Frischwasser: in Christchurch auffüllen</desc>
  </wpt>
  <wpt lat="-45.813618" lon="170.674744">
    <name>Wäsche (T6)</name>
    <desc>Tag 6 (24.03) - Wäsche
🧺 Wäsche-Stop 2: Liquid Laundromat Dunedin South (28 Prince Albert Rd, 24/7)</desc>
  </wpt>
  <wpt lat="-45.874098" lon="170.503576">
    <name>Sanidump (T6)</name>
    <desc>Tag 6 (24.03) - Sanidump
🚻 Sanidump: in Dunedin (i-Site / Holiday Park)</desc>
  </wpt>
  <wpt lat="-45.812918" lon="170.674744">
    <name>Frischwasser (T6)</name>
    <desc>Tag 6 (24.03) - Frischwasser
💧 Frischwasser: in Dunedin auffüllen</desc>
  </wpt>
  <wpt lat="-46.559768" lon="169.470842">
    <name>Tanken (T7)</name>
    <desc>Tag 7 (25.03) - Tanken
⛽ vor Catlins in Balclutha volltanken (Catlins kaum Tankstellen)</desc>
  </wpt>
  <wpt lat="-45.028549" lon="168.696881">
    <name>Wäsche (T16)</name>
    <desc>Tag 16 (03.04) - Wäsche
🧺 Wäsche-Stop 3: Queenstown CBD Liquid (24/7)</desc>
  </wpt>
  <wpt lat="-45.032192" lon="168.661000">
    <name>Sanidump (T16)</name>
    <desc>Tag 16 (03.04) - Sanidump
🚻 Sanidump: in Queenstown (i-Site / Holiday Park)</desc>
  </wpt>
  <wpt lat="-45.027849" lon="168.696881">
    <name>Frischwasser (T16)</name>
    <desc>Tag 16 (03.04) - Frischwasser
💧 Frischwasser: in Queenstown auffüllen</desc>
  </wpt>
  <wpt lat="-43.875698" lon="169.043669">
    <name>Tanken (T23)</name>
    <desc>Tag 23 (10.04) - Tanken
⛽ vor Haast Pass in Wanaka volltanken (keine Tankstellen auf der Pass-Strecke)</desc>
  </wpt>
  <wpt lat="-43.292015" lon="170.224655">
    <name>Wäsche (T25)</name>
    <desc>Tag 25 (12.04) - Wäsche
🧺 Wäsche-Stop 4: Laundromat Franz Josef (64 Cron St, 24h, $2 coin)</desc>
  </wpt>
  <wpt lat="-43.387382" lon="170.181932">
    <name>Sanidump (T25)</name>
    <desc>Tag 25 (12.04) - Sanidump
🚻 Sanidump: in Franz Josef (i-Site / Holiday Park)</desc>
  </wpt>
  <wpt lat="-43.291315" lon="170.224655">
    <name>Frischwasser (T25)</name>
    <desc>Tag 25 (12.04) - Frischwasser
💧 Frischwasser: in Franz Josef auffüllen</desc>
  </wpt>
  <wpt lat="-42.791151" lon="170.919891">
    <name>Tanken (T26)</name>
    <desc>Tag 26 (13.04) - Tanken
⛽ West Coast: in Hokitika tanken (Glacier Country / Franz Josef deutlich teurer)</desc>
  </wpt>
  <wpt lat="-41.213163" lon="173.396900">
    <name>Wäsche (T30)</name>
    <desc>Tag 30 (17.04) - Wäsche
🧺 Wäsche-Stop 5: Liquid Toi Toi / Master Valet Self-Service (24/7)</desc>
  </wpt>
  <wpt lat="-41.271085" lon="173.283676">
    <name>Sanidump (T30)</name>
    <desc>Tag 30 (17.04) - Sanidump
🚻 Sanidump: in Nelson (i-Site / Holiday Park)</desc>
  </wpt>
  <wpt lat="-41.212463" lon="173.396900">
    <name>Frischwasser (T30)</name>
    <desc>Tag 30 (17.04) - Frischwasser
💧 Frischwasser: in Nelson auffüllen</desc>
  </wpt>
  <wpt lat="-41.305623" lon="174.798576">
    <name>Tanken (T38)</name>
    <desc>Tag 38 (25.04) - Tanken
⛽ Vor der Fähre in Picton volltanken + Dump komplett leeren &amp; versiegeln (in Wellington kein Camper-Tanken nötig)</desc>
  </wpt>
  <wpt lat="-41.305273" lon="174.798576">
    <name>Wäsche (T39)</name>
    <desc>Tag 39 (26.04) - Wäsche
🧺 Wäsche-Stop 6: Janice Laundry Newtown (180 Adelaide Rd, 24/7)</desc>
  </wpt>
  <wpt lat="-41.288795" lon="174.777211">
    <name>Sanidump (T39)</name>
    <desc>Tag 39 (26.04) - Sanidump
🚻 Sanidump: in Wellington (i-Site / Holiday Park)</desc>
  </wpt>
  <wpt lat="-41.304573" lon="174.798576">
    <name>Frischwasser (T39)</name>
    <desc>Tag 39 (26.04) - Frischwasser
💧 Frischwasser: in Wellington auffüllen</desc>
  </wpt>
  <wpt lat="-38.683300" lon="176.080000">
    <name>Wäsche (T44)</name>
    <desc>Tag 44 (01.05) - Wäsche
🧺 Wäsche-Stop 7: Liquid Taupō (24/7)</desc>
  </wpt>
  <wpt lat="-38.682950" lon="176.080000">
    <name>Sanidump (T44)</name>
    <desc>Tag 44 (01.05) - Sanidump
🚻 Sanidump: in Taupō (i-Site / Holiday Park)</desc>
  </wpt>
  <wpt lat="-38.682600" lon="176.080000">
    <name>Frischwasser (T44)</name>
    <desc>Tag 44 (01.05) - Frischwasser
💧 Frischwasser: in Taupō auffüllen</desc>
  </wpt>
  <wpt lat="-37.934438" lon="176.145291">
    <name>Wäsche (T50)</name>
    <desc>Tag 50 (07.05) - Wäsche
🧺 Wäsche-Stop 7 alt: Choice Laundromats Rotorua (24/7)</desc>
  </wpt>
  <wpt lat="-38.136073" lon="176.252543">
    <name>Sanidump (T50)</name>
    <desc>Tag 50 (07.05) - Sanidump
🚻 Sanidump: in Rotorua (i-Site / Holiday Park)</desc>
  </wpt>
  <wpt lat="-37.933738" lon="176.145291">
    <name>Frischwasser (T50)</name>
    <desc>Tag 50 (07.05) - Frischwasser
💧 Frischwasser: in Rotorua auffüllen</desc>
  </wpt>
  <wpt lat="-36.838700" lon="174.763300">
    <name>Wäsche (T61)</name>
    <desc>Tag 61 (18.05) - Wäsche
🧺 Wäsche-Stop 8: Mint Laundromat (Beach Rd, 24/7) optional</desc>
  </wpt>
  <wpt lat="-36.852095" lon="174.763180">
    <name>Sanidump (T61)</name>
    <desc>Tag 61 (18.05) - Sanidump
🚻 Sanidump: in Auckland (i-Site / Holiday Park)</desc>
  </wpt>
  <wpt lat="-36.838000" lon="174.763300">
    <name>Frischwasser (T61)</name>
    <desc>Tag 61 (18.05) - Frischwasser
💧 Frischwasser: in Auckland auffüllen</desc>
  </wpt>
</gpx>