<?xml version="1.0" encoding="UTF-8"?>
<gpx version="1.1" creator="nz-trip-planner" xmlns="http://www.topografix.com/GPX/1/1" xmlns:xsi="http://www.w3.org/2001/XMLSchema-instance" xsi:schemaLocation="http://www.topografix.com/GPX/1/1 http://www.topografix.com/GPX/1/1/gpx.xsd">
  <metadata><name>NZ27 Versorgung Frischwasser</name></metadata>
  <wpt lat="-43.529460" lon="172.736508">
    <name>Frischwasser (T1)</name>
    <desc>Tag 1 (19.03) - Frischwasser
💧 Frischwasser: in Christchurch auffüllen</desc>
  </wpt>
  <wpt lat="-45.812918" lon="170.674744">
    <name>Frischwasser (T6)</name>
    <desc>Tag 6 (24.03) - Frischwasser
💧 Frischwasser: in Dunedin auffüllen</desc>
  </wpt>
  <wpt lat="-45.027849" lon="168.696881">
    <name>Frischwasser (T16)</name>
    <desc>Tag 16 (03.04) - Frischwasser
💧 Frischwasser: in Queenstown auffüllen</desc>
  </wpt>
  <wpt lat="-43.291315" lon="170.224655">
    <name>Frischwasser (T25)</name>
    <desc>Tag 25 (12.04) - Frischwasser
💧 Frischwasser: in Franz Josef auffüllen</desc>
  </wpt>
  <wpt lat="-41.212463" lon="173.396900">
    <name>Frischwasser (T30)</name>
    <desc>Tag 30 (17.04) - Frischwasser
💧 Frischwasser: in Nelson auffüllen</desc>
  </wpt>
  <wpt lat="-41.304573" lon="174.798576">
    <name>Frischwasser (T39)</name>
    <desc>Tag 39 (26.04) - Frischwasser
💧 Frischwasser: in Wellington auffüllen</desc>
  </wpt>
  <wpt lat="-38.682600" lon="176.080000">
    <name>Frischwasser (T44)</name>
    <desc>Tag 44 (01.05) - Frischwasser
💧 Frischwasser: in Taupō auffüllen</desc>
  </wpt>
  <wpt lat="-37.933738" lon="176.145291">
    <name>Frischwasser (T50)</name>
    <desc>Tag 50 (07.05) - Frischwasser
💧 Frischwasser: in Rotorua auffüllen</desc>
  </wpt>
  <wpt lat="-36.838000" lon="174.763300">
    <name>Frischwasser (T61)</name>
    <desc>Tag 61 (18.05) - Frischwasser
💧 Frischwasser: in Auckland auffüllen</desc>
  </wpt>
</gpx>